[{"adressId":1,"strasse":"Service","nummer":"697","ort":{"ortId":1,"zipCode":5460,"name":"Sukamaju"}},
{"adressId":2,"strasse":"Arkansas","nummer":"2495","ort":{"ortId":2,"zipCode":3850,"name":"Khelyulya"}},
{"adressId":3,"strasse":"Montana","nummer":"796","ort":{"ortId":3,"zipCode":3586,"name":"Arendal"}},
{"adressId":4,"strasse":"Sage","nummer":"23","ort":{"ortId":4,"zipCode":8899,"name":"Jishigang"}},
{"adressId":5,"strasse":"Welch","nummer":"5","ort":{"ortId":5,"zipCode":6160,"name":"Torre do Pinhão"}},
{"adressId":6,"strasse":"Old Shore","nummer":"130","ort":{"ortId":6,"zipCode":6911,"name":"Krenggan"}},
{"adressId":7,"strasse":"Holy Cross","nummer":"563","ort":{"ortId":7,"zipCode":6144,"name":"Young America"}},
{"adressId":8,"strasse":"Melvin","nummer":"5867","ort":{"ortId":8,"zipCode":9873,"name":"Baćkowice"}},
{"adressId":9,"strasse":"Buena Vista","nummer":"46","ort":{"ortId":9,"zipCode":8716,"name":"Jazovo"}},
{"adressId":10,"strasse":"Memorial","nummer":"539","ort":{"ortId":10,"zipCode":9327,"name":"Estefania"}},
{"adressId":11,"strasse":"Oxford","nummer":"460","ort":{"ortId":11,"zipCode":9398,"name":"Palos"}},
{"adressId":12,"strasse":"Spenser","nummer":"521","ort":{"ortId":12,"zipCode":8365,"name":"Jiazhuyuan"}},
{"adressId":13,"strasse":"Basil","nummer":"57837","ort":{"ortId":13,"zipCode":9102,"name":"Corroios"}},
{"adressId":14,"strasse":"Springs","nummer":"9751","ort":{"ortId":14,"zipCode":5149,"name":"Nova Viçosa"}},
{"adressId":15,"strasse":"Lighthouse Bay","nummer":"8","ort":{"ortId":15,"zipCode":7842,"name":"Néos Mylótopos"}},
{"adressId":16,"strasse":"Mandrake","nummer":"981","ort":{"ortId":16,"zipCode":2358,"name":"Yushan"}},
{"adressId":17,"strasse":"Straubel","nummer":"8","ort":{"ortId":17,"zipCode":4820,"name":"Mabua"}},
{"adressId":18,"strasse":"Logan","nummer":"49618","ort":{"ortId":18,"zipCode":3420,"name":"Caba"}},
{"adressId":19,"strasse":"Messerschmidt","nummer":"63264","ort":{"ortId":19,"zipCode":9368,"name":"Rača"}},
{"adressId":20,"strasse":"Sullivan","nummer":"11148","ort":{"ortId":20,"zipCode":1199,"name":"Bang Bon"}},
{"adressId":21,"strasse":"Mandrake","nummer":"31583","ort":{"ortId":21,"zipCode":5647,"name":"Bancak Wetan"}},
{"adressId":22,"strasse":"Erie","nummer":"804","ort":{"ortId":22,"zipCode":9696,"name":"Monção"}},
{"adressId":23,"strasse":"Bonner","nummer":"08794","ort":{"ortId":23,"zipCode":6786,"name":"Mendī"}},
{"adressId":24,"strasse":"Northport","nummer":"8919","ort":{"ortId":24,"zipCode":1909,"name":"Allen"}},
{"adressId":25,"strasse":"Jenna","nummer":"160","ort":{"ortId":25,"zipCode":2762,"name":"Schellenberg"}},
{"adressId":26,"strasse":"Fallview","nummer":"4","ort":{"ortId":26,"zipCode":3874,"name":"Kamenka"}},
{"adressId":27,"strasse":"Straubel","nummer":"34","ort":{"ortId":27,"zipCode":9023,"name":"Nanyaojie"}},
{"adressId":28,"strasse":"Forest","nummer":"204","ort":{"ortId":28,"zipCode":8039,"name":"Kalmar"}},
{"adressId":29,"strasse":"Colorado","nummer":"896","ort":{"ortId":29,"zipCode":5361,"name":"Viterbo"}},
{"adressId":30,"strasse":"Vermont","nummer":"90","ort":{"ortId":30,"zipCode":5949,"name":"Wielichowo"}},
{"adressId":31,"strasse":"Larry","nummer":"6674","ort":{"ortId":31,"zipCode":5873,"name":"Tanda"}},
{"adressId":32,"strasse":"Florence","nummer":"36158","ort":{"ortId":32,"zipCode":8699,"name":"Nakonde"}},
{"adressId":33,"strasse":"Pearson","nummer":"94022","ort":{"ortId":33,"zipCode":6209,"name":"Kampungmasjid"}},
{"adressId":34,"strasse":"Ridge Oak","nummer":"6600","ort":{"ortId":34,"zipCode":7843,"name":"Monte Mor"}},
{"adressId":35,"strasse":"Buell","nummer":"03379","ort":{"ortId":35,"zipCode":9420,"name":"Laslovo"}},
{"adressId":36,"strasse":"Corscot","nummer":"4","ort":{"ortId":36,"zipCode":4158,"name":"Cipondok"}},
{"adressId":37,"strasse":"Bobwhite","nummer":"3068","ort":{"ortId":37,"zipCode":9490,"name":"Qīr Moāv"}},
{"adressId":38,"strasse":"Union","nummer":"5","ort":{"ortId":38,"zipCode":5431,"name":"Bradenton"}},
{"adressId":39,"strasse":"Havey","nummer":"8027","ort":{"ortId":39,"zipCode":3425,"name":"Linköping"}},
{"adressId":40,"strasse":"Rigney","nummer":"7","ort":{"ortId":40,"zipCode":5171,"name":"Bonneuil-sur-Marne"}},
{"adressId":41,"strasse":"Darwin","nummer":"45061","ort":{"ortId":41,"zipCode":9819,"name":"Xishan"}},
{"adressId":42,"strasse":"Briar Crest","nummer":"811","ort":{"ortId":42,"zipCode":5655,"name":"Jintan"}},
{"adressId":43,"strasse":"Sloan","nummer":"2981","ort":{"ortId":43,"zipCode":2224,"name":"Kutno"}},
{"adressId":44,"strasse":"Southridge","nummer":"43504","ort":{"ortId":44,"zipCode":1977,"name":"Souflí"}},
{"adressId":45,"strasse":"Onsgard","nummer":"8","ort":{"ortId":45,"zipCode":7180,"name":"Uppsala"}},
{"adressId":46,"strasse":"Oak","nummer":"18","ort":{"ortId":46,"zipCode":3259,"name":"Safotu"}},
{"adressId":47,"strasse":"Mosinee","nummer":"449","ort":{"ortId":47,"zipCode":8543,"name":"Hadyach"}},
{"adressId":48,"strasse":"Straubel","nummer":"97","ort":{"ortId":48,"zipCode":7196,"name":"Beigou"}},
{"adressId":49,"strasse":"Starling","nummer":"0","ort":{"ortId":49,"zipCode":8297,"name":"Naukot"}},
{"adressId":50,"strasse":"Farragut","nummer":"115","ort":{"ortId":50,"zipCode":2564,"name":"Nogueira"}},
{"adressId":51,"strasse":"Holmberg","nummer":"4","ort":{"ortId":51,"zipCode":5929,"name":"Linjiang"}},
{"adressId":52,"strasse":"Pearson","nummer":"12","ort":{"ortId":52,"zipCode":2700,"name":"Cerkvenjak"}},
{"adressId":53,"strasse":"Caliangt","nummer":"7857","ort":{"ortId":53,"zipCode":7687,"name":"Borovan"}},
{"adressId":54,"strasse":"Dapin","nummer":"00","ort":{"ortId":54,"zipCode":2761,"name":"Lidzbark"}},
{"adressId":55,"strasse":"Mallory","nummer":"44","ort":{"ortId":55,"zipCode":1486,"name":"Tambarangan"}},
{"adressId":56,"strasse":"Sullivan","nummer":"89558","ort":{"ortId":56,"zipCode":5647,"name":"Mogi Mirim"}},
{"adressId":57,"strasse":"Oak Valley","nummer":"3610","ort":{"ortId":57,"zipCode":5701,"name":"Keli"}},
{"adressId":58,"strasse":"Surrey","nummer":"2266","ort":{"ortId":58,"zipCode":4320,"name":"Wupu"}},
{"adressId":59,"strasse":"Sherman","nummer":"3862","ort":{"ortId":59,"zipCode":3350,"name":"Kipini"}},
{"adressId":60,"strasse":"Cody","nummer":"145","ort":{"ortId":60,"zipCode":3676,"name":"Marseille"}},
{"adressId":61,"strasse":"Ilene","nummer":"09","ort":{"ortId":61,"zipCode":2497,"name":"Huatai"}},
{"adressId":62,"strasse":"Toban","nummer":"80","ort":{"ortId":62,"zipCode":1558,"name":"Cruzeiro"}},
{"adressId":63,"strasse":"Grim","nummer":"234","ort":{"ortId":63,"zipCode":1057,"name":"Tavricheskoye"}},
{"adressId":64,"strasse":"Clemons","nummer":"5408","ort":{"ortId":64,"zipCode":8787,"name":"Cikaras"}},
{"adressId":65,"strasse":"Milwaukee","nummer":"18","ort":{"ortId":65,"zipCode":3834,"name":"Ariquemes"}},
{"adressId":66,"strasse":"Loftsgordon","nummer":"1","ort":{"ortId":66,"zipCode":2118,"name":"Valdivia"}},
{"adressId":67,"strasse":"Donald","nummer":"96282","ort":{"ortId":67,"zipCode":7577,"name":"Bogra"}},
{"adressId":68,"strasse":"Carpenter","nummer":"9","ort":{"ortId":68,"zipCode":9781,"name":"Maketu"}},
{"adressId":69,"strasse":"Petterle","nummer":"74345","ort":{"ortId":69,"zipCode":4612,"name":"Mulanje"}},
{"adressId":70,"strasse":"Green Ridge","nummer":"17545","ort":{"ortId":70,"zipCode":4345,"name":"Verin Artashat"}},
{"adressId":71,"strasse":"Maywood","nummer":"39","ort":{"ortId":71,"zipCode":9710,"name":"Padhahegha"}},
{"adressId":72,"strasse":"Debra","nummer":"2","ort":{"ortId":72,"zipCode":4029,"name":"Ntungamo"}},
{"adressId":73,"strasse":"Northport","nummer":"3139","ort":{"ortId":73,"zipCode":6291,"name":"Shuangtian"}},
{"adressId":74,"strasse":"Northridge","nummer":"2","ort":{"ortId":74,"zipCode":6556,"name":"Ceibas"}},
{"adressId":75,"strasse":"Prentice","nummer":"2849","ort":{"ortId":75,"zipCode":2465,"name":"Åtvidaberg"}},
{"adressId":76,"strasse":"Oriole","nummer":"9176","ort":{"ortId":76,"zipCode":3136,"name":"Blessington"}},
{"adressId":77,"strasse":"East","nummer":"3674","ort":{"ortId":77,"zipCode":2074,"name":"Julcamarca"}},
{"adressId":78,"strasse":"Towne","nummer":"8","ort":{"ortId":78,"zipCode":3459,"name":"Ogoja"}},
{"adressId":79,"strasse":"Veith","nummer":"5","ort":{"ortId":79,"zipCode":2215,"name":"Gulbene"}},
{"adressId":80,"strasse":"Coleman","nummer":"2","ort":{"ortId":80,"zipCode":7512,"name":"Paquera"}},
{"adressId":81,"strasse":"Lawn","nummer":"8882","ort":{"ortId":81,"zipCode":9769,"name":"Wuqishan"}},
{"adressId":82,"strasse":"Northview","nummer":"3101","ort":{"ortId":82,"zipCode":6115,"name":"Granada"}},
{"adressId":83,"strasse":"Warner","nummer":"64860","ort":{"ortId":83,"zipCode":6105,"name":"Kořenov"}},
{"adressId":84,"strasse":"Nobel","nummer":"3","ort":{"ortId":84,"zipCode":5182,"name":"Minneapolis"}},
{"adressId":85,"strasse":"Sunnyside","nummer":"60391","ort":{"ortId":85,"zipCode":7238,"name":"Krikil"}},
{"adressId":86,"strasse":"Canary","nummer":"46237","ort":{"ortId":86,"zipCode":8884,"name":"Kyzyl"}},
{"adressId":87,"strasse":"Eagle Crest","nummer":"530","ort":{"ortId":87,"zipCode":9143,"name":"Nyeri"}},
{"adressId":88,"strasse":"Schlimgen","nummer":"477","ort":{"ortId":88,"zipCode":2945,"name":"Sóc Trăng"}},
{"adressId":89,"strasse":"Melby","nummer":"22066","ort":{"ortId":89,"zipCode":4088,"name":"Yvetot"}},
{"adressId":90,"strasse":"Springview","nummer":"5033","ort":{"ortId":90,"zipCode":3584,"name":"Caseros"}},
{"adressId":91,"strasse":"1st","nummer":"97","ort":{"ortId":91,"zipCode":9372,"name":"Sintansin"}},
{"adressId":92,"strasse":"Scoville","nummer":"79482","ort":{"ortId":92,"zipCode":6073,"name":"Sayansk"}},
{"adressId":93,"strasse":"Orin","nummer":"789","ort":{"ortId":93,"zipCode":6907,"name":"Farap"}},
{"adressId":94,"strasse":"Pearson","nummer":"5711","ort":{"ortId":94,"zipCode":8628,"name":"Cullinan"}},
{"adressId":95,"strasse":"Lighthouse Bay","nummer":"67102","ort":{"ortId":95,"zipCode":4610,"name":"Lianshi"}},
{"adressId":96,"strasse":"Commercial","nummer":"1938","ort":{"ortId":96,"zipCode":9507,"name":"Lianhua"}},
{"adressId":97,"strasse":"Lien","nummer":"104","ort":{"ortId":97,"zipCode":2719,"name":"Punta de Bombón"}},
{"adressId":98,"strasse":"Forster","nummer":"9254","ort":{"ortId":98,"zipCode":2032,"name":"Pasirdalem"}},
{"adressId":99,"strasse":"Loftsgordon","nummer":"89261","ort":{"ortId":99,"zipCode":8497,"name":"Kingersheim"}},
{"adressId":100,"strasse":"Eliot","nummer":"4","ort":{"ortId":100,"zipCode":7035,"name":"Herāt"}},
{"adressId":101,"strasse":"Clemons","nummer":"748","ort":{"ortId":101,"zipCode":4831,"name":"Karlskrona"}},
{"adressId":102,"strasse":"Scott","nummer":"349","ort":{"ortId":102,"zipCode":5585,"name":"Mabini"}},
{"adressId":103,"strasse":"Schurz","nummer":"252","ort":{"ortId":103,"zipCode":2425,"name":"Mandor"}},
{"adressId":104,"strasse":"Sutherland","nummer":"14","ort":{"ortId":104,"zipCode":7956,"name":"Tianhu"}},
{"adressId":105,"strasse":"Cambridge","nummer":"8322","ort":{"ortId":105,"zipCode":6558,"name":"Igbeti"}},
{"adressId":106,"strasse":"Columbus","nummer":"931","ort":{"ortId":106,"zipCode":2443,"name":"Petersfield"}},
{"adressId":107,"strasse":"Artisan","nummer":"378","ort":{"ortId":107,"zipCode":8368,"name":"Yilan"}},
{"adressId":108,"strasse":"Dorton","nummer":"4","ort":{"ortId":108,"zipCode":2892,"name":"Qal‘eh-ye Khvājeh"}},
{"adressId":109,"strasse":"Jenna","nummer":"2594","ort":{"ortId":109,"zipCode":4865,"name":"Rashaant"}},
{"adressId":110,"strasse":"Hauk","nummer":"59","ort":{"ortId":110,"zipCode":4721,"name":"Masuda"}},
{"adressId":111,"strasse":"Randy","nummer":"37810","ort":{"ortId":111,"zipCode":2777,"name":"Nysa"}},
{"adressId":112,"strasse":"Golf Course","nummer":"42440","ort":{"ortId":112,"zipCode":7742,"name":"Peristerona"}},
{"adressId":113,"strasse":"Esker","nummer":"8016","ort":{"ortId":113,"zipCode":2629,"name":"La Romana"}},
{"adressId":114,"strasse":"Pierstorff","nummer":"4708","ort":{"ortId":114,"zipCode":1853,"name":"Caeté"}},
{"adressId":115,"strasse":"Troy","nummer":"47816","ort":{"ortId":115,"zipCode":3189,"name":"Sepulu"}},
{"adressId":116,"strasse":"Toban","nummer":"8","ort":{"ortId":116,"zipCode":4914,"name":"Cachoeira do Sul"}},
{"adressId":117,"strasse":"Dwight","nummer":"06","ort":{"ortId":117,"zipCode":7343,"name":"Bélabo"}},
{"adressId":118,"strasse":"Doe Crossing","nummer":"6073","ort":{"ortId":118,"zipCode":2000,"name":"Zhutang"}},
{"adressId":119,"strasse":"Gina","nummer":"79","ort":{"ortId":119,"zipCode":8760,"name":"Lokuuy"}},
{"adressId":120,"strasse":"Forest Run","nummer":"5690","ort":{"ortId":120,"zipCode":3460,"name":"Baita"}},
{"adressId":121,"strasse":"Hudson","nummer":"1800","ort":{"ortId":121,"zipCode":8514,"name":"El Limon"}},
{"adressId":122,"strasse":"Manufacturers","nummer":"623","ort":{"ortId":122,"zipCode":9468,"name":"Shensuo"}},
{"adressId":123,"strasse":"Hovde","nummer":"768","ort":{"ortId":123,"zipCode":5331,"name":"Kankara"}},
{"adressId":124,"strasse":"Manitowish","nummer":"378","ort":{"ortId":124,"zipCode":5445,"name":"North Shore"}},
{"adressId":125,"strasse":"Algoma","nummer":"44","ort":{"ortId":125,"zipCode":2175,"name":"Krasnogorskiy"}},
{"adressId":126,"strasse":"Michigan","nummer":"64","ort":{"ortId":126,"zipCode":9764,"name":"Kirkland"}},
{"adressId":127,"strasse":"Vera","nummer":"9","ort":{"ortId":127,"zipCode":8141,"name":"Svojat"}},
{"adressId":128,"strasse":"Delladonna","nummer":"35","ort":{"ortId":128,"zipCode":3409,"name":"Protección"}},
{"adressId":129,"strasse":"Oneill","nummer":"76821","ort":{"ortId":129,"zipCode":9192,"name":"Kurmanayevka"}},
{"adressId":130,"strasse":"Sunfield","nummer":"2","ort":{"ortId":130,"zipCode":9540,"name":"Quezaltepeque"}},
{"adressId":131,"strasse":"Melody","nummer":"791","ort":{"ortId":131,"zipCode":4932,"name":"Sanshengyuan"}},
{"adressId":132,"strasse":"Schiller","nummer":"21335","ort":{"ortId":132,"zipCode":2717,"name":"Matiao"}},
{"adressId":133,"strasse":"Karstens","nummer":"7645","ort":{"ortId":133,"zipCode":1095,"name":"Changlin"}},
{"adressId":134,"strasse":"Lotheville","nummer":"1375","ort":{"ortId":134,"zipCode":4806,"name":"Kananga"}},
{"adressId":135,"strasse":"Karstens","nummer":"60","ort":{"ortId":135,"zipCode":7727,"name":"Imrīsh"}},
{"adressId":136,"strasse":"Elka","nummer":"62396","ort":{"ortId":136,"zipCode":5513,"name":"Cidikit Girang"}},
{"adressId":137,"strasse":"Del Sol","nummer":"0287","ort":{"ortId":137,"zipCode":4217,"name":"Kavadarci"}},
{"adressId":138,"strasse":"Hallows","nummer":"16","ort":{"ortId":138,"zipCode":5945,"name":"Carbajales"}},
{"adressId":139,"strasse":"Colorado","nummer":"2","ort":{"ortId":139,"zipCode":8043,"name":"Västerås"}},
{"adressId":140,"strasse":"Eastlawn","nummer":"61","ort":{"ortId":140,"zipCode":3080,"name":"Daoqiao"}},
{"adressId":141,"strasse":"Shoshone","nummer":"15711","ort":{"ortId":141,"zipCode":2814,"name":"Yuzawa"}},
{"adressId":142,"strasse":"Crowley","nummer":"64","ort":{"ortId":142,"zipCode":4226,"name":"Phước An"}},
{"adressId":143,"strasse":"Bowman","nummer":"47417","ort":{"ortId":143,"zipCode":9880,"name":"Mbocayaty"}},
{"adressId":144,"strasse":"Grasskamp","nummer":"4","ort":{"ortId":144,"zipCode":9964,"name":"Heung-hai"}},
{"adressId":145,"strasse":"Canary","nummer":"6","ort":{"ortId":145,"zipCode":7490,"name":"Неготино"}},
{"adressId":146,"strasse":"Redwing","nummer":"69110","ort":{"ortId":146,"zipCode":4280,"name":"Malabar"}},
{"adressId":147,"strasse":"Drewry","nummer":"6705","ort":{"ortId":147,"zipCode":7623,"name":"Niš"}},
{"adressId":148,"strasse":"Dayton","nummer":"7","ort":{"ortId":148,"zipCode":9919,"name":"Lyubokhna"}},
{"adressId":149,"strasse":"Transport","nummer":"85556","ort":{"ortId":149,"zipCode":4414,"name":"Shinkafe"}},
{"adressId":150,"strasse":"Marcy","nummer":"1644","ort":{"ortId":150,"zipCode":7226,"name":"Zhaocun"}},
{"adressId":151,"strasse":"Brentwood","nummer":"28906","ort":{"ortId":151,"zipCode":5002,"name":"Jaguimitan"}},
{"adressId":152,"strasse":"Lakewood Gardens","nummer":"0787","ort":{"ortId":152,"zipCode":2885,"name":"Jūrmala"}},
{"adressId":153,"strasse":"Carberry","nummer":"4","ort":{"ortId":153,"zipCode":1947,"name":"Sai’erlong Xiang"}},
{"adressId":154,"strasse":"Orin","nummer":"96146","ort":{"ortId":154,"zipCode":6578,"name":"Rathnew"}},
{"adressId":155,"strasse":"Warbler","nummer":"48","ort":{"ortId":155,"zipCode":3609,"name":"Prinza"}},
{"adressId":156,"strasse":"Kings","nummer":"7","ort":{"ortId":156,"zipCode":2096,"name":"Guadalupe"}},
{"adressId":157,"strasse":"Steensland","nummer":"18","ort":{"ortId":157,"zipCode":2197,"name":"Meiyao"}},
{"adressId":158,"strasse":"Autumn Leaf","nummer":"21","ort":{"ortId":158,"zipCode":8236,"name":"Farroupilha"}},
{"adressId":159,"strasse":"Karstens","nummer":"050","ort":{"ortId":159,"zipCode":5261,"name":"Pontevedra"}},
{"adressId":160,"strasse":"Butternut","nummer":"7","ort":{"ortId":160,"zipCode":9842,"name":"Samothráki"}},
{"adressId":161,"strasse":"Algoma","nummer":"88","ort":{"ortId":161,"zipCode":6030,"name":"Xinli"}},
{"adressId":162,"strasse":"Towne","nummer":"9","ort":{"ortId":162,"zipCode":7424,"name":"El Tablón"}},
{"adressId":163,"strasse":"Paget","nummer":"48048","ort":{"ortId":163,"zipCode":8635,"name":"Jatinagara Kulon"}},
{"adressId":164,"strasse":"Merry","nummer":"961","ort":{"ortId":164,"zipCode":6582,"name":"Kotlyarevskaya"}},
{"adressId":165,"strasse":"Petterle","nummer":"8","ort":{"ortId":165,"zipCode":6253,"name":"Plumbon"}},
{"adressId":166,"strasse":"Logan","nummer":"76","ort":{"ortId":166,"zipCode":8518,"name":"Novogurovskiy"}},
{"adressId":167,"strasse":"Grover","nummer":"5","ort":{"ortId":167,"zipCode":2904,"name":"Kandi"}},
{"adressId":168,"strasse":"Fulton","nummer":"66959","ort":{"ortId":168,"zipCode":2609,"name":"Traganón"}},
{"adressId":169,"strasse":"Schmedeman","nummer":"9631","ort":{"ortId":169,"zipCode":7387,"name":"Ibiporã"}},
{"adressId":170,"strasse":"Red Cloud","nummer":"89","ort":{"ortId":170,"zipCode":6016,"name":"Gravelbourg"}},
{"adressId":171,"strasse":"Sage","nummer":"931","ort":{"ortId":171,"zipCode":4893,"name":"Iperu"}},
{"adressId":172,"strasse":"Killdeer","nummer":"7","ort":{"ortId":172,"zipCode":7271,"name":"Xiaoyan"}},
{"adressId":173,"strasse":"Carberry","nummer":"84","ort":{"ortId":173,"zipCode":4697,"name":"Nago"}},
{"adressId":174,"strasse":"Acker","nummer":"4061","ort":{"ortId":174,"zipCode":1411,"name":"Santa Catalina"}},
{"adressId":175,"strasse":"Calypso","nummer":"0","ort":{"ortId":175,"zipCode":4634,"name":"Gaozhou"}},
{"adressId":176,"strasse":"Lyons","nummer":"2","ort":{"ortId":176,"zipCode":9574,"name":"Taishan"}},
{"adressId":177,"strasse":"Arrowood","nummer":"74389","ort":{"ortId":177,"zipCode":4987,"name":"Gunajaya"}},
{"adressId":178,"strasse":"Kim","nummer":"87095","ort":{"ortId":178,"zipCode":4886,"name":"Hampang"}},
{"adressId":179,"strasse":"Bunting","nummer":"0246","ort":{"ortId":179,"zipCode":4859,"name":"Staré Město"}},
{"adressId":180,"strasse":"Meadow Vale","nummer":"013","ort":{"ortId":180,"zipCode":7541,"name":"Guabito"}},
{"adressId":181,"strasse":"Fairview","nummer":"7","ort":{"ortId":181,"zipCode":1834,"name":"Even Yehuda"}},
{"adressId":182,"strasse":"Reindahl","nummer":"7","ort":{"ortId":182,"zipCode":9557,"name":"Benguela"}},
{"adressId":183,"strasse":"Shelley","nummer":"45","ort":{"ortId":183,"zipCode":9050,"name":"Pedro Carbo"}},
{"adressId":184,"strasse":"Judy","nummer":"6","ort":{"ortId":184,"zipCode":2809,"name":"Santo Anastácio"}},
{"adressId":185,"strasse":"Hovde","nummer":"852","ort":{"ortId":185,"zipCode":3031,"name":"Mauren"}},
{"adressId":186,"strasse":"Derek","nummer":"3","ort":{"ortId":186,"zipCode":1097,"name":"Chongqing"}},
{"adressId":187,"strasse":"Esch","nummer":"9","ort":{"ortId":187,"zipCode":5707,"name":"Žlutice"}},
{"adressId":188,"strasse":"Grim","nummer":"40067","ort":{"ortId":188,"zipCode":6486,"name":"Pacajus"}},
{"adressId":189,"strasse":"Ridgeway","nummer":"78","ort":{"ortId":189,"zipCode":6604,"name":"Monkstown"}},
{"adressId":190,"strasse":"Cody","nummer":"63","ort":{"ortId":190,"zipCode":3578,"name":"Oslo"}},
{"adressId":191,"strasse":"Novick","nummer":"605","ort":{"ortId":191,"zipCode":9972,"name":"Cipadung Timur"}},
{"adressId":192,"strasse":"Shoshone","nummer":"09647","ort":{"ortId":192,"zipCode":9519,"name":"Dicamay"}},
{"adressId":193,"strasse":"Melvin","nummer":"40380","ort":{"ortId":193,"zipCode":1381,"name":"Fezna"}},
{"adressId":194,"strasse":"Clove","nummer":"54","ort":{"ortId":194,"zipCode":9096,"name":"Glotovka"}},
{"adressId":195,"strasse":"Boyd","nummer":"0090","ort":{"ortId":195,"zipCode":9569,"name":"Kuznetsovs’k"}},
{"adressId":196,"strasse":"Blackbird","nummer":"60864","ort":{"ortId":196,"zipCode":2117,"name":"Sydney"}},
{"adressId":197,"strasse":"Harbort","nummer":"4","ort":{"ortId":197,"zipCode":1364,"name":"Żarki-Letnisko"}},
{"adressId":198,"strasse":"Dennis","nummer":"558","ort":{"ortId":198,"zipCode":8026,"name":"Sandwīp"}},
{"adressId":199,"strasse":"Jay","nummer":"961","ort":{"ortId":199,"zipCode":1450,"name":"Bojnik"}},
{"adressId":200,"strasse":"Heath","nummer":"54868","ort":{"ortId":200,"zipCode":3752,"name":"Abidjan"}},
{"adressId":201,"strasse":"Commercial","nummer":"52155","ort":{"ortId":201,"zipCode":6265,"name":"Tuquan"}},
{"adressId":202,"strasse":"Novick","nummer":"087","ort":{"ortId":202,"zipCode":4777,"name":"Askim"}},
{"adressId":203,"strasse":"Becker","nummer":"1398","ort":{"ortId":203,"zipCode":9561,"name":"Atlanta"}},
{"adressId":204,"strasse":"Roth","nummer":"553","ort":{"ortId":204,"zipCode":2184,"name":"Pavlovsk"}},
{"adressId":205,"strasse":"Bayside","nummer":"75","ort":{"ortId":205,"zipCode":5702,"name":"Pasarkayu"}},
{"adressId":206,"strasse":"Northland","nummer":"0","ort":{"ortId":206,"zipCode":7031,"name":"Gujrāt"}},
{"adressId":207,"strasse":"Fisk","nummer":"384","ort":{"ortId":207,"zipCode":5266,"name":"Ngunguru"}},
{"adressId":208,"strasse":"Roth","nummer":"59","ort":{"ortId":208,"zipCode":9044,"name":"Babagan"}},
{"adressId":209,"strasse":"Carpenter","nummer":"26541","ort":{"ortId":209,"zipCode":2003,"name":"Carcar"}},
{"adressId":210,"strasse":"Elgar","nummer":"719","ort":{"ortId":210,"zipCode":6306,"name":"Khānewāl"}},
{"adressId":211,"strasse":"Continental","nummer":"4732","ort":{"ortId":211,"zipCode":8579,"name":"Borovskoy"}},
{"adressId":212,"strasse":"Longview","nummer":"68392","ort":{"ortId":212,"zipCode":5863,"name":"Ncue"}},
{"adressId":213,"strasse":"Lighthouse Bay","nummer":"322","ort":{"ortId":213,"zipCode":6401,"name":"Mersam"}},
{"adressId":214,"strasse":"Farwell","nummer":"610","ort":{"ortId":214,"zipCode":4570,"name":"Gävle"}},
{"adressId":215,"strasse":"Pepper Wood","nummer":"27325","ort":{"ortId":215,"zipCode":2198,"name":"Muravlenko"}},
{"adressId":216,"strasse":"Fulton","nummer":"097","ort":{"ortId":216,"zipCode":5055,"name":"Sogati"}},
{"adressId":217,"strasse":"La Follette","nummer":"6","ort":{"ortId":217,"zipCode":4834,"name":"Bilice"}},
{"adressId":218,"strasse":"Mallory","nummer":"694","ort":{"ortId":218,"zipCode":5331,"name":"Pulong Sampalok"}},
{"adressId":219,"strasse":"Bay","nummer":"401","ort":{"ortId":219,"zipCode":7439,"name":"Salvacion"}},
{"adressId":220,"strasse":"Homewood","nummer":"21088","ort":{"ortId":220,"zipCode":1266,"name":"San Francisco"}},
{"adressId":221,"strasse":"Northridge","nummer":"50","ort":{"ortId":221,"zipCode":2354,"name":"Donghai"}},
{"adressId":222,"strasse":"Brown","nummer":"48","ort":{"ortId":222,"zipCode":3434,"name":"Xieba"}},
{"adressId":223,"strasse":"Clemons","nummer":"73125","ort":{"ortId":223,"zipCode":7013,"name":"Bergen op Zoom"}},
{"adressId":224,"strasse":"Utah","nummer":"2","ort":{"ortId":224,"zipCode":5904,"name":"San Marcos"}},
{"adressId":225,"strasse":"Messerschmidt","nummer":"485","ort":{"ortId":225,"zipCode":9187,"name":"La Caya"}},
{"adressId":226,"strasse":"Garrison","nummer":"18317","ort":{"ortId":226,"zipCode":9553,"name":"Cabaiguán"}},
{"adressId":227,"strasse":"Shoshone","nummer":"814","ort":{"ortId":227,"zipCode":5721,"name":"Kinatakutan"}},
{"adressId":228,"strasse":"North","nummer":"5","ort":{"ortId":228,"zipCode":3616,"name":"Bāgh-e Malek"}},
{"adressId":229,"strasse":"Pennsylvania","nummer":"95","ort":{"ortId":229,"zipCode":5620,"name":"Ariguaní"}},
{"adressId":230,"strasse":"Sycamore","nummer":"4374","ort":{"ortId":230,"zipCode":6308,"name":"Fasi"}},
{"adressId":231,"strasse":"Anthes","nummer":"68","ort":{"ortId":231,"zipCode":2513,"name":"Pola"}},
{"adressId":232,"strasse":"Nova","nummer":"17546","ort":{"ortId":232,"zipCode":8466,"name":"Ростуша"}},
{"adressId":233,"strasse":"Mayer","nummer":"14828","ort":{"ortId":233,"zipCode":5811,"name":"Campana"}},
{"adressId":234,"strasse":"Bartelt","nummer":"19910","ort":{"ortId":234,"zipCode":1614,"name":"Obesi"}},
{"adressId":235,"strasse":"Vidon","nummer":"9","ort":{"ortId":235,"zipCode":7912,"name":"Shibushi"}},
{"adressId":236,"strasse":"Lotheville","nummer":"2","ort":{"ortId":236,"zipCode":8042,"name":"Nîmes"}},
{"adressId":237,"strasse":"Comanche","nummer":"40","ort":{"ortId":237,"zipCode":1582,"name":"Nangan"}},
{"adressId":238,"strasse":"Toban","nummer":"4","ort":{"ortId":238,"zipCode":8219,"name":"Nanjia"}},
{"adressId":239,"strasse":"Rieder","nummer":"086","ort":{"ortId":239,"zipCode":4173,"name":"Rogowo"}},
{"adressId":240,"strasse":"Hintze","nummer":"608","ort":{"ortId":240,"zipCode":1150,"name":"Norton"}},
{"adressId":241,"strasse":"Chinook","nummer":"2","ort":{"ortId":241,"zipCode":8401,"name":"Zhaotong"}},
{"adressId":242,"strasse":"Valley Edge","nummer":"31918","ort":{"ortId":242,"zipCode":3696,"name":"Akita Shi"}},
{"adressId":243,"strasse":"Buena Vista","nummer":"54456","ort":{"ortId":243,"zipCode":6227,"name":"Tozkhurmato"}},
{"adressId":244,"strasse":"Utah","nummer":"1603","ort":{"ortId":244,"zipCode":8805,"name":"Guojia"}},
{"adressId":245,"strasse":"Graceland","nummer":"1","ort":{"ortId":245,"zipCode":4862,"name":"Glan"}},
{"adressId":246,"strasse":"Homewood","nummer":"13","ort":{"ortId":246,"zipCode":7230,"name":"Koh Tao"}},
{"adressId":247,"strasse":"Summerview","nummer":"368","ort":{"ortId":247,"zipCode":7287,"name":"Columbus"}},
{"adressId":248,"strasse":"Welch","nummer":"43","ort":{"ortId":248,"zipCode":2873,"name":"Hekou"}},
{"adressId":249,"strasse":"Eagle Crest","nummer":"6","ort":{"ortId":249,"zipCode":4304,"name":"Baru Timur"}},
{"adressId":250,"strasse":"Paget","nummer":"3","ort":{"ortId":250,"zipCode":7491,"name":"Sedatigede"}},
{"adressId":251,"strasse":"Division","nummer":"9501","ort":{"ortId":251,"zipCode":4458,"name":"Drammen"}},
{"adressId":252,"strasse":"Artisan","nummer":"838","ort":{"ortId":252,"zipCode":4605,"name":"Almalaguês"}},
{"adressId":253,"strasse":"Burrows","nummer":"8","ort":{"ortId":253,"zipCode":5027,"name":"Stockholm"}},
{"adressId":254,"strasse":"Evergreen","nummer":"973","ort":{"ortId":254,"zipCode":9851,"name":"Itiruçu"}},
{"adressId":255,"strasse":"Moulton","nummer":"096","ort":{"ortId":255,"zipCode":3782,"name":"Dobrich"}},
{"adressId":256,"strasse":"Sutteridge","nummer":"77328","ort":{"ortId":256,"zipCode":4758,"name":"Davila"}},
{"adressId":257,"strasse":"Swallow","nummer":"8964","ort":{"ortId":257,"zipCode":1342,"name":"Kouzhen"}},
{"adressId":258,"strasse":"Artisan","nummer":"6553","ort":{"ortId":258,"zipCode":4760,"name":"Charleroi"}},
{"adressId":259,"strasse":"Boyd","nummer":"3726","ort":{"ortId":259,"zipCode":6144,"name":"Mabilog"}},
{"adressId":260,"strasse":"Brickson Park","nummer":"5","ort":{"ortId":260,"zipCode":3650,"name":"Norrtälje"}},
{"adressId":261,"strasse":"Prentice","nummer":"17","ort":{"ortId":261,"zipCode":2806,"name":"Akhtopol"}},
{"adressId":262,"strasse":"Golden Leaf","nummer":"6","ort":{"ortId":262,"zipCode":3247,"name":"Granja do Tedo"}},
{"adressId":263,"strasse":"Sauthoff","nummer":"0006","ort":{"ortId":263,"zipCode":3567,"name":"Jingang"}},
{"adressId":264,"strasse":"Meadow Valley","nummer":"697","ort":{"ortId":264,"zipCode":2439,"name":"Saga"}},
{"adressId":265,"strasse":"Waxwing","nummer":"15681","ort":{"ortId":265,"zipCode":2894,"name":"Ribnica na Pohorju"}},
{"adressId":266,"strasse":"Sunnyside","nummer":"448","ort":{"ortId":266,"zipCode":5486,"name":"Tagnanan"}},
{"adressId":267,"strasse":"Talisman","nummer":"57064","ort":{"ortId":267,"zipCode":3535,"name":"Jiangluo"}},
{"adressId":268,"strasse":"Chinook","nummer":"77375","ort":{"ortId":268,"zipCode":1873,"name":"Luodian"}},
{"adressId":269,"strasse":"Susan","nummer":"68148","ort":{"ortId":269,"zipCode":6639,"name":"Ōdate"}},
{"adressId":270,"strasse":"Lake View","nummer":"8","ort":{"ortId":270,"zipCode":7190,"name":"Tacoma"}},
{"adressId":271,"strasse":"Texas","nummer":"53550","ort":{"ortId":271,"zipCode":4784,"name":"Rumat Heib"}},
{"adressId":272,"strasse":"Becker","nummer":"1","ort":{"ortId":272,"zipCode":8647,"name":"Södertälje"}},
{"adressId":273,"strasse":"Brown","nummer":"55","ort":{"ortId":273,"zipCode":1890,"name":"Luhans’ke"}},
{"adressId":274,"strasse":"Mcguire","nummer":"2225","ort":{"ortId":274,"zipCode":9355,"name":"Boawae"}},
{"adressId":275,"strasse":"Forster","nummer":"131","ort":{"ortId":275,"zipCode":5482,"name":"Salfīt"}},
{"adressId":276,"strasse":"Morrow","nummer":"57","ort":{"ortId":276,"zipCode":6022,"name":"Mori"}},
{"adressId":277,"strasse":"Sutherland","nummer":"07","ort":{"ortId":277,"zipCode":5972,"name":"Prado"}},
{"adressId":278,"strasse":"Ilene","nummer":"9","ort":{"ortId":278,"zipCode":2020,"name":"Dubu"}},
{"adressId":279,"strasse":"Columbus","nummer":"0","ort":{"ortId":279,"zipCode":2282,"name":"Tamansari"}},
{"adressId":280,"strasse":"Hooker","nummer":"57","ort":{"ortId":280,"zipCode":4774,"name":"Polowat"}},
{"adressId":281,"strasse":"Division","nummer":"4798","ort":{"ortId":281,"zipCode":4854,"name":"Banjarsari"}},
{"adressId":282,"strasse":"American Ash","nummer":"6178","ort":{"ortId":282,"zipCode":3954,"name":"Bayaguana"}},
{"adressId":283,"strasse":"Village","nummer":"2223","ort":{"ortId":283,"zipCode":3866,"name":"Woken"}},
{"adressId":284,"strasse":"Comanche","nummer":"2881","ort":{"ortId":284,"zipCode":6496,"name":"Mojokerto"}},
{"adressId":285,"strasse":"Dapin","nummer":"725","ort":{"ortId":285,"zipCode":1280,"name":"Yilan"}},
{"adressId":286,"strasse":"Westend","nummer":"97","ort":{"ortId":286,"zipCode":5508,"name":"Jedlińsk"}},
{"adressId":287,"strasse":"5th","nummer":"74059","ort":{"ortId":287,"zipCode":4179,"name":"Krumvíř"}},
{"adressId":288,"strasse":"Everett","nummer":"1","ort":{"ortId":288,"zipCode":3691,"name":"Hanyuan"}},
{"adressId":289,"strasse":"Dennis","nummer":"18","ort":{"ortId":289,"zipCode":1360,"name":"Casablanca"}},
{"adressId":290,"strasse":"Sommers","nummer":"4","ort":{"ortId":290,"zipCode":3385,"name":"Tampere"}},
{"adressId":291,"strasse":"8th","nummer":"72630","ort":{"ortId":291,"zipCode":7006,"name":"Maogou"}},
{"adressId":292,"strasse":"Amoth","nummer":"74","ort":{"ortId":292,"zipCode":1508,"name":"Nanyang"}},
{"adressId":293,"strasse":"Farmco","nummer":"2","ort":{"ortId":293,"zipCode":6269,"name":"Astypálaia"}},
{"adressId":294,"strasse":"Old Gate","nummer":"4707","ort":{"ortId":294,"zipCode":5051,"name":"La Virgen"}},
{"adressId":295,"strasse":"Ryan","nummer":"0","ort":{"ortId":295,"zipCode":1005,"name":"Sîngerei"}},
{"adressId":296,"strasse":"8th","nummer":"266","ort":{"ortId":296,"zipCode":6604,"name":"Sharkawshchyna"}},
{"adressId":297,"strasse":"Tony","nummer":"2","ort":{"ortId":297,"zipCode":4491,"name":"Saint Paul"}},
{"adressId":298,"strasse":"Oriole","nummer":"64","ort":{"ortId":298,"zipCode":5006,"name":"Dengfeng"}},
{"adressId":299,"strasse":"Oak","nummer":"78271","ort":{"ortId":299,"zipCode":2698,"name":"Cinagrog Girang"}},
{"adressId":300,"strasse":"Sycamore","nummer":"2322","ort":{"ortId":300,"zipCode":3463,"name":"Kebonbencoy"}},
{"adressId":301,"strasse":"High Crossing","nummer":"50976","ort":{"ortId":301,"zipCode":6353,"name":"Richmond"}},
{"adressId":302,"strasse":"Hauk","nummer":"25","ort":{"ortId":302,"zipCode":1393,"name":"Guleluke"}},
{"adressId":303,"strasse":"Manitowish","nummer":"584","ort":{"ortId":303,"zipCode":1928,"name":"Brescia"}},
{"adressId":304,"strasse":"Sutteridge","nummer":"9568","ort":{"ortId":304,"zipCode":2030,"name":"Đông Thành"}},
{"adressId":305,"strasse":"Garrison","nummer":"70001","ort":{"ortId":305,"zipCode":1924,"name":"Jianping"}},
{"adressId":306,"strasse":"Novick","nummer":"7","ort":{"ortId":306,"zipCode":8088,"name":"Braga"}},
{"adressId":307,"strasse":"Judy","nummer":"9797","ort":{"ortId":307,"zipCode":3892,"name":"Bagakay"}},
{"adressId":308,"strasse":"Reinke","nummer":"621","ort":{"ortId":308,"zipCode":5907,"name":"Quintela"}},
{"adressId":309,"strasse":"Sundown","nummer":"8","ort":{"ortId":309,"zipCode":8205,"name":"Bobojong"}},
{"adressId":310,"strasse":"Scofield","nummer":"0","ort":{"ortId":310,"zipCode":8558,"name":"Bueng Kan"}},
{"adressId":311,"strasse":"Kropf","nummer":"7508","ort":{"ortId":311,"zipCode":1197,"name":"Guanfang"}},
{"adressId":312,"strasse":"Birchwood","nummer":"8191","ort":{"ortId":312,"zipCode":7205,"name":"Santulhão"}},
{"adressId":313,"strasse":"Forest Dale","nummer":"28758","ort":{"ortId":313,"zipCode":1732,"name":"Yinjiang"}},
{"adressId":314,"strasse":"Birchwood","nummer":"47730","ort":{"ortId":314,"zipCode":6353,"name":"Suhong"}},
{"adressId":315,"strasse":"Mayer","nummer":"46970","ort":{"ortId":315,"zipCode":1420,"name":"Sidowayah Lor"}},
{"adressId":316,"strasse":"Monument","nummer":"04943","ort":{"ortId":316,"zipCode":9027,"name":"Cravinhos"}},
{"adressId":317,"strasse":"Grasskamp","nummer":"1","ort":{"ortId":317,"zipCode":9776,"name":"Siumate"}},
{"adressId":318,"strasse":"Vernon","nummer":"42981","ort":{"ortId":318,"zipCode":2860,"name":"Pionerskiy"}},
{"adressId":319,"strasse":"Rutledge","nummer":"6855","ort":{"ortId":319,"zipCode":1312,"name":"Bacalan"}},
{"adressId":320,"strasse":"Dawn","nummer":"7","ort":{"ortId":320,"zipCode":3305,"name":"Cercal"}},
{"adressId":321,"strasse":"Mitchell","nummer":"52","ort":{"ortId":321,"zipCode":4654,"name":"Doubrava"}},
{"adressId":322,"strasse":"Brown","nummer":"50","ort":{"ortId":322,"zipCode":4256,"name":"Kowo"}},
{"adressId":323,"strasse":"Roxbury","nummer":"3493","ort":{"ortId":323,"zipCode":1562,"name":"Qingjiangqiao"}},
{"adressId":324,"strasse":"Bonner","nummer":"48293","ort":{"ortId":324,"zipCode":8462,"name":"Agen"}},
{"adressId":325,"strasse":"Moulton","nummer":"95","ort":{"ortId":325,"zipCode":4767,"name":"Güines"}},
{"adressId":326,"strasse":"Riverside","nummer":"287","ort":{"ortId":326,"zipCode":8442,"name":"Lisovi Sorochyntsi"}},
{"adressId":327,"strasse":"Menomonie","nummer":"404","ort":{"ortId":327,"zipCode":5035,"name":"Zlataritsa"}},
{"adressId":328,"strasse":"Glendale","nummer":"7","ort":{"ortId":328,"zipCode":4437,"name":"Cordeirópolis"}},
{"adressId":329,"strasse":"Chive","nummer":"23379","ort":{"ortId":329,"zipCode":6353,"name":"Ladushkin"}},
{"adressId":330,"strasse":"Ridgeview","nummer":"04","ort":{"ortId":330,"zipCode":1174,"name":"Sandaowan"}},
{"adressId":331,"strasse":"Milwaukee","nummer":"3","ort":{"ortId":331,"zipCode":3481,"name":"Jequié"}},
{"adressId":332,"strasse":"Eggendart","nummer":"7507","ort":{"ortId":332,"zipCode":8743,"name":"Mazhonghe"}},
{"adressId":333,"strasse":"Mendota","nummer":"4","ort":{"ortId":333,"zipCode":5924,"name":"Daping"}},
{"adressId":334,"strasse":"Hooker","nummer":"472","ort":{"ortId":334,"zipCode":3951,"name":"Yangzhuang"}},
{"adressId":335,"strasse":"Mayer","nummer":"6468","ort":{"ortId":335,"zipCode":4823,"name":"Khokhryaki"}},
{"adressId":336,"strasse":"Declaration","nummer":"3281","ort":{"ortId":336,"zipCode":8083,"name":"Binitayan"}},
{"adressId":337,"strasse":"Fulton","nummer":"23683","ort":{"ortId":337,"zipCode":4950,"name":"Refojos de Riba de Ave"}},
{"adressId":338,"strasse":"Del Sol","nummer":"3","ort":{"ortId":338,"zipCode":9749,"name":"Saint-Julien-en-Genevois"}},
{"adressId":339,"strasse":"Almo","nummer":"5","ort":{"ortId":339,"zipCode":3446,"name":"Leonídio"}},
{"adressId":340,"strasse":"Kropf","nummer":"83","ort":{"ortId":340,"zipCode":8371,"name":"Youyang"}},
{"adressId":341,"strasse":"Arrowood","nummer":"87","ort":{"ortId":341,"zipCode":3122,"name":"Williston"}},
{"adressId":342,"strasse":"Lighthouse Bay","nummer":"534","ort":{"ortId":342,"zipCode":9114,"name":"Xilanqi"}},
{"adressId":343,"strasse":"Di Loreto","nummer":"82795","ort":{"ortId":343,"zipCode":1202,"name":"Ubá"}},
{"adressId":344,"strasse":"Ridgeway","nummer":"5","ort":{"ortId":344,"zipCode":4107,"name":"Huicheng"}},
{"adressId":345,"strasse":"Hollow Ridge","nummer":"4353","ort":{"ortId":345,"zipCode":2121,"name":"L’vovskiy"}},
{"adressId":346,"strasse":"Riverside","nummer":"7535","ort":{"ortId":346,"zipCode":3835,"name":"Amarillo"}},
{"adressId":347,"strasse":"Dawn","nummer":"68457","ort":{"ortId":347,"zipCode":2742,"name":"Candelária"}},
{"adressId":348,"strasse":"Mifflin","nummer":"54875","ort":{"ortId":348,"zipCode":5137,"name":"Caeté"}},
{"adressId":349,"strasse":"Kipling","nummer":"4705","ort":{"ortId":349,"zipCode":4949,"name":"Mirotice"}},
{"adressId":350,"strasse":"Ronald Regan","nummer":"179","ort":{"ortId":350,"zipCode":3421,"name":"Huazhou"}},
{"adressId":351,"strasse":"Red Cloud","nummer":"6366","ort":{"ortId":351,"zipCode":8737,"name":"Huilong"}},
{"adressId":352,"strasse":"Esch","nummer":"16","ort":{"ortId":352,"zipCode":6940,"name":"Anning"}},
{"adressId":353,"strasse":"Portage","nummer":"1","ort":{"ortId":353,"zipCode":2593,"name":"Wiset Chaichan"}},
{"adressId":354,"strasse":"Hoepker","nummer":"70346","ort":{"ortId":354,"zipCode":7819,"name":"Noailles"}},
{"adressId":355,"strasse":"Jana","nummer":"54","ort":{"ortId":355,"zipCode":7278,"name":"Novyy Uoyan"}},
{"adressId":356,"strasse":"Johnson","nummer":"47","ort":{"ortId":356,"zipCode":7762,"name":"Vân Canh"}},
{"adressId":357,"strasse":"Ridgeway","nummer":"046","ort":{"ortId":357,"zipCode":9292,"name":"Pondokunyur"}},
{"adressId":358,"strasse":"Sauthoff","nummer":"2","ort":{"ortId":358,"zipCode":4804,"name":"Carcarañá"}},
{"adressId":359,"strasse":"Jana","nummer":"29","ort":{"ortId":359,"zipCode":5003,"name":"Hanjiaji"}},
{"adressId":360,"strasse":"Mandrake","nummer":"342","ort":{"ortId":360,"zipCode":6691,"name":"Sacramento"}},
{"adressId":361,"strasse":"Crowley","nummer":"99","ort":{"ortId":361,"zipCode":4449,"name":"Qarah Ẕīā’ od Dīn"}},
{"adressId":362,"strasse":"Grayhawk","nummer":"9801","ort":{"ortId":362,"zipCode":7553,"name":"Jatinagara Kulon"}},
{"adressId":363,"strasse":"Fordem","nummer":"6961","ort":{"ortId":363,"zipCode":1795,"name":"Shardara"}},
{"adressId":364,"strasse":"Mendota","nummer":"9","ort":{"ortId":364,"zipCode":9549,"name":"Utsunomiya-shi"}},
{"adressId":365,"strasse":"Larry","nummer":"1132","ort":{"ortId":365,"zipCode":7787,"name":"Johanneshov"}},
{"adressId":366,"strasse":"Haas","nummer":"36958","ort":{"ortId":366,"zipCode":6234,"name":"Załuski"}},
{"adressId":367,"strasse":"Debs","nummer":"956","ort":{"ortId":367,"zipCode":8785,"name":"Chokwé"}},
{"adressId":368,"strasse":"Dawn","nummer":"5770","ort":{"ortId":368,"zipCode":8984,"name":"Panjiawan"}},
{"adressId":369,"strasse":"Hauk","nummer":"43037","ort":{"ortId":369,"zipCode":9399,"name":"Zhayang"}},
{"adressId":370,"strasse":"Arrowood","nummer":"6","ort":{"ortId":370,"zipCode":1754,"name":"Nancy"}},
{"adressId":371,"strasse":"Evergreen","nummer":"56172","ort":{"ortId":371,"zipCode":5401,"name":"Cincinnati"}},
{"adressId":372,"strasse":"Evergreen","nummer":"213","ort":{"ortId":372,"zipCode":9030,"name":"Ciawi"}},
{"adressId":373,"strasse":"Hazelcrest","nummer":"7531","ort":{"ortId":373,"zipCode":3798,"name":"Venezia"}},
{"adressId":374,"strasse":"Columbus","nummer":"03288","ort":{"ortId":374,"zipCode":5910,"name":"Rukem"}},
{"adressId":375,"strasse":"Hagan","nummer":"1879","ort":{"ortId":375,"zipCode":9139,"name":"Stockholm"}},
{"adressId":376,"strasse":"Oak","nummer":"4","ort":{"ortId":376,"zipCode":9544,"name":"Eskifjörður"}},
{"adressId":377,"strasse":"Buhler","nummer":"02","ort":{"ortId":377,"zipCode":1545,"name":"Del Rosario"}},
{"adressId":378,"strasse":"Prentice","nummer":"3408","ort":{"ortId":378,"zipCode":7554,"name":"Lokorae"}},
{"adressId":379,"strasse":"Hanson","nummer":"5168","ort":{"ortId":379,"zipCode":9998,"name":"Datar"}},
{"adressId":380,"strasse":"Lerdahl","nummer":"06","ort":{"ortId":380,"zipCode":3195,"name":"Longquan"}},
{"adressId":381,"strasse":"Tennyson","nummer":"85","ort":{"ortId":381,"zipCode":4567,"name":"Ust-Kamenogorsk"}},
{"adressId":382,"strasse":"Meadow Valley","nummer":"456","ort":{"ortId":382,"zipCode":6552,"name":"Mobaye"}},
{"adressId":383,"strasse":"Old Gate","nummer":"6","ort":{"ortId":383,"zipCode":3561,"name":"Frederiksberg"}},
{"adressId":384,"strasse":"Canary","nummer":"30297","ort":{"ortId":384,"zipCode":9404,"name":"Chapultepec"}},
{"adressId":385,"strasse":"Service","nummer":"23","ort":{"ortId":385,"zipCode":7006,"name":"Xingguo"}},
{"adressId":386,"strasse":"Hintze","nummer":"07","ort":{"ortId":386,"zipCode":7209,"name":"Thị Trấn Phước Bửu"}},
{"adressId":387,"strasse":"6th","nummer":"18","ort":{"ortId":387,"zipCode":3443,"name":"Tetaf"}},
{"adressId":388,"strasse":"Miller","nummer":"438","ort":{"ortId":388,"zipCode":2829,"name":"Kletek"}},
{"adressId":389,"strasse":"Ryan","nummer":"5133","ort":{"ortId":389,"zipCode":1571,"name":"Karangboyo"}},
{"adressId":390,"strasse":"Anderson","nummer":"9273","ort":{"ortId":390,"zipCode":8944,"name":"Jiantiao"}},
{"adressId":391,"strasse":"Monica","nummer":"049","ort":{"ortId":391,"zipCode":3895,"name":"Maubara"}},
{"adressId":392,"strasse":"Crowley","nummer":"27","ort":{"ortId":392,"zipCode":4600,"name":"Panadura"}},
{"adressId":393,"strasse":"Loomis","nummer":"8","ort":{"ortId":393,"zipCode":8789,"name":"Yanai"}},
{"adressId":394,"strasse":"Rieder","nummer":"53","ort":{"ortId":394,"zipCode":9825,"name":"Vale das Mós"}},
{"adressId":395,"strasse":"Oak Valley","nummer":"32","ort":{"ortId":395,"zipCode":1061,"name":"Honkajoki"}},
{"adressId":396,"strasse":"Luster","nummer":"06560","ort":{"ortId":396,"zipCode":1544,"name":"Birmingham"}},
{"adressId":397,"strasse":"Grasskamp","nummer":"5744","ort":{"ortId":397,"zipCode":4447,"name":"Mali Iđoš"}},
{"adressId":398,"strasse":"Rieder","nummer":"22206","ort":{"ortId":398,"zipCode":8178,"name":"Bebandem"}},
{"adressId":399,"strasse":"Oak Valley","nummer":"341","ort":{"ortId":399,"zipCode":2839,"name":"Kota Kinabalu"}},
{"adressId":400,"strasse":"Jenna","nummer":"520","ort":{"ortId":400,"zipCode":9108,"name":"Lapachito"}},
{"adressId":401,"strasse":"Butterfield","nummer":"6","ort":{"ortId":401,"zipCode":7812,"name":"Gunjur Kuta"}},
{"adressId":402,"strasse":"Porter","nummer":"588","ort":{"ortId":402,"zipCode":8562,"name":"Islāmkot"}},
{"adressId":403,"strasse":"Lighthouse Bay","nummer":"1140","ort":{"ortId":403,"zipCode":1158,"name":"Skwierzyna"}},
{"adressId":404,"strasse":"Mcbride","nummer":"6","ort":{"ortId":404,"zipCode":1473,"name":"Gulao"}},
{"adressId":405,"strasse":"Gateway","nummer":"08","ort":{"ortId":405,"zipCode":7505,"name":"Bromma"}},
{"adressId":406,"strasse":"Derek","nummer":"3725","ort":{"ortId":406,"zipCode":6239,"name":"Sananduva"}},
{"adressId":407,"strasse":"Bartillon","nummer":"999","ort":{"ortId":407,"zipCode":8417,"name":"Peicheng"}},
{"adressId":408,"strasse":"Loomis","nummer":"81464","ort":{"ortId":408,"zipCode":5372,"name":"Ramat HaSharon"}},
{"adressId":409,"strasse":"Huxley","nummer":"3","ort":{"ortId":409,"zipCode":8872,"name":"Kuala Lumpur"}},
{"adressId":410,"strasse":"Eastwood","nummer":"02","ort":{"ortId":410,"zipCode":6269,"name":"Jinjiahe"}},
{"adressId":411,"strasse":"Manitowish","nummer":"4161","ort":{"ortId":411,"zipCode":2966,"name":"Padas"}},
{"adressId":412,"strasse":"Vera","nummer":"04","ort":{"ortId":412,"zipCode":7500,"name":"Kende"}},
{"adressId":413,"strasse":"Stephen","nummer":"8","ort":{"ortId":413,"zipCode":6741,"name":"Bryukhovetskaya"}},
{"adressId":414,"strasse":"Corscot","nummer":"2","ort":{"ortId":414,"zipCode":9994,"name":"Villeneuve-d'Ascq"}},
{"adressId":415,"strasse":"Crest Line","nummer":"4758","ort":{"ortId":415,"zipCode":3240,"name":"Sibagat"}},
{"adressId":416,"strasse":"Northland","nummer":"9","ort":{"ortId":416,"zipCode":8121,"name":"Weiting"}},
{"adressId":417,"strasse":"Cordelia","nummer":"11","ort":{"ortId":417,"zipCode":5972,"name":"Xiongshan"}},
{"adressId":418,"strasse":"3rd","nummer":"28850","ort":{"ortId":418,"zipCode":1819,"name":"Gołkowice"}},
{"adressId":419,"strasse":"Hermina","nummer":"4","ort":{"ortId":419,"zipCode":2362,"name":"Mnelalete"}},
{"adressId":420,"strasse":"Almo","nummer":"2766","ort":{"ortId":420,"zipCode":7187,"name":"Kortesjärvi"}},
{"adressId":421,"strasse":"Melby","nummer":"955","ort":{"ortId":421,"zipCode":3266,"name":"Perovo"}},
{"adressId":422,"strasse":"2nd","nummer":"58051","ort":{"ortId":422,"zipCode":6656,"name":"Kut Rang"}},
{"adressId":423,"strasse":"Cardinal","nummer":"077","ort":{"ortId":423,"zipCode":6286,"name":"Wuyang"}},
{"adressId":424,"strasse":"Sheridan","nummer":"9","ort":{"ortId":424,"zipCode":3403,"name":"Luena"}},
{"adressId":425,"strasse":"Union","nummer":"1","ort":{"ortId":425,"zipCode":1002,"name":"Minle"}},
{"adressId":426,"strasse":"Karstens","nummer":"033","ort":{"ortId":426,"zipCode":4026,"name":"Belogorsk"}},
{"adressId":427,"strasse":"Tony","nummer":"15524","ort":{"ortId":427,"zipCode":9963,"name":"Qiagai"}},
{"adressId":428,"strasse":"Nobel","nummer":"368","ort":{"ortId":428,"zipCode":4267,"name":"Naga"}},
{"adressId":429,"strasse":"Stang","nummer":"19","ort":{"ortId":429,"zipCode":4895,"name":"Chugur"}},
{"adressId":430,"strasse":"Pleasure","nummer":"8716","ort":{"ortId":430,"zipCode":3917,"name":"Laowobao"}},
{"adressId":431,"strasse":"Esch","nummer":"67","ort":{"ortId":431,"zipCode":7108,"name":"Tabaga"}},
{"adressId":432,"strasse":"7th","nummer":"1","ort":{"ortId":432,"zipCode":7147,"name":"Addis Ababa"}},
{"adressId":433,"strasse":"Cherokee","nummer":"8615","ort":{"ortId":433,"zipCode":5657,"name":"Ishiki"}},
{"adressId":434,"strasse":"Vera","nummer":"70827","ort":{"ortId":434,"zipCode":2489,"name":"Arendal"}},
{"adressId":435,"strasse":"Vermont","nummer":"14583","ort":{"ortId":435,"zipCode":5931,"name":"Madruga"}},
{"adressId":436,"strasse":"Mosinee","nummer":"058","ort":{"ortId":436,"zipCode":7816,"name":"Gayam"}},
{"adressId":437,"strasse":"Green","nummer":"699","ort":{"ortId":437,"zipCode":4962,"name":"Huolu"}},
{"adressId":438,"strasse":"Crowley","nummer":"99391","ort":{"ortId":438,"zipCode":1487,"name":"Ukhta"}},
{"adressId":439,"strasse":"Sugar","nummer":"08555","ort":{"ortId":439,"zipCode":5643,"name":"Lizhuang"}},
{"adressId":440,"strasse":"Golden Leaf","nummer":"511","ort":{"ortId":440,"zipCode":1761,"name":"Macklin"}},
{"adressId":441,"strasse":"Glacier Hill","nummer":"82","ort":{"ortId":441,"zipCode":9375,"name":"Thākurgaon"}},
{"adressId":442,"strasse":"Ohio","nummer":"90","ort":{"ortId":442,"zipCode":8568,"name":"Moriya"}},
{"adressId":443,"strasse":"Gale","nummer":"01","ort":{"ortId":443,"zipCode":4586,"name":"Pacajus"}},
{"adressId":444,"strasse":"Continental","nummer":"7","ort":{"ortId":444,"zipCode":5515,"name":"Sergiyev Posad"}},
{"adressId":445,"strasse":"Clarendon","nummer":"902","ort":{"ortId":445,"zipCode":4650,"name":"Fenghuangdong"}},
{"adressId":446,"strasse":"Merry","nummer":"1","ort":{"ortId":446,"zipCode":7505,"name":"Talun"}},
{"adressId":447,"strasse":"Myrtle","nummer":"3","ort":{"ortId":447,"zipCode":3599,"name":"Suvorovo"}},
{"adressId":448,"strasse":"Jenna","nummer":"32","ort":{"ortId":448,"zipCode":6230,"name":"Balete"}},
{"adressId":449,"strasse":"Boyd","nummer":"98944","ort":{"ortId":449,"zipCode":8076,"name":"Castelo"}},
{"adressId":450,"strasse":"Karstens","nummer":"463","ort":{"ortId":450,"zipCode":9982,"name":"Chandmanĭ"}},
{"adressId":451,"strasse":"Brown","nummer":"9","ort":{"ortId":451,"zipCode":3721,"name":"Béziers"}},
{"adressId":452,"strasse":"Almo","nummer":"97923","ort":{"ortId":452,"zipCode":9921,"name":"Severka"}},
{"adressId":453,"strasse":"Sutteridge","nummer":"05","ort":{"ortId":453,"zipCode":4474,"name":"Muarabuliti"}},
{"adressId":454,"strasse":"Chinook","nummer":"89049","ort":{"ortId":454,"zipCode":7816,"name":"Velyka Bilozerka"}},
{"adressId":455,"strasse":"Lakeland","nummer":"78","ort":{"ortId":455,"zipCode":9751,"name":"Ubaté"}},
{"adressId":456,"strasse":"High Crossing","nummer":"14777","ort":{"ortId":456,"zipCode":8232,"name":"Mancilang"}},
{"adressId":457,"strasse":"Sugar","nummer":"812","ort":{"ortId":457,"zipCode":6331,"name":"Bagacay"}},
{"adressId":458,"strasse":"Continental","nummer":"7","ort":{"ortId":458,"zipCode":6317,"name":"Arys"}},
{"adressId":459,"strasse":"Memorial","nummer":"97","ort":{"ortId":459,"zipCode":4712,"name":"Gutang"}},
{"adressId":460,"strasse":"Pierstorff","nummer":"98","ort":{"ortId":460,"zipCode":1701,"name":"Alès"}},
{"adressId":461,"strasse":"Monica","nummer":"9427","ort":{"ortId":461,"zipCode":9265,"name":"Gusang"}},
{"adressId":462,"strasse":"Lotheville","nummer":"131","ort":{"ortId":462,"zipCode":5800,"name":"Dongsheng"}},
{"adressId":463,"strasse":"Sycamore","nummer":"77647","ort":{"ortId":463,"zipCode":2542,"name":"Capela"}},
{"adressId":464,"strasse":"Tennyson","nummer":"4","ort":{"ortId":464,"zipCode":5723,"name":"Bronkhorstspruit"}},
{"adressId":465,"strasse":"Birchwood","nummer":"8878","ort":{"ortId":465,"zipCode":6162,"name":"Jindaoxia"}},
{"adressId":466,"strasse":"Banding","nummer":"276","ort":{"ortId":466,"zipCode":3423,"name":"Ferreira do Zêzere"}},
{"adressId":467,"strasse":"Northport","nummer":"158","ort":{"ortId":467,"zipCode":7488,"name":"Baozhu"}},
{"adressId":468,"strasse":"Mallard","nummer":"9353","ort":{"ortId":468,"zipCode":7974,"name":"Usu"}},
{"adressId":469,"strasse":"Lakewood Gardens","nummer":"78849","ort":{"ortId":469,"zipCode":5827,"name":"Ocucaje"}},
{"adressId":470,"strasse":"Mitchell","nummer":"7144","ort":{"ortId":470,"zipCode":8384,"name":"Mazeikiai"}},
{"adressId":471,"strasse":"Waxwing","nummer":"590","ort":{"ortId":471,"zipCode":3930,"name":"Kubang"}},
{"adressId":472,"strasse":"Kipling","nummer":"496","ort":{"ortId":472,"zipCode":8336,"name":"Palangkaraya"}},
{"adressId":473,"strasse":"West","nummer":"978","ort":{"ortId":473,"zipCode":6795,"name":"Socabaya"}},
{"adressId":474,"strasse":"Schurz","nummer":"5","ort":{"ortId":474,"zipCode":3367,"name":"Khāngāh Dogrān"}},
{"adressId":475,"strasse":"Mccormick","nummer":"0","ort":{"ortId":475,"zipCode":1506,"name":"Magersari"}},
{"adressId":476,"strasse":"Pierstorff","nummer":"11322","ort":{"ortId":476,"zipCode":5657,"name":"Żórawina"}},
{"adressId":477,"strasse":"Mallard","nummer":"60399","ort":{"ortId":477,"zipCode":4681,"name":"Lajeosa"}},
{"adressId":478,"strasse":"Macpherson","nummer":"8","ort":{"ortId":478,"zipCode":3894,"name":"Oslo"}},
{"adressId":479,"strasse":"Luster","nummer":"52","ort":{"ortId":479,"zipCode":8329,"name":"Montargis"}},
{"adressId":480,"strasse":"Arrowood","nummer":"074","ort":{"ortId":480,"zipCode":5609,"name":"San Luis"}},
{"adressId":481,"strasse":"Bayside","nummer":"320","ort":{"ortId":481,"zipCode":4839,"name":"Hongor"}},
{"adressId":482,"strasse":"Macpherson","nummer":"0","ort":{"ortId":482,"zipCode":6319,"name":"Dal’neye Konstantinovo"}},
{"adressId":483,"strasse":"Birchwood","nummer":"10","ort":{"ortId":483,"zipCode":9406,"name":"Lavradio"}},
{"adressId":484,"strasse":"Bayside","nummer":"351","ort":{"ortId":484,"zipCode":8659,"name":"Lesnikovo"}},
{"adressId":485,"strasse":"Mesta","nummer":"397","ort":{"ortId":485,"zipCode":4034,"name":"Pajannangger"}},
{"adressId":486,"strasse":"Spaight","nummer":"31029","ort":{"ortId":486,"zipCode":6457,"name":"Larvik"}},
{"adressId":487,"strasse":"Summerview","nummer":"78240","ort":{"ortId":487,"zipCode":4303,"name":"Stroitel’"}},
{"adressId":488,"strasse":"Donald","nummer":"05","ort":{"ortId":488,"zipCode":6148,"name":"Shahrīār"}},
{"adressId":489,"strasse":"Logan","nummer":"6892","ort":{"ortId":489,"zipCode":8354,"name":"Pulau Pinang"}},
{"adressId":490,"strasse":"Drewry","nummer":"5356","ort":{"ortId":490,"zipCode":4243,"name":"Glafirovka"}},
{"adressId":491,"strasse":"Randy","nummer":"10","ort":{"ortId":491,"zipCode":1639,"name":"Banyumas"}},
{"adressId":492,"strasse":"Hoard","nummer":"6073","ort":{"ortId":492,"zipCode":3674,"name":"Baranowo"}},
{"adressId":493,"strasse":"Burrows","nummer":"2659","ort":{"ortId":493,"zipCode":8260,"name":"Ragana"}},
{"adressId":494,"strasse":"Stone Corner","nummer":"90","ort":{"ortId":494,"zipCode":8493,"name":"Changqing"}},
{"adressId":495,"strasse":"Comanche","nummer":"5435","ort":{"ortId":495,"zipCode":4668,"name":"Béthune"}},
{"adressId":496,"strasse":"Roth","nummer":"55","ort":{"ortId":496,"zipCode":9908,"name":"Panalo-on"}},
{"adressId":497,"strasse":"Forster","nummer":"93205","ort":{"ortId":497,"zipCode":9108,"name":"Libertad"}},
{"adressId":498,"strasse":"Schlimgen","nummer":"22699","ort":{"ortId":498,"zipCode":5008,"name":"Trindade"}},
{"adressId":499,"strasse":"Jenna","nummer":"949","ort":{"ortId":499,"zipCode":7456,"name":"Itaitinga"}},
{"adressId":500,"strasse":"Prairie Rose","nummer":"045","ort":{"ortId":500,"zipCode":6767,"name":"Nanfeng"}},
{"adressId":501,"strasse":"Harbort","nummer":"7499","ort":{"ortId":501,"zipCode":4057,"name":"Stoney Ground"}},
{"adressId":502,"strasse":"Canary","nummer":"49","ort":{"ortId":502,"zipCode":4716,"name":"Changtang"}},
{"adressId":503,"strasse":"Judy","nummer":"16838","ort":{"ortId":503,"zipCode":4920,"name":"Kasaoka"}},
{"adressId":504,"strasse":"Badeau","nummer":"0826","ort":{"ortId":504,"zipCode":9045,"name":"Shunling"}},
{"adressId":505,"strasse":"Ramsey","nummer":"19789","ort":{"ortId":505,"zipCode":1299,"name":"Sumberan"}},
{"adressId":506,"strasse":"Ronald Regan","nummer":"1","ort":{"ortId":506,"zipCode":2451,"name":"Argungu"}},
{"adressId":507,"strasse":"Maryland","nummer":"4","ort":{"ortId":507,"zipCode":7693,"name":"Casillas"}},
{"adressId":508,"strasse":"Victoria","nummer":"36068","ort":{"ortId":508,"zipCode":9509,"name":"Gunziying"}},
{"adressId":509,"strasse":"Pine View","nummer":"98","ort":{"ortId":509,"zipCode":8703,"name":"Hassi Berkane"}},
{"adressId":510,"strasse":"Pine View","nummer":"10","ort":{"ortId":510,"zipCode":8715,"name":"Madingou"}},
{"adressId":511,"strasse":"Eagle Crest","nummer":"4","ort":{"ortId":511,"zipCode":4092,"name":"Chwałowice"}},
{"adressId":512,"strasse":"Reinke","nummer":"327","ort":{"ortId":512,"zipCode":2885,"name":"Lewolere"}},
{"adressId":513,"strasse":"Toban","nummer":"50028","ort":{"ortId":513,"zipCode":8568,"name":"Colorado Springs"}},
{"adressId":514,"strasse":"Schurz","nummer":"1614","ort":{"ortId":514,"zipCode":1549,"name":"Cishan"}},
{"adressId":515,"strasse":"Pearson","nummer":"035","ort":{"ortId":515,"zipCode":2701,"name":"Novokhovrino"}},
{"adressId":516,"strasse":"Sugar","nummer":"412","ort":{"ortId":516,"zipCode":6867,"name":"Xirikxiy"}},
{"adressId":517,"strasse":"Stang","nummer":"838","ort":{"ortId":517,"zipCode":3333,"name":"Saskylakh"}},
{"adressId":518,"strasse":"Kensington","nummer":"27","ort":{"ortId":518,"zipCode":6508,"name":"Copa"}},
{"adressId":519,"strasse":"Harbort","nummer":"39805","ort":{"ortId":519,"zipCode":5284,"name":"Phan Thong"}},
{"adressId":520,"strasse":"1st","nummer":"2","ort":{"ortId":520,"zipCode":9677,"name":"Xiangfeng"}},
{"adressId":521,"strasse":"Ridge Oak","nummer":"37","ort":{"ortId":521,"zipCode":3039,"name":"Tāybād"}},
{"adressId":522,"strasse":"Valley Edge","nummer":"4266","ort":{"ortId":522,"zipCode":6011,"name":"Yakimovo"}},
{"adressId":523,"strasse":"Mariners Cove","nummer":"72","ort":{"ortId":523,"zipCode":8551,"name":"Kara-Balta"}},
{"adressId":524,"strasse":"Paget","nummer":"192","ort":{"ortId":524,"zipCode":5008,"name":"Wulan Hada"}},
{"adressId":525,"strasse":"Hazelcrest","nummer":"909","ort":{"ortId":525,"zipCode":9355,"name":"Sangongqiao"}},
{"adressId":526,"strasse":"Clarendon","nummer":"13","ort":{"ortId":526,"zipCode":8838,"name":"Dosso"}},
{"adressId":527,"strasse":"Evergreen","nummer":"52","ort":{"ortId":527,"zipCode":9746,"name":"Kraslice"}},
{"adressId":528,"strasse":"Center","nummer":"2","ort":{"ortId":528,"zipCode":4566,"name":"Taganskiy"}},
{"adressId":529,"strasse":"Main","nummer":"89","ort":{"ortId":529,"zipCode":4512,"name":"Godong"}},
{"adressId":530,"strasse":"Lotheville","nummer":"0019","ort":{"ortId":530,"zipCode":8941,"name":"Pulilan"}},
{"adressId":531,"strasse":"Pawling","nummer":"2","ort":{"ortId":531,"zipCode":7100,"name":"Chicago"}},
{"adressId":532,"strasse":"Logan","nummer":"348","ort":{"ortId":532,"zipCode":7827,"name":"Ibung"}},
{"adressId":533,"strasse":"Sugar","nummer":"1322","ort":{"ortId":533,"zipCode":8537,"name":"Fonte Boa dos Nabos"}},
{"adressId":534,"strasse":"Scoville","nummer":"392","ort":{"ortId":534,"zipCode":2172,"name":"Tsalgar"}},
{"adressId":535,"strasse":"Ohio","nummer":"28","ort":{"ortId":535,"zipCode":2625,"name":"‘Ayn al ‘Arab"}},
{"adressId":536,"strasse":"Monument","nummer":"971","ort":{"ortId":536,"zipCode":8747,"name":"Odienné"}},
{"adressId":537,"strasse":"Roxbury","nummer":"25","ort":{"ortId":537,"zipCode":1913,"name":"Libas"}},
{"adressId":538,"strasse":"Havey","nummer":"6","ort":{"ortId":538,"zipCode":6281,"name":"Helsingborg"}},
{"adressId":539,"strasse":"Dwight","nummer":"714","ort":{"ortId":539,"zipCode":1365,"name":"Garcia Hernandez"}},
{"adressId":540,"strasse":"Oak Valley","nummer":"70","ort":{"ortId":540,"zipCode":1049,"name":"Shanjiang"}},
{"adressId":541,"strasse":"Chive","nummer":"91","ort":{"ortId":541,"zipCode":1359,"name":"Shādegān"}},
{"adressId":542,"strasse":"Green","nummer":"8043","ort":{"ortId":542,"zipCode":7685,"name":"Miaoli"}},
{"adressId":543,"strasse":"Northport","nummer":"04195","ort":{"ortId":543,"zipCode":2057,"name":"Hongmiao"}},
{"adressId":544,"strasse":"Buhler","nummer":"75943","ort":{"ortId":544,"zipCode":4157,"name":"Sidi Yahia el Gharb"}},
{"adressId":545,"strasse":"Barnett","nummer":"74","ort":{"ortId":545,"zipCode":1068,"name":"Duiwelskloof"}},
{"adressId":546,"strasse":"Duke","nummer":"661","ort":{"ortId":546,"zipCode":9371,"name":"Abbeville"}},
{"adressId":547,"strasse":"Golf Course","nummer":"583","ort":{"ortId":547,"zipCode":9715,"name":"Mwense"}},
{"adressId":548,"strasse":"Coleman","nummer":"68358","ort":{"ortId":548,"zipCode":6417,"name":"Pesochnoye"}},
{"adressId":549,"strasse":"Express","nummer":"4603","ort":{"ortId":549,"zipCode":4372,"name":"Stare Kurowo"}},
{"adressId":550,"strasse":"Dorton","nummer":"445","ort":{"ortId":550,"zipCode":6796,"name":"Cirangrang"}},
{"adressId":551,"strasse":"Lake View","nummer":"29936","ort":{"ortId":551,"zipCode":9818,"name":"Kista"}},
{"adressId":552,"strasse":"Spohn","nummer":"24","ort":{"ortId":552,"zipCode":1624,"name":"Bulri"}},
{"adressId":553,"strasse":"Haas","nummer":"18761","ort":{"ortId":553,"zipCode":3929,"name":"Bogor"}},
{"adressId":554,"strasse":"Del Sol","nummer":"6218","ort":{"ortId":554,"zipCode":4048,"name":"Dijon"}},
{"adressId":555,"strasse":"Amoth","nummer":"67494","ort":{"ortId":555,"zipCode":3860,"name":"Arrepiado"}},
{"adressId":556,"strasse":"Randy","nummer":"55905","ort":{"ortId":556,"zipCode":9769,"name":"Shemursha"}},
{"adressId":557,"strasse":"Melrose","nummer":"29818","ort":{"ortId":557,"zipCode":6832,"name":"Kalayemule"}},
{"adressId":558,"strasse":"Hoard","nummer":"3","ort":{"ortId":558,"zipCode":5757,"name":"Gomunice"}},
{"adressId":559,"strasse":"Scoville","nummer":"0","ort":{"ortId":559,"zipCode":9055,"name":"Chichinales"}},
{"adressId":560,"strasse":"Golf View","nummer":"78","ort":{"ortId":560,"zipCode":1933,"name":"Ilongero"}},
{"adressId":561,"strasse":"Hagan","nummer":"203","ort":{"ortId":561,"zipCode":5912,"name":"Węgliniec"}},
{"adressId":562,"strasse":"Longview","nummer":"74470","ort":{"ortId":562,"zipCode":5347,"name":"Pantanal"}},
{"adressId":563,"strasse":"Welch","nummer":"21","ort":{"ortId":563,"zipCode":8700,"name":"Simpang Ulim"}},
{"adressId":564,"strasse":"Portage","nummer":"72","ort":{"ortId":564,"zipCode":3239,"name":"Fenkeng"}},
{"adressId":565,"strasse":"Barnett","nummer":"9","ort":{"ortId":565,"zipCode":5934,"name":"Gložan"}},
{"adressId":566,"strasse":"Ohio","nummer":"189","ort":{"ortId":566,"zipCode":1962,"name":"San Agustín Acasaguastlán"}},
{"adressId":567,"strasse":"American Ash","nummer":"39405","ort":{"ortId":567,"zipCode":6555,"name":"Radashkovichy"}},
{"adressId":568,"strasse":"Loeprich","nummer":"9","ort":{"ortId":568,"zipCode":5034,"name":"Serere"}},
{"adressId":569,"strasse":"Merrick","nummer":"863","ort":{"ortId":569,"zipCode":1953,"name":"Liangdang Chengguanzhen"}},
{"adressId":570,"strasse":"Judy","nummer":"46491","ort":{"ortId":570,"zipCode":3470,"name":"Orléans"}},
{"adressId":571,"strasse":"Brown","nummer":"44061","ort":{"ortId":571,"zipCode":4250,"name":"Kutorejo"}},
{"adressId":572,"strasse":"Trailsway","nummer":"0204","ort":{"ortId":572,"zipCode":3823,"name":"Tsuyama"}},
{"adressId":573,"strasse":"Del Mar","nummer":"786","ort":{"ortId":573,"zipCode":1244,"name":"Zhougao"}},
{"adressId":574,"strasse":"Esker","nummer":"6771","ort":{"ortId":574,"zipCode":5657,"name":"Bintang"}},
{"adressId":575,"strasse":"Sauthoff","nummer":"676","ort":{"ortId":575,"zipCode":3293,"name":"Aş Şaff"}},
{"adressId":576,"strasse":"Pankratz","nummer":"6","ort":{"ortId":576,"zipCode":7353,"name":"Cumanayagua"}},
{"adressId":577,"strasse":"Express","nummer":"0164","ort":{"ortId":577,"zipCode":8900,"name":"Lijia"}},
{"adressId":578,"strasse":"Northfield","nummer":"4099","ort":{"ortId":578,"zipCode":2265,"name":"Bretaña"}},
{"adressId":579,"strasse":"Oriole","nummer":"5","ort":{"ortId":579,"zipCode":3430,"name":"Bangunharja"}},
{"adressId":580,"strasse":"Bluejay","nummer":"588","ort":{"ortId":580,"zipCode":7598,"name":"Ukhta"}},
{"adressId":581,"strasse":"Acker","nummer":"410","ort":{"ortId":581,"zipCode":7193,"name":"Henghe"}},
{"adressId":582,"strasse":"Carpenter","nummer":"13","ort":{"ortId":582,"zipCode":5213,"name":"Skhodnya"}},
{"adressId":583,"strasse":"Barnett","nummer":"57","ort":{"ortId":583,"zipCode":9047,"name":"Đắk Mâm"}},
{"adressId":584,"strasse":"Grim","nummer":"1","ort":{"ortId":584,"zipCode":6289,"name":"Changchun"}},
{"adressId":585,"strasse":"Susan","nummer":"5","ort":{"ortId":585,"zipCode":9897,"name":"Ciparasi"}},
{"adressId":586,"strasse":"Summit","nummer":"184","ort":{"ortId":586,"zipCode":6274,"name":"Almelo"}},
{"adressId":587,"strasse":"Warbler","nummer":"7","ort":{"ortId":587,"zipCode":2632,"name":"Šabac"}},
{"adressId":588,"strasse":"Mcbride","nummer":"00","ort":{"ortId":588,"zipCode":4426,"name":"Nangalisan"}},
{"adressId":589,"strasse":"Larry","nummer":"5156","ort":{"ortId":589,"zipCode":7511,"name":"Drummondville"}},
{"adressId":590,"strasse":"Harper","nummer":"46","ort":{"ortId":590,"zipCode":3886,"name":"Slobodskoy"}},
{"adressId":591,"strasse":"Warner","nummer":"05568","ort":{"ortId":591,"zipCode":9452,"name":"Stavanger"}},
{"adressId":592,"strasse":"Di Loreto","nummer":"79","ort":{"ortId":592,"zipCode":5990,"name":"Peña Blanca"}},
{"adressId":593,"strasse":"North","nummer":"5244","ort":{"ortId":593,"zipCode":9863,"name":"Raffingora"}},
{"adressId":594,"strasse":"Village Green","nummer":"1","ort":{"ortId":594,"zipCode":8107,"name":"Izvestkovyy"}},
{"adressId":595,"strasse":"Brown","nummer":"52","ort":{"ortId":595,"zipCode":7606,"name":"Talldaww"}},
{"adressId":596,"strasse":"Holmberg","nummer":"6842","ort":{"ortId":596,"zipCode":1036,"name":"Erétria"}},
{"adressId":597,"strasse":"Luster","nummer":"720","ort":{"ortId":597,"zipCode":9176,"name":"Birsa"}},
{"adressId":598,"strasse":"Scoville","nummer":"542","ort":{"ortId":598,"zipCode":2350,"name":"Salekhard"}},
{"adressId":599,"strasse":"Grayhawk","nummer":"41","ort":{"ortId":599,"zipCode":6189,"name":"Mafeteng"}},
{"adressId":600,"strasse":"Granby","nummer":"5","ort":{"ortId":600,"zipCode":3572,"name":"Powidz"}},
{"adressId":601,"strasse":"Elmside","nummer":"7","ort":{"ortId":601,"zipCode":4735,"name":"Kindersley"}},
{"adressId":602,"strasse":"Hovde","nummer":"71079","ort":{"ortId":602,"zipCode":7420,"name":"Huiyi"}},
{"adressId":603,"strasse":"Bartillon","nummer":"31","ort":{"ortId":603,"zipCode":4271,"name":"Suresnes"}},
{"adressId":604,"strasse":"Carioca","nummer":"23","ort":{"ortId":604,"zipCode":6396,"name":"Nakusp"}},
{"adressId":605,"strasse":"Butternut","nummer":"90","ort":{"ortId":605,"zipCode":6909,"name":"El Tambo"}},
{"adressId":606,"strasse":"Melby","nummer":"9608","ort":{"ortId":606,"zipCode":7987,"name":"Ribafria"}},
{"adressId":607,"strasse":"Dunning","nummer":"84","ort":{"ortId":607,"zipCode":3068,"name":"Triolet"}},
{"adressId":608,"strasse":"Loomis","nummer":"7","ort":{"ortId":608,"zipCode":4892,"name":"Livadiya"}},
{"adressId":609,"strasse":"Darwin","nummer":"75554","ort":{"ortId":609,"zipCode":1438,"name":"Kosum Phisai"}},
{"adressId":610,"strasse":"Melrose","nummer":"9","ort":{"ortId":610,"zipCode":7561,"name":"Sida"}},
{"adressId":611,"strasse":"Pennsylvania","nummer":"0","ort":{"ortId":611,"zipCode":6180,"name":"Khon Buri"}},
{"adressId":612,"strasse":"Old Shore","nummer":"1","ort":{"ortId":612,"zipCode":8173,"name":"Phan Thong"}},
{"adressId":613,"strasse":"Eastwood","nummer":"59357","ort":{"ortId":613,"zipCode":8762,"name":"Sukamahi Satu"}},
{"adressId":614,"strasse":"Vidon","nummer":"71","ort":{"ortId":614,"zipCode":5004,"name":"Oke Ila"}},
{"adressId":615,"strasse":"Hoard","nummer":"5","ort":{"ortId":615,"zipCode":1908,"name":"Jäppilä"}},
{"adressId":616,"strasse":"Summit","nummer":"80","ort":{"ortId":616,"zipCode":1115,"name":"Novi Bilokorovychi"}},
{"adressId":617,"strasse":"Grasskamp","nummer":"61348","ort":{"ortId":617,"zipCode":1438,"name":"Sentul"}},
{"adressId":618,"strasse":"West","nummer":"07533","ort":{"ortId":618,"zipCode":7150,"name":"Madona"}},
{"adressId":619,"strasse":"Sundown","nummer":"476","ort":{"ortId":619,"zipCode":9191,"name":"Sławoborze"}},
{"adressId":620,"strasse":"Truax","nummer":"6033","ort":{"ortId":620,"zipCode":4542,"name":"Ambanja"}},
{"adressId":621,"strasse":"Muir","nummer":"7","ort":{"ortId":621,"zipCode":9783,"name":"Pardesiyya"}},
{"adressId":622,"strasse":"Red Cloud","nummer":"13","ort":{"ortId":622,"zipCode":1977,"name":"Qinshan"}},
{"adressId":623,"strasse":"Riverside","nummer":"42725","ort":{"ortId":623,"zipCode":7734,"name":"Caeté"}},
{"adressId":624,"strasse":"Brown","nummer":"2","ort":{"ortId":624,"zipCode":2618,"name":"Sabana Grande de Palenque"}},
{"adressId":625,"strasse":"Sundown","nummer":"85","ort":{"ortId":625,"zipCode":1526,"name":"Thị Trấn Phù Yên"}},
{"adressId":626,"strasse":"Lakeland","nummer":"12","ort":{"ortId":626,"zipCode":3239,"name":"Kyzyl"}},
{"adressId":627,"strasse":"Center","nummer":"3","ort":{"ortId":627,"zipCode":6622,"name":"Tall Tamr"}},
{"adressId":628,"strasse":"Cottonwood","nummer":"7597","ort":{"ortId":628,"zipCode":6981,"name":"Tampere"}},
{"adressId":629,"strasse":"Leroy","nummer":"555","ort":{"ortId":629,"zipCode":9318,"name":"Balucawi"}},
{"adressId":630,"strasse":"Erie","nummer":"4","ort":{"ortId":630,"zipCode":1986,"name":"Alak"}},
{"adressId":631,"strasse":"Elmside","nummer":"34494","ort":{"ortId":631,"zipCode":1179,"name":"Sanxi"}},
{"adressId":632,"strasse":"Grayhawk","nummer":"15965","ort":{"ortId":632,"zipCode":1219,"name":"Lazaro Cardenas"}},
{"adressId":633,"strasse":"Beilfuss","nummer":"05","ort":{"ortId":633,"zipCode":2610,"name":"Lobitos"}},
{"adressId":634,"strasse":"Rigney","nummer":"16486","ort":{"ortId":634,"zipCode":3573,"name":"Chocz"}},
{"adressId":635,"strasse":"Daystar","nummer":"077","ort":{"ortId":635,"zipCode":4188,"name":"Calatrava"}},
{"adressId":636,"strasse":"Dexter","nummer":"0466","ort":{"ortId":636,"zipCode":3808,"name":"Khonj"}},
{"adressId":637,"strasse":"Almo","nummer":"4","ort":{"ortId":637,"zipCode":4790,"name":"Seixas do Douro"}},
{"adressId":638,"strasse":"Bunting","nummer":"8089","ort":{"ortId":638,"zipCode":5396,"name":"Metz"}},
{"adressId":639,"strasse":"Forster","nummer":"2413","ort":{"ortId":639,"zipCode":2095,"name":"Stockholm"}},
{"adressId":640,"strasse":"Northport","nummer":"98","ort":{"ortId":640,"zipCode":3709,"name":"Zhuangta"}},
{"adressId":641,"strasse":"Nova","nummer":"17335","ort":{"ortId":641,"zipCode":1705,"name":"Carania"}},
{"adressId":642,"strasse":"Harbort","nummer":"1","ort":{"ortId":642,"zipCode":2953,"name":"El Zulia"}},
{"adressId":643,"strasse":"Mockingbird","nummer":"152","ort":{"ortId":643,"zipCode":8283,"name":"Hasaki"}},
{"adressId":644,"strasse":"Dayton","nummer":"2","ort":{"ortId":644,"zipCode":4062,"name":"Šentilj v Slov. Goricah"}},
{"adressId":645,"strasse":"Lukken","nummer":"2107","ort":{"ortId":645,"zipCode":9247,"name":"Malie"}},
{"adressId":646,"strasse":"Artisan","nummer":"33705","ort":{"ortId":646,"zipCode":9085,"name":"Mŭynoq"}},
{"adressId":647,"strasse":"Summerview","nummer":"353","ort":{"ortId":647,"zipCode":4857,"name":"Jindřichov"}},
{"adressId":648,"strasse":"Redwing","nummer":"87","ort":{"ortId":648,"zipCode":8336,"name":"Alurbulu"}},
{"adressId":649,"strasse":"Hansons","nummer":"25","ort":{"ortId":649,"zipCode":5387,"name":"Shangdongjie"}},
{"adressId":650,"strasse":"Lukken","nummer":"01","ort":{"ortId":650,"zipCode":5625,"name":"Magepanda"}},
{"adressId":651,"strasse":"Merchant","nummer":"28717","ort":{"ortId":651,"zipCode":5207,"name":"Krasnyy Klyuch"}},
{"adressId":652,"strasse":"Riverside","nummer":"49","ort":{"ortId":652,"zipCode":8070,"name":"Pervomays’ke"}},
{"adressId":653,"strasse":"Towne","nummer":"716","ort":{"ortId":653,"zipCode":5932,"name":"Siliana"}},
{"adressId":654,"strasse":"Hovde","nummer":"92978","ort":{"ortId":654,"zipCode":7708,"name":"København"}},
{"adressId":655,"strasse":"Briar Crest","nummer":"273","ort":{"ortId":655,"zipCode":5801,"name":"Yanghuxiang"}},
{"adressId":656,"strasse":"Pine View","nummer":"64186","ort":{"ortId":656,"zipCode":7450,"name":"Épernay"}},
{"adressId":657,"strasse":"Bowman","nummer":"74059","ort":{"ortId":657,"zipCode":5805,"name":"Contramaestre"}},
{"adressId":658,"strasse":"Paget","nummer":"4664","ort":{"ortId":658,"zipCode":1895,"name":"Shāzand"}},
{"adressId":659,"strasse":"Bluejay","nummer":"2","ort":{"ortId":659,"zipCode":9893,"name":"Jacksonville"}},
{"adressId":660,"strasse":"Muir","nummer":"0","ort":{"ortId":660,"zipCode":6009,"name":"Lameira"}},
{"adressId":661,"strasse":"Hansons","nummer":"844","ort":{"ortId":661,"zipCode":1860,"name":"Nong Phai"}},
{"adressId":662,"strasse":"Magdeline","nummer":"35","ort":{"ortId":662,"zipCode":9756,"name":"Leon Postigo"}},
{"adressId":663,"strasse":"Jackson","nummer":"60","ort":{"ortId":663,"zipCode":5367,"name":"Goragorskiy"}},
{"adressId":664,"strasse":"Bunker Hill","nummer":"964","ort":{"ortId":664,"zipCode":7425,"name":"Xianshuigu"}},
{"adressId":665,"strasse":"Hooker","nummer":"6553","ort":{"ortId":665,"zipCode":2439,"name":"Meruge"}},
{"adressId":666,"strasse":"Lindbergh","nummer":"8","ort":{"ortId":666,"zipCode":1848,"name":"Bartolomé Masó"}},
{"adressId":667,"strasse":"Glacier Hill","nummer":"459","ort":{"ortId":667,"zipCode":8688,"name":"Moravská Nová Ves"}},
{"adressId":668,"strasse":"Tomscot","nummer":"77","ort":{"ortId":668,"zipCode":3568,"name":"Huishangang"}},
{"adressId":669,"strasse":"Vidon","nummer":"51147","ort":{"ortId":669,"zipCode":1874,"name":"Dongdajie"}},
{"adressId":670,"strasse":"Barnett","nummer":"430","ort":{"ortId":670,"zipCode":4233,"name":"Yurovka"}},
{"adressId":671,"strasse":"Saint Paul","nummer":"62","ort":{"ortId":671,"zipCode":3602,"name":"Gosë e Madhe"}},
{"adressId":672,"strasse":"Dixon","nummer":"3190","ort":{"ortId":672,"zipCode":6538,"name":"Myski"}},
{"adressId":673,"strasse":"Northport","nummer":"870","ort":{"ortId":673,"zipCode":6760,"name":"Kenarilang"}},
{"adressId":674,"strasse":"Scofield","nummer":"44","ort":{"ortId":674,"zipCode":6167,"name":"Lordegān"}},
{"adressId":675,"strasse":"Mariners Cove","nummer":"83795","ort":{"ortId":675,"zipCode":8979,"name":"Šmartno pri Litiji"}},
{"adressId":676,"strasse":"Stone Corner","nummer":"75902","ort":{"ortId":676,"zipCode":2340,"name":"Veliki Preslav"}},
{"adressId":677,"strasse":"Forest Run","nummer":"3","ort":{"ortId":677,"zipCode":2259,"name":"Tiarei"}},
{"adressId":678,"strasse":"Memorial","nummer":"30","ort":{"ortId":678,"zipCode":7351,"name":"Tonota"}},
{"adressId":679,"strasse":"Hazelcrest","nummer":"0","ort":{"ortId":679,"zipCode":7564,"name":"Kotabaru"}},
{"adressId":680,"strasse":"Buhler","nummer":"59","ort":{"ortId":680,"zipCode":5887,"name":"Uga"}},
{"adressId":681,"strasse":"Susan","nummer":"23","ort":{"ortId":681,"zipCode":7861,"name":"Haveli"}},
{"adressId":682,"strasse":"Prentice","nummer":"85698","ort":{"ortId":682,"zipCode":6631,"name":"Bantardawa"}},
{"adressId":683,"strasse":"Glendale","nummer":"3","ort":{"ortId":683,"zipCode":6540,"name":"Embu"}},
{"adressId":684,"strasse":"Weeping Birch","nummer":"96931","ort":{"ortId":684,"zipCode":4648,"name":"Oruro"}},
{"adressId":685,"strasse":"Farwell","nummer":"0870","ort":{"ortId":685,"zipCode":5684,"name":"Changbao"}},
{"adressId":686,"strasse":"Division","nummer":"696","ort":{"ortId":686,"zipCode":5027,"name":"Xiangshui"}},
{"adressId":687,"strasse":"Dawn","nummer":"8171","ort":{"ortId":687,"zipCode":2123,"name":"Asenovgrad"}},
{"adressId":688,"strasse":"Corscot","nummer":"6457","ort":{"ortId":688,"zipCode":8502,"name":"Los Lotes"}},
{"adressId":689,"strasse":"Northview","nummer":"37543","ort":{"ortId":689,"zipCode":2377,"name":"Höshööt"}},
{"adressId":690,"strasse":"Porter","nummer":"10888","ort":{"ortId":690,"zipCode":5479,"name":"Akoupé"}},
{"adressId":691,"strasse":"Morrow","nummer":"09391","ort":{"ortId":691,"zipCode":8539,"name":"Antagan Segunda"}},
{"adressId":692,"strasse":"Green","nummer":"178","ort":{"ortId":692,"zipCode":5840,"name":"Tierra y Libertad"}},
{"adressId":693,"strasse":"Dryden","nummer":"6973","ort":{"ortId":693,"zipCode":3359,"name":"Villa General Belgrano"}},
{"adressId":694,"strasse":"Towne","nummer":"446","ort":{"ortId":694,"zipCode":4764,"name":"Foundiougne"}},
{"adressId":695,"strasse":"Rieder","nummer":"749","ort":{"ortId":695,"zipCode":1819,"name":"Nunmanu"}},
{"adressId":696,"strasse":"Dapin","nummer":"33","ort":{"ortId":696,"zipCode":3662,"name":"Kaum"}},
{"adressId":697,"strasse":"Spohn","nummer":"3389","ort":{"ortId":697,"zipCode":3318,"name":"Semikarakorsk"}},
{"adressId":698,"strasse":"Hallows","nummer":"66","ort":{"ortId":698,"zipCode":1206,"name":"Mainz"}},
{"adressId":699,"strasse":"Manufacturers","nummer":"435","ort":{"ortId":699,"zipCode":6297,"name":"Pinhal da Marquesa"}},
{"adressId":700,"strasse":"Golf View","nummer":"80","ort":{"ortId":700,"zipCode":7730,"name":"Nangka"}},
{"adressId":701,"strasse":"Dapin","nummer":"6631","ort":{"ortId":701,"zipCode":4093,"name":"Kawasaki"}},
{"adressId":702,"strasse":"Lighthouse Bay","nummer":"21","ort":{"ortId":702,"zipCode":1177,"name":"København"}},
{"adressId":703,"strasse":"Luster","nummer":"05855","ort":{"ortId":703,"zipCode":7066,"name":"Novalja"}},
{"adressId":704,"strasse":"Melvin","nummer":"4","ort":{"ortId":704,"zipCode":7716,"name":"Dungon"}},
{"adressId":705,"strasse":"Dakota","nummer":"760","ort":{"ortId":705,"zipCode":5192,"name":"Balatero"}},
{"adressId":706,"strasse":"Manitowish","nummer":"6981","ort":{"ortId":706,"zipCode":6149,"name":"Saqqez"}},
{"adressId":707,"strasse":"Hoard","nummer":"14642","ort":{"ortId":707,"zipCode":2068,"name":"Cheping"}},
{"adressId":708,"strasse":"Hoepker","nummer":"55","ort":{"ortId":708,"zipCode":3663,"name":"Tournon-sur-Rhône"}},
{"adressId":709,"strasse":"Morningstar","nummer":"252","ort":{"ortId":709,"zipCode":2036,"name":"Gonābād"}},
{"adressId":710,"strasse":"Comanche","nummer":"7","ort":{"ortId":710,"zipCode":8094,"name":"Guleluke"}},
{"adressId":711,"strasse":"Drewry","nummer":"5","ort":{"ortId":711,"zipCode":3619,"name":"Ucuncha"}},
{"adressId":712,"strasse":"Delladonna","nummer":"60437","ort":{"ortId":712,"zipCode":5731,"name":"Qırmızı Samux"}},
{"adressId":713,"strasse":"Autumn Leaf","nummer":"33","ort":{"ortId":713,"zipCode":9256,"name":"Sukoreno"}},
{"adressId":714,"strasse":"Old Gate","nummer":"4241","ort":{"ortId":714,"zipCode":1851,"name":"Xiaoqi"}},
{"adressId":715,"strasse":"New Castle","nummer":"045","ort":{"ortId":715,"zipCode":5342,"name":"Kabīrwāla"}},
{"adressId":716,"strasse":"Michigan","nummer":"664","ort":{"ortId":716,"zipCode":8548,"name":"Shizukuishi"}},
{"adressId":717,"strasse":"8th","nummer":"3846","ort":{"ortId":717,"zipCode":4917,"name":"Laju Kidul"}},
{"adressId":718,"strasse":"Nobel","nummer":"64461","ort":{"ortId":718,"zipCode":5222,"name":"Shōbu"}},
{"adressId":719,"strasse":"Holy Cross","nummer":"70239","ort":{"ortId":719,"zipCode":4355,"name":"Vnanje Gorice"}},
{"adressId":720,"strasse":"Florence","nummer":"4","ort":{"ortId":720,"zipCode":9469,"name":"Huaicheng"}},
{"adressId":721,"strasse":"Redwing","nummer":"4119","ort":{"ortId":721,"zipCode":2594,"name":"Kaom"}},
{"adressId":722,"strasse":"Carpenter","nummer":"04","ort":{"ortId":722,"zipCode":1615,"name":"Aurora"}},
{"adressId":723,"strasse":"Bashford","nummer":"4960","ort":{"ortId":723,"zipCode":7822,"name":"Tibro"}},
{"adressId":724,"strasse":"Eastwood","nummer":"46","ort":{"ortId":724,"zipCode":8780,"name":"Vsevolozhsk"}},
{"adressId":725,"strasse":"Stoughton","nummer":"8","ort":{"ortId":725,"zipCode":2306,"name":"Oslo"}},
{"adressId":726,"strasse":"Sloan","nummer":"85003","ort":{"ortId":726,"zipCode":4668,"name":"Sacanche"}},
{"adressId":727,"strasse":"Corben","nummer":"385","ort":{"ortId":727,"zipCode":5820,"name":"Aughrim"}},
{"adressId":728,"strasse":"Susan","nummer":"34","ort":{"ortId":728,"zipCode":2567,"name":"Pyhäselkä"}},
{"adressId":729,"strasse":"Schmedeman","nummer":"2","ort":{"ortId":729,"zipCode":5389,"name":"Lauro de Freitas"}},
{"adressId":730,"strasse":"Loftsgordon","nummer":"4","ort":{"ortId":730,"zipCode":1367,"name":"Nandayure"}},
{"adressId":731,"strasse":"Hermina","nummer":"787","ort":{"ortId":731,"zipCode":2160,"name":"Aqqan"}},
{"adressId":732,"strasse":"Anderson","nummer":"343","ort":{"ortId":732,"zipCode":2584,"name":"Gio Linh"}},
{"adressId":733,"strasse":"Independence","nummer":"6","ort":{"ortId":733,"zipCode":4673,"name":"Cogtong"}},
{"adressId":734,"strasse":"Twin Pines","nummer":"863","ort":{"ortId":734,"zipCode":9094,"name":"Konotop"}},
{"adressId":735,"strasse":"Aberg","nummer":"522","ort":{"ortId":735,"zipCode":6381,"name":"Haibeitou"}},
{"adressId":736,"strasse":"Vahlen","nummer":"988","ort":{"ortId":736,"zipCode":4544,"name":"Pilzno"}},
{"adressId":737,"strasse":"Waywood","nummer":"51592","ort":{"ortId":737,"zipCode":9053,"name":"Liangjing"}},
{"adressId":738,"strasse":"Waxwing","nummer":"964","ort":{"ortId":738,"zipCode":8570,"name":"Maduao"}},
{"adressId":739,"strasse":"Starling","nummer":"49","ort":{"ortId":739,"zipCode":4560,"name":"Molde"}},
{"adressId":740,"strasse":"Leroy","nummer":"77196","ort":{"ortId":740,"zipCode":7609,"name":"Long Beach"}},
{"adressId":741,"strasse":"Marquette","nummer":"1","ort":{"ortId":741,"zipCode":3148,"name":"Hōjō"}},
{"adressId":742,"strasse":"Chive","nummer":"83819","ort":{"ortId":742,"zipCode":8993,"name":"Campo Grande"}},
{"adressId":743,"strasse":"Scofield","nummer":"15075","ort":{"ortId":743,"zipCode":6177,"name":"Outapi"}},
{"adressId":744,"strasse":"Sommers","nummer":"818","ort":{"ortId":744,"zipCode":8938,"name":"Trmice"}},
{"adressId":745,"strasse":"Lunder","nummer":"19496","ort":{"ortId":745,"zipCode":7727,"name":"Kebonkaret"}},
{"adressId":746,"strasse":"Heath","nummer":"949","ort":{"ortId":746,"zipCode":7964,"name":"Lenakapa"}},
{"adressId":747,"strasse":"Harbort","nummer":"8","ort":{"ortId":747,"zipCode":1999,"name":"Danidehe"}},
{"adressId":748,"strasse":"Grover","nummer":"4408","ort":{"ortId":748,"zipCode":8928,"name":"Lípa"}},
{"adressId":749,"strasse":"Logan","nummer":"86890","ort":{"ortId":749,"zipCode":6344,"name":"Matang"}},
{"adressId":750,"strasse":"Rockefeller","nummer":"02263","ort":{"ortId":750,"zipCode":7360,"name":"Blagoveshchenka"}},
{"adressId":751,"strasse":"Tomscot","nummer":"8","ort":{"ortId":751,"zipCode":8412,"name":"Kebonagung"}},
{"adressId":752,"strasse":"Schurz","nummer":"36797","ort":{"ortId":752,"zipCode":4128,"name":"Chartres"}},
{"adressId":753,"strasse":"Quincy","nummer":"7500","ort":{"ortId":753,"zipCode":7775,"name":"Yao’an"}},
{"adressId":754,"strasse":"Buhler","nummer":"685","ort":{"ortId":754,"zipCode":9324,"name":"Shilovo"}},
{"adressId":755,"strasse":"Anderson","nummer":"62","ort":{"ortId":755,"zipCode":4946,"name":"Pescadería"}},
{"adressId":756,"strasse":"Swallow","nummer":"8","ort":{"ortId":756,"zipCode":6148,"name":"Göteborg"}},
{"adressId":757,"strasse":"Green","nummer":"5709","ort":{"ortId":757,"zipCode":2279,"name":"Liqiao"}},
{"adressId":758,"strasse":"Jackson","nummer":"1091","ort":{"ortId":758,"zipCode":2015,"name":"Tumbi"}},
{"adressId":759,"strasse":"Stephen","nummer":"87717","ort":{"ortId":759,"zipCode":2432,"name":"Dongpu"}},
{"adressId":760,"strasse":"Clemons","nummer":"879","ort":{"ortId":760,"zipCode":4305,"name":"Antaparco"}},
{"adressId":761,"strasse":"American Ash","nummer":"4","ort":{"ortId":761,"zipCode":6077,"name":"Talalora"}},
{"adressId":762,"strasse":"Little Fleur","nummer":"8","ort":{"ortId":762,"zipCode":1661,"name":"Grammatikó"}},
{"adressId":763,"strasse":"Lawn","nummer":"24","ort":{"ortId":763,"zipCode":7386,"name":"Marinilla"}},
{"adressId":764,"strasse":"Evergreen","nummer":"826","ort":{"ortId":764,"zipCode":1449,"name":"Hongsipu"}},
{"adressId":765,"strasse":"Amoth","nummer":"835","ort":{"ortId":765,"zipCode":8930,"name":"Fengchan"}},
{"adressId":766,"strasse":"Golden Leaf","nummer":"3","ort":{"ortId":766,"zipCode":9925,"name":"Anlu"}},
{"adressId":767,"strasse":"Sunbrook","nummer":"693","ort":{"ortId":767,"zipCode":5854,"name":"Dzoraghbyur"}},
{"adressId":768,"strasse":"Dryden","nummer":"5","ort":{"ortId":768,"zipCode":9142,"name":"Yoshkar-Ola"}},
{"adressId":769,"strasse":"Golf Course","nummer":"02","ort":{"ortId":769,"zipCode":8601,"name":"Yancheng"}},
{"adressId":770,"strasse":"Forest Run","nummer":"37","ort":{"ortId":770,"zipCode":6872,"name":"Mirontsi"}},
{"adressId":771,"strasse":"Charing Cross","nummer":"31","ort":{"ortId":771,"zipCode":9396,"name":"Verkhniy Mamon"}},
{"adressId":772,"strasse":"Bartillon","nummer":"1","ort":{"ortId":772,"zipCode":2524,"name":"Yermolino"}},
{"adressId":773,"strasse":"Sycamore","nummer":"19478","ort":{"ortId":773,"zipCode":6543,"name":"Nizhniy Chir"}},
{"adressId":774,"strasse":"Bartelt","nummer":"20","ort":{"ortId":774,"zipCode":5699,"name":"Prokop’yevsk"}},
{"adressId":775,"strasse":"Birchwood","nummer":"65166","ort":{"ortId":775,"zipCode":9505,"name":"Kirzhach"}},
{"adressId":776,"strasse":"Chinook","nummer":"28","ort":{"ortId":776,"zipCode":5477,"name":"Bolikhan"}},
{"adressId":777,"strasse":"Burrows","nummer":"721","ort":{"ortId":777,"zipCode":8300,"name":"Morrinhos"}},
{"adressId":778,"strasse":"Cascade","nummer":"62569","ort":{"ortId":778,"zipCode":4029,"name":"Żórawina"}},
{"adressId":779,"strasse":"Shoshone","nummer":"4009","ort":{"ortId":779,"zipCode":6147,"name":"Newton"}},
{"adressId":780,"strasse":"Anderson","nummer":"67522","ort":{"ortId":780,"zipCode":1243,"name":"Xianrendu"}},
{"adressId":781,"strasse":"Elka","nummer":"780","ort":{"ortId":781,"zipCode":6297,"name":"Gongju"}},
{"adressId":782,"strasse":"Spenser","nummer":"3","ort":{"ortId":782,"zipCode":9262,"name":"Mabugang"}},
{"adressId":783,"strasse":"Kropf","nummer":"3401","ort":{"ortId":783,"zipCode":7176,"name":"Sande São Martinho"}},
{"adressId":784,"strasse":"Glendale","nummer":"4050","ort":{"ortId":784,"zipCode":7679,"name":"Chervyen’"}},
{"adressId":785,"strasse":"3rd","nummer":"33","ort":{"ortId":785,"zipCode":3246,"name":"Sanban"}},
{"adressId":786,"strasse":"Granby","nummer":"44","ort":{"ortId":786,"zipCode":4048,"name":"Vinica"}},
{"adressId":787,"strasse":"Corben","nummer":"7","ort":{"ortId":787,"zipCode":3482,"name":"Nesebar"}},
{"adressId":788,"strasse":"Bunker Hill","nummer":"11035","ort":{"ortId":788,"zipCode":9913,"name":"Tangdukou"}},
{"adressId":789,"strasse":"Commercial","nummer":"06701","ort":{"ortId":789,"zipCode":4073,"name":"Gubu"}},
{"adressId":790,"strasse":"Farragut","nummer":"2","ort":{"ortId":790,"zipCode":1919,"name":"São José do Rio Pardo"}},
{"adressId":791,"strasse":"Gulseth","nummer":"82114","ort":{"ortId":791,"zipCode":9053,"name":"Medina Estates"}},
{"adressId":792,"strasse":"Redwing","nummer":"886","ort":{"ortId":792,"zipCode":3199,"name":"Karlskoga"}},
{"adressId":793,"strasse":"Old Shore","nummer":"41798","ort":{"ortId":793,"zipCode":5824,"name":"Bandar-e Torkaman"}},
{"adressId":794,"strasse":"Scott","nummer":"536","ort":{"ortId":794,"zipCode":8239,"name":"Wieczfnia Kościelna"}},
{"adressId":795,"strasse":"Northridge","nummer":"555","ort":{"ortId":795,"zipCode":6693,"name":"Kisesa"}},
{"adressId":796,"strasse":"Hermina","nummer":"0","ort":{"ortId":796,"zipCode":1283,"name":"Binabaan"}},
{"adressId":797,"strasse":"Redwing","nummer":"19185","ort":{"ortId":797,"zipCode":5447,"name":"Richmond"}},
{"adressId":798,"strasse":"Ridge Oak","nummer":"759","ort":{"ortId":798,"zipCode":4387,"name":"Walagar"}},
{"adressId":799,"strasse":"Pearson","nummer":"264","ort":{"ortId":799,"zipCode":7910,"name":"Dagkar"}},
{"adressId":800,"strasse":"Colorado","nummer":"6","ort":{"ortId":800,"zipCode":9892,"name":"Al Jawādīyah"}},
{"adressId":801,"strasse":"Linden","nummer":"285","ort":{"ortId":801,"zipCode":6917,"name":"Trindade"}},
{"adressId":802,"strasse":"Elka","nummer":"566","ort":{"ortId":802,"zipCode":2719,"name":"Zábřeh"}},
{"adressId":803,"strasse":"Pawling","nummer":"04985","ort":{"ortId":803,"zipCode":6347,"name":"Niushou"}},
{"adressId":804,"strasse":"Onsgard","nummer":"72450","ort":{"ortId":804,"zipCode":9903,"name":"Sanfang"}},
{"adressId":805,"strasse":"Mockingbird","nummer":"2","ort":{"ortId":805,"zipCode":6542,"name":"Pérama"}},
{"adressId":806,"strasse":"Evergreen","nummer":"4","ort":{"ortId":806,"zipCode":6882,"name":"Briteiros Santa Leocádia"}},
{"adressId":807,"strasse":"Rigney","nummer":"9","ort":{"ortId":807,"zipCode":7764,"name":"Jatinagara Kulon"}},
{"adressId":808,"strasse":"Barnett","nummer":"8255","ort":{"ortId":808,"zipCode":5756,"name":"Géfyra"}},
{"adressId":809,"strasse":"South","nummer":"91","ort":{"ortId":809,"zipCode":1514,"name":"Maninihon"}},
{"adressId":810,"strasse":"Elgar","nummer":"233","ort":{"ortId":810,"zipCode":1531,"name":"Saue"}},
{"adressId":811,"strasse":"Bartillon","nummer":"5","ort":{"ortId":811,"zipCode":8806,"name":"Kupu"}},
{"adressId":812,"strasse":"Westend","nummer":"71442","ort":{"ortId":812,"zipCode":2308,"name":"Shifang"}},
{"adressId":813,"strasse":"Tomscot","nummer":"3","ort":{"ortId":813,"zipCode":2633,"name":"Lagodekhi"}},
{"adressId":814,"strasse":"Moose","nummer":"1614","ort":{"ortId":814,"zipCode":2312,"name":"Chiryū"}},
{"adressId":815,"strasse":"Packers","nummer":"88099","ort":{"ortId":815,"zipCode":8602,"name":"Xinqiao"}},
{"adressId":816,"strasse":"1st","nummer":"83524","ort":{"ortId":816,"zipCode":3653,"name":"Phu Khiao"}},
{"adressId":817,"strasse":"Manufacturers","nummer":"882","ort":{"ortId":817,"zipCode":3733,"name":"Nevinnomyssk"}},
{"adressId":818,"strasse":"Harbort","nummer":"544","ort":{"ortId":818,"zipCode":3270,"name":"Sindang"}},
{"adressId":819,"strasse":"Elka","nummer":"9","ort":{"ortId":819,"zipCode":6168,"name":"May Pen"}},
{"adressId":820,"strasse":"Burrows","nummer":"76","ort":{"ortId":820,"zipCode":7614,"name":"Perre"}},
{"adressId":821,"strasse":"Scoville","nummer":"09","ort":{"ortId":821,"zipCode":9985,"name":"Buenavista"}},
{"adressId":822,"strasse":"Cascade","nummer":"9607","ort":{"ortId":822,"zipCode":8568,"name":"Tilburg"}},
{"adressId":823,"strasse":"Continental","nummer":"11","ort":{"ortId":823,"zipCode":3985,"name":"Obolo-Eke (1)"}},
{"adressId":824,"strasse":"Riverside","nummer":"9","ort":{"ortId":824,"zipCode":6213,"name":"Murakami"}},
{"adressId":825,"strasse":"Crest Line","nummer":"1508","ort":{"ortId":825,"zipCode":6993,"name":"Heshang"}},
{"adressId":826,"strasse":"Moulton","nummer":"74702","ort":{"ortId":826,"zipCode":8867,"name":"Mouriscas"}},
{"adressId":827,"strasse":"Jackson","nummer":"2","ort":{"ortId":827,"zipCode":4641,"name":"Évry"}},
{"adressId":828,"strasse":"Carpenter","nummer":"41202","ort":{"ortId":828,"zipCode":7563,"name":"Daitou"}},
{"adressId":829,"strasse":"Colorado","nummer":"60995","ort":{"ortId":829,"zipCode":1805,"name":"Johor Bahru"}},
{"adressId":830,"strasse":"Macpherson","nummer":"96489","ort":{"ortId":830,"zipCode":5388,"name":"Wangying"}},
{"adressId":831,"strasse":"Westridge","nummer":"9833","ort":{"ortId":831,"zipCode":8286,"name":"Lhoknga"}},
{"adressId":832,"strasse":"Division","nummer":"1629","ort":{"ortId":832,"zipCode":1899,"name":"København"}},
{"adressId":833,"strasse":"Onsgard","nummer":"275","ort":{"ortId":833,"zipCode":8884,"name":"Ilinden"}},
{"adressId":834,"strasse":"Glacier Hill","nummer":"60","ort":{"ortId":834,"zipCode":3594,"name":"Nurmo"}},
{"adressId":835,"strasse":"Glendale","nummer":"53","ort":{"ortId":835,"zipCode":5633,"name":"Romblon"}},
{"adressId":836,"strasse":"Manufacturers","nummer":"8178","ort":{"ortId":836,"zipCode":5011,"name":"Tuanjie"}},
{"adressId":837,"strasse":"Warner","nummer":"265","ort":{"ortId":837,"zipCode":9483,"name":"Puerto Castilla"}},
{"adressId":838,"strasse":"2nd","nummer":"36","ort":{"ortId":838,"zipCode":7715,"name":"Ḏânan"}},
{"adressId":839,"strasse":"Warbler","nummer":"2825","ort":{"ortId":839,"zipCode":8743,"name":"Dourados"}},
{"adressId":840,"strasse":"Westerfield","nummer":"421","ort":{"ortId":840,"zipCode":8194,"name":"Buíque"}},
{"adressId":841,"strasse":"Washington","nummer":"3","ort":{"ortId":841,"zipCode":5104,"name":"Hägersten"}},
{"adressId":842,"strasse":"Independence","nummer":"7731","ort":{"ortId":842,"zipCode":3034,"name":"Terong"}},
{"adressId":843,"strasse":"Riverside","nummer":"0","ort":{"ortId":843,"zipCode":3468,"name":"Rojas"}},
{"adressId":844,"strasse":"Londonderry","nummer":"1","ort":{"ortId":844,"zipCode":5116,"name":"Shangping"}},
{"adressId":845,"strasse":"Elka","nummer":"21835","ort":{"ortId":845,"zipCode":3549,"name":"Mozzozzin Sur"}},
{"adressId":846,"strasse":"Scoville","nummer":"14030","ort":{"ortId":846,"zipCode":3842,"name":"Sitampiky"}},
{"adressId":847,"strasse":"8th","nummer":"15372","ort":{"ortId":847,"zipCode":7679,"name":"Pardesiyya"}},
{"adressId":848,"strasse":"Johnson","nummer":"97","ort":{"ortId":848,"zipCode":5002,"name":"Cangkreng"}},
{"adressId":849,"strasse":"Village","nummer":"70079","ort":{"ortId":849,"zipCode":8231,"name":"San José de Ocoa"}},
{"adressId":850,"strasse":"Heath","nummer":"413","ort":{"ortId":850,"zipCode":9368,"name":"Ipoh"}},
{"adressId":851,"strasse":"Northwestern","nummer":"571","ort":{"ortId":851,"zipCode":2337,"name":"Zhanaozen"}},
{"adressId":852,"strasse":"Lake View","nummer":"26781","ort":{"ortId":852,"zipCode":9769,"name":"Ijuí"}},
{"adressId":853,"strasse":"Sherman","nummer":"27921","ort":{"ortId":853,"zipCode":4809,"name":"Wanjia"}},
{"adressId":854,"strasse":"Sutherland","nummer":"066","ort":{"ortId":854,"zipCode":1455,"name":"Pirallahı"}},
{"adressId":855,"strasse":"Summit","nummer":"16859","ort":{"ortId":855,"zipCode":9155,"name":"Guantouzui"}},
{"adressId":856,"strasse":"Hayes","nummer":"185","ort":{"ortId":856,"zipCode":5083,"name":"Albania"}},
{"adressId":857,"strasse":"Quincy","nummer":"73","ort":{"ortId":857,"zipCode":1275,"name":"Danchang"}},
{"adressId":858,"strasse":"Hudson","nummer":"32538","ort":{"ortId":858,"zipCode":7645,"name":"Kladovo"}},
{"adressId":859,"strasse":"West","nummer":"512","ort":{"ortId":859,"zipCode":1071,"name":"Ōme"}},
{"adressId":860,"strasse":"Logan","nummer":"5084","ort":{"ortId":860,"zipCode":4985,"name":"Situsari"}},
{"adressId":861,"strasse":"North","nummer":"398","ort":{"ortId":861,"zipCode":2645,"name":"Khŭjand"}},
{"adressId":862,"strasse":"Drewry","nummer":"9","ort":{"ortId":862,"zipCode":1814,"name":"Nicoya"}},
{"adressId":863,"strasse":"Burrows","nummer":"82137","ort":{"ortId":863,"zipCode":1514,"name":"Gryazovets"}},
{"adressId":864,"strasse":"Spaight","nummer":"3483","ort":{"ortId":864,"zipCode":4632,"name":"Shangde"}},
{"adressId":865,"strasse":"Dayton","nummer":"93256","ort":{"ortId":865,"zipCode":1033,"name":"Savski Venac"}},
{"adressId":866,"strasse":"Killdeer","nummer":"8","ort":{"ortId":866,"zipCode":5250,"name":"Thị Trấn Pác Miầu"}},
{"adressId":867,"strasse":"Red Cloud","nummer":"45752","ort":{"ortId":867,"zipCode":8110,"name":"Gualeguaychú"}},
{"adressId":868,"strasse":"Ruskin","nummer":"26","ort":{"ortId":868,"zipCode":7106,"name":"Alcáçovas"}},
{"adressId":869,"strasse":"Anniversary","nummer":"7","ort":{"ortId":869,"zipCode":9707,"name":"Polyarnyy"}},
{"adressId":870,"strasse":"Shasta","nummer":"7","ort":{"ortId":870,"zipCode":5078,"name":"Quwaysinā"}},
{"adressId":871,"strasse":"Kennedy","nummer":"86","ort":{"ortId":871,"zipCode":1794,"name":"Krojo"}},
{"adressId":872,"strasse":"Alpine","nummer":"734","ort":{"ortId":872,"zipCode":7556,"name":"Igoumenítsa"}},
{"adressId":873,"strasse":"Hayes","nummer":"3","ort":{"ortId":873,"zipCode":6584,"name":"Jubao"}},
{"adressId":874,"strasse":"Bartelt","nummer":"2","ort":{"ortId":874,"zipCode":9186,"name":"Mambulo"}},
{"adressId":875,"strasse":"Larry","nummer":"15","ort":{"ortId":875,"zipCode":5132,"name":"Fuzihe"}},
{"adressId":876,"strasse":"Troy","nummer":"12","ort":{"ortId":876,"zipCode":9504,"name":"San Jose"}},
{"adressId":877,"strasse":"Surrey","nummer":"3","ort":{"ortId":877,"zipCode":6311,"name":"Uga"}},
{"adressId":878,"strasse":"Raven","nummer":"41659","ort":{"ortId":878,"zipCode":1643,"name":"Daqin Tal"}},
{"adressId":879,"strasse":"Bayside","nummer":"4408","ort":{"ortId":879,"zipCode":9567,"name":"Sapadun"}},
{"adressId":880,"strasse":"Jay","nummer":"74","ort":{"ortId":880,"zipCode":5701,"name":"Shymkent"}},
{"adressId":881,"strasse":"Killdeer","nummer":"3","ort":{"ortId":881,"zipCode":3043,"name":"Montpellier"}},
{"adressId":882,"strasse":"Fallview","nummer":"98948","ort":{"ortId":882,"zipCode":1199,"name":"Longmenfan"}},
{"adressId":883,"strasse":"Bartillon","nummer":"5","ort":{"ortId":883,"zipCode":7667,"name":"Bonn"}},
{"adressId":884,"strasse":"Basil","nummer":"226","ort":{"ortId":884,"zipCode":6607,"name":"Mulan"}},
{"adressId":885,"strasse":"Helena","nummer":"5286","ort":{"ortId":885,"zipCode":5860,"name":"Novomoskovs’k"}},
{"adressId":886,"strasse":"Westend","nummer":"515","ort":{"ortId":886,"zipCode":2721,"name":"Beipai"}},
{"adressId":887,"strasse":"Arkansas","nummer":"4359","ort":{"ortId":887,"zipCode":1875,"name":"Gelan"}},
{"adressId":888,"strasse":"Waxwing","nummer":"049","ort":{"ortId":888,"zipCode":4318,"name":"Bogoria"}},
{"adressId":889,"strasse":"Hanson","nummer":"25033","ort":{"ortId":889,"zipCode":9076,"name":"Daqian"}},
{"adressId":890,"strasse":"Vidon","nummer":"29","ort":{"ortId":890,"zipCode":4878,"name":"Boyu"}},
{"adressId":891,"strasse":"Hoepker","nummer":"3","ort":{"ortId":891,"zipCode":2032,"name":"Pasadena"}},
{"adressId":892,"strasse":"Parkside","nummer":"61","ort":{"ortId":892,"zipCode":9182,"name":"IJmuiden"}},
{"adressId":893,"strasse":"Bashford","nummer":"31","ort":{"ortId":893,"zipCode":8803,"name":"Uścimów Stary"}},
{"adressId":894,"strasse":"Dayton","nummer":"8592","ort":{"ortId":894,"zipCode":9133,"name":"Ivry-sur-Seine"}},
{"adressId":895,"strasse":"Starling","nummer":"931","ort":{"ortId":895,"zipCode":7717,"name":"Mashi"}},
{"adressId":896,"strasse":"Goodland","nummer":"4673","ort":{"ortId":896,"zipCode":6174,"name":"Thị Trấn Cao Lộc"}},
{"adressId":897,"strasse":"Ridgeway","nummer":"5386","ort":{"ortId":897,"zipCode":3199,"name":"Dongyuan"}},
{"adressId":898,"strasse":"Cambridge","nummer":"9","ort":{"ortId":898,"zipCode":9424,"name":"Comodoro Rivadavia"}},
{"adressId":899,"strasse":"Jenifer","nummer":"35","ort":{"ortId":899,"zipCode":9207,"name":"Blumenau"}},
{"adressId":900,"strasse":"Fair Oaks","nummer":"222","ort":{"ortId":900,"zipCode":7605,"name":"Mönhbulag"}},
{"adressId":901,"strasse":"Di Loreto","nummer":"4550","ort":{"ortId":901,"zipCode":2526,"name":"Dodoma"}},
{"adressId":902,"strasse":"Transport","nummer":"52","ort":{"ortId":902,"zipCode":1256,"name":"Rancagadog"}},
{"adressId":903,"strasse":"Sullivan","nummer":"26182","ort":{"ortId":903,"zipCode":2290,"name":"Shanggu"}},
{"adressId":904,"strasse":"Prentice","nummer":"4103","ort":{"ortId":904,"zipCode":9447,"name":"Lyon"}},
{"adressId":905,"strasse":"Sachs","nummer":"1422","ort":{"ortId":905,"zipCode":3470,"name":"Gaïtánion"}},
{"adressId":906,"strasse":"Blue Bill Park","nummer":"9","ort":{"ortId":906,"zipCode":5806,"name":"Pasirnangka"}},
{"adressId":907,"strasse":"Maple Wood","nummer":"5544","ort":{"ortId":907,"zipCode":5750,"name":"Dar Chabanne"}},
{"adressId":908,"strasse":"Hovde","nummer":"53","ort":{"ortId":908,"zipCode":6701,"name":"La Jagua de Ibirico"}},
{"adressId":909,"strasse":"Talmadge","nummer":"71","ort":{"ortId":909,"zipCode":4586,"name":"Magoúla"}},
{"adressId":910,"strasse":"Cordelia","nummer":"17147","ort":{"ortId":910,"zipCode":2230,"name":"Agpangi"}},
{"adressId":911,"strasse":"Tennessee","nummer":"3130","ort":{"ortId":911,"zipCode":6668,"name":"Shapaja"}},
{"adressId":912,"strasse":"Cody","nummer":"7283","ort":{"ortId":912,"zipCode":7945,"name":"Xiongji"}},
{"adressId":913,"strasse":"Birchwood","nummer":"122","ort":{"ortId":913,"zipCode":9129,"name":"Dos Quebradas"}},
{"adressId":914,"strasse":"Pleasure","nummer":"3977","ort":{"ortId":914,"zipCode":4262,"name":"Seren Barat"}},
{"adressId":915,"strasse":"Glendale","nummer":"8","ort":{"ortId":915,"zipCode":1880,"name":"Ishim"}},
{"adressId":916,"strasse":"Stone Corner","nummer":"56425","ort":{"ortId":916,"zipCode":4366,"name":"Nartkala"}},
{"adressId":917,"strasse":"Bartillon","nummer":"4068","ort":{"ortId":917,"zipCode":1611,"name":"Loangmaka"}},
{"adressId":918,"strasse":"Ridgeway","nummer":"7480","ort":{"ortId":918,"zipCode":4673,"name":"Varennes"}},
{"adressId":919,"strasse":"Norway Maple","nummer":"92","ort":{"ortId":919,"zipCode":1989,"name":"Na Khu"}},
{"adressId":920,"strasse":"Northport","nummer":"4","ort":{"ortId":920,"zipCode":7681,"name":"Gustavia"}},
{"adressId":921,"strasse":"Stuart","nummer":"723","ort":{"ortId":921,"zipCode":2150,"name":"Drawsko"}},
{"adressId":922,"strasse":"Grim","nummer":"06064","ort":{"ortId":922,"zipCode":9092,"name":"Badeggi"}},
{"adressId":923,"strasse":"Clyde Gallagher","nummer":"222","ort":{"ortId":923,"zipCode":1471,"name":"Acajutla"}},
{"adressId":924,"strasse":"Walton","nummer":"44","ort":{"ortId":924,"zipCode":5702,"name":"Chumikan"}},
{"adressId":925,"strasse":"Miller","nummer":"79","ort":{"ortId":925,"zipCode":2309,"name":"El Porvenir"}},
{"adressId":926,"strasse":"Fairfield","nummer":"8973","ort":{"ortId":926,"zipCode":1572,"name":"La Virgen"}},
{"adressId":927,"strasse":"Park Meadow","nummer":"300","ort":{"ortId":927,"zipCode":5516,"name":"Nevesinje"}},
{"adressId":928,"strasse":"Northland","nummer":"79207","ort":{"ortId":928,"zipCode":2697,"name":"A dos Negros"}},
{"adressId":929,"strasse":"Veith","nummer":"1","ort":{"ortId":929,"zipCode":7765,"name":"Blumenau"}},
{"adressId":930,"strasse":"Muir","nummer":"645","ort":{"ortId":930,"zipCode":3440,"name":"Hetang"}},
{"adressId":931,"strasse":"Hovde","nummer":"97","ort":{"ortId":931,"zipCode":8022,"name":"Mesker-Yurt"}},
{"adressId":932,"strasse":"Lunder","nummer":"91789","ort":{"ortId":932,"zipCode":5884,"name":"Orsay"}},
{"adressId":933,"strasse":"Meadow Vale","nummer":"43","ort":{"ortId":933,"zipCode":9253,"name":"Paranho"}},
{"adressId":934,"strasse":"Dahle","nummer":"2","ort":{"ortId":934,"zipCode":2183,"name":"Oskarshamn"}},
{"adressId":935,"strasse":"Mcbride","nummer":"4","ort":{"ortId":935,"zipCode":8255,"name":"Dhrosiá"}},
{"adressId":936,"strasse":"Dorton","nummer":"23","ort":{"ortId":936,"zipCode":1602,"name":"Banjar Wates Tengah"}},
{"adressId":937,"strasse":"Scofield","nummer":"5","ort":{"ortId":937,"zipCode":7116,"name":"Margotuhu Kidul"}},
{"adressId":938,"strasse":"Holy Cross","nummer":"05","ort":{"ortId":938,"zipCode":2197,"name":"Citangtu Kaler"}},
{"adressId":939,"strasse":"Judy","nummer":"0","ort":{"ortId":939,"zipCode":6143,"name":"Camp Thorel"}},
{"adressId":940,"strasse":"Dixon","nummer":"34","ort":{"ortId":940,"zipCode":1491,"name":"Zhangjia"}},
{"adressId":941,"strasse":"Summit","nummer":"02","ort":{"ortId":941,"zipCode":1624,"name":"Wangqingtuo"}},
{"adressId":942,"strasse":"Johnson","nummer":"22","ort":{"ortId":942,"zipCode":1311,"name":"Independencia"}},
{"adressId":943,"strasse":"Pine View","nummer":"70428","ort":{"ortId":943,"zipCode":2947,"name":"Estribeiro"}},
{"adressId":944,"strasse":"Mariners Cove","nummer":"2","ort":{"ortId":944,"zipCode":3187,"name":"Bokino"}},
{"adressId":945,"strasse":"International","nummer":"94478","ort":{"ortId":945,"zipCode":7101,"name":"Badian"}},
{"adressId":946,"strasse":"Old Shore","nummer":"88235","ort":{"ortId":946,"zipCode":2230,"name":"Lyamino"}},
{"adressId":947,"strasse":"3rd","nummer":"9013","ort":{"ortId":947,"zipCode":3807,"name":"Lieqiao"}},
{"adressId":948,"strasse":"Sheridan","nummer":"9226","ort":{"ortId":948,"zipCode":9878,"name":"Gordeyevka"}},
{"adressId":949,"strasse":"Susan","nummer":"273","ort":{"ortId":949,"zipCode":4733,"name":"Leigu"}},
{"adressId":950,"strasse":"Forster","nummer":"99568","ort":{"ortId":950,"zipCode":4026,"name":"Jangkungkusumo"}},
{"adressId":951,"strasse":"Dahle","nummer":"8565","ort":{"ortId":951,"zipCode":5118,"name":"Saint-Quentin-en-Yvelines"}},
{"adressId":952,"strasse":"Hazelcrest","nummer":"22","ort":{"ortId":952,"zipCode":1866,"name":"Amper"}},
{"adressId":953,"strasse":"Badeau","nummer":"29","ort":{"ortId":953,"zipCode":5708,"name":"Mizdah"}},
{"adressId":954,"strasse":"Kim","nummer":"2191","ort":{"ortId":954,"zipCode":6579,"name":"Jimusa’er"}},
{"adressId":955,"strasse":"Nobel","nummer":"810","ort":{"ortId":955,"zipCode":3572,"name":"Tando Jām"}},
{"adressId":956,"strasse":"Hansons","nummer":"22","ort":{"ortId":956,"zipCode":7068,"name":"Yamoto"}},
{"adressId":957,"strasse":"Bobwhite","nummer":"3278","ort":{"ortId":957,"zipCode":8221,"name":"Fermoy"}},
{"adressId":958,"strasse":"Shoshone","nummer":"7114","ort":{"ortId":958,"zipCode":9647,"name":"Bolengpulau"}},
{"adressId":959,"strasse":"Fairview","nummer":"67179","ort":{"ortId":959,"zipCode":6684,"name":"Deje"}},
{"adressId":960,"strasse":"West","nummer":"6633","ort":{"ortId":960,"zipCode":4636,"name":"Boshchorbogh"}},
{"adressId":961,"strasse":"Meadow Vale","nummer":"520","ort":{"ortId":961,"zipCode":9259,"name":"Ranchuelo"}},
{"adressId":962,"strasse":"Mifflin","nummer":"3488","ort":{"ortId":962,"zipCode":5094,"name":"Kirtipur"}},
{"adressId":963,"strasse":"Green","nummer":"376","ort":{"ortId":963,"zipCode":1290,"name":"Wola Uhruska"}},
{"adressId":964,"strasse":"Carey","nummer":"26","ort":{"ortId":964,"zipCode":1622,"name":"Chaoshui"}},
{"adressId":965,"strasse":"Warrior","nummer":"55824","ort":{"ortId":965,"zipCode":6255,"name":"Białogard"}},
{"adressId":966,"strasse":"Briar Crest","nummer":"52472","ort":{"ortId":966,"zipCode":3709,"name":"Wangjiachang"}},
{"adressId":967,"strasse":"Randy","nummer":"02095","ort":{"ortId":967,"zipCode":5007,"name":"Xiapu"}},
{"adressId":968,"strasse":"Green Ridge","nummer":"7","ort":{"ortId":968,"zipCode":7765,"name":"Nepeña"}},
{"adressId":969,"strasse":"Jackson","nummer":"1","ort":{"ortId":969,"zipCode":6704,"name":"Gonayiv"}},
{"adressId":970,"strasse":"Sunnyside","nummer":"82842","ort":{"ortId":970,"zipCode":5799,"name":"Si Racha"}},
{"adressId":971,"strasse":"Kensington","nummer":"70983","ort":{"ortId":971,"zipCode":3344,"name":"Jubung"}},
{"adressId":972,"strasse":"Corscot","nummer":"9","ort":{"ortId":972,"zipCode":1988,"name":"Tuqiao"}},
{"adressId":973,"strasse":"Hudson","nummer":"4887","ort":{"ortId":973,"zipCode":7703,"name":"Nālchiti"}},
{"adressId":974,"strasse":"Carpenter","nummer":"00","ort":{"ortId":974,"zipCode":2002,"name":"Zaojiacheng"}},
{"adressId":975,"strasse":"Grayhawk","nummer":"62","ort":{"ortId":975,"zipCode":2147,"name":"Shiziqiao"}},
{"adressId":976,"strasse":"Paget","nummer":"4","ort":{"ortId":976,"zipCode":6220,"name":"Pekuwon"}},
{"adressId":977,"strasse":"Monica","nummer":"24","ort":{"ortId":977,"zipCode":9077,"name":"Pniewy"}},
{"adressId":978,"strasse":"Oakridge","nummer":"55","ort":{"ortId":978,"zipCode":1876,"name":"Petoa"}},
{"adressId":979,"strasse":"Carpenter","nummer":"88285","ort":{"ortId":979,"zipCode":8772,"name":"Amman"}},
{"adressId":980,"strasse":"Comanche","nummer":"306","ort":{"ortId":980,"zipCode":9293,"name":"Longar"}},
{"adressId":981,"strasse":"Bonner","nummer":"88","ort":{"ortId":981,"zipCode":6404,"name":"El Rosario"}},
{"adressId":982,"strasse":"Monica","nummer":"41418","ort":{"ortId":982,"zipCode":6595,"name":"Yangzi"}},
{"adressId":983,"strasse":"Sutherland","nummer":"0","ort":{"ortId":983,"zipCode":8165,"name":"Impendle"}},
{"adressId":984,"strasse":"Gale","nummer":"7","ort":{"ortId":984,"zipCode":1415,"name":"Las Terrenas"}},
{"adressId":985,"strasse":"Lukken","nummer":"5584","ort":{"ortId":985,"zipCode":9478,"name":"Jiaobei"}},
{"adressId":986,"strasse":"West","nummer":"1","ort":{"ortId":986,"zipCode":1119,"name":"Ōita"}},
{"adressId":987,"strasse":"Fair Oaks","nummer":"33192","ort":{"ortId":987,"zipCode":7854,"name":"San Antonio"}},
{"adressId":988,"strasse":"Dottie","nummer":"7","ort":{"ortId":988,"zipCode":2128,"name":"Bailu"}},
{"adressId":989,"strasse":"Canary","nummer":"1","ort":{"ortId":989,"zipCode":6493,"name":"Kut Chap"}},
{"adressId":990,"strasse":"Sachtjen","nummer":"4","ort":{"ortId":990,"zipCode":1486,"name":"Orange Walk"}},
{"adressId":991,"strasse":"Ridge Oak","nummer":"166","ort":{"ortId":991,"zipCode":8937,"name":"Pale"}},
{"adressId":992,"strasse":"Dayton","nummer":"0","ort":{"ortId":992,"zipCode":5485,"name":"Pomahan"}},
{"adressId":993,"strasse":"Westridge","nummer":"0","ort":{"ortId":993,"zipCode":2337,"name":"Kopayhorod"}},
{"adressId":994,"strasse":"Pearson","nummer":"53","ort":{"ortId":994,"zipCode":5780,"name":"Lille"}},
{"adressId":995,"strasse":"Oneill","nummer":"7082","ort":{"ortId":995,"zipCode":5551,"name":"Kościelec"}},
{"adressId":996,"strasse":"Mockingbird","nummer":"72","ort":{"ortId":996,"zipCode":5811,"name":"Adjumani"}},
{"adressId":997,"strasse":"Troy","nummer":"8781","ort":{"ortId":997,"zipCode":8445,"name":"Fāryāb"}},
{"adressId":998,"strasse":"Clyde Gallagher","nummer":"7905","ort":{"ortId":998,"zipCode":6984,"name":"Senada"}},
{"adressId":999,"strasse":"Amoth","nummer":"10","ort":{"ortId":999,"zipCode":1856,"name":"Hejia"}},
{"adressId":1000,"strasse":"Sachtjen","nummer":"80890","ort":{"ortId":1000,"zipCode":3931,"name":"Mayhan"}}]