[{"ortId":1,"zipCode":4896,"name":"Barreiro"},
{"ortId":2,"zipCode":8043,"name":"Kranjska Gora"},
{"ortId":3,"zipCode":9915,"name":"Jiangwang"},
{"ortId":4,"zipCode":2579,"name":"Tobruk"},
{"ortId":5,"zipCode":9101,"name":"Changle"},
{"ortId":6,"zipCode":9131,"name":"Gribanovskiy"},
{"ortId":7,"zipCode":8644,"name":"Obo"},
{"ortId":8,"zipCode":2647,"name":"Pasvalys"},
{"ortId":9,"zipCode":2584,"name":"Songgang-dong"},
{"ortId":10,"zipCode":4920,"name":"Seongnam-si"},
{"ortId":11,"zipCode":4973,"name":"Kadubamban"},
{"ortId":12,"zipCode":4793,"name":"Detroit"},
{"ortId":13,"zipCode":5801,"name":"Huinca Renancó"},
{"ortId":14,"zipCode":3549,"name":"Az Ziyārah"},
{"ortId":15,"zipCode":2521,"name":"Fresno"},
{"ortId":16,"zipCode":5551,"name":"Ponta da Garça"},
{"ortId":17,"zipCode":9313,"name":"Bieligutai"},
{"ortId":18,"zipCode":3175,"name":"Emiliano Zapata"},
{"ortId":19,"zipCode":7662,"name":"Guápiles"},
{"ortId":20,"zipCode":4729,"name":"Chocope"},
{"ortId":21,"zipCode":1007,"name":"Singa"},
{"ortId":22,"zipCode":3581,"name":"Amaury"},
{"ortId":23,"zipCode":1633,"name":"Hörby"},
{"ortId":24,"zipCode":9485,"name":"Pa Phayom"},
{"ortId":25,"zipCode":8082,"name":"Jingping"},
{"ortId":26,"zipCode":9180,"name":"Shaguotun"},
{"ortId":27,"zipCode":3894,"name":"Jeseník"},
{"ortId":28,"zipCode":9257,"name":"Camangcamang"},
{"ortId":29,"zipCode":8758,"name":"Havlíčkův Brod"},
{"ortId":30,"zipCode":4618,"name":"Gamovo"},
{"ortId":31,"zipCode":9513,"name":"Visby"},
{"ortId":32,"zipCode":7401,"name":"Chocos"},
{"ortId":33,"zipCode":2195,"name":"Levoberezhnaya"},
{"ortId":34,"zipCode":8284,"name":"Kista"},
{"ortId":35,"zipCode":6176,"name":"Virolahti"},
{"ortId":36,"zipCode":3912,"name":"Arţās"},
{"ortId":37,"zipCode":4751,"name":"Tahala"},
{"ortId":38,"zipCode":3270,"name":"Longkou"},
{"ortId":39,"zipCode":2787,"name":"Ust’-Ilimsk"},
{"ortId":40,"zipCode":3680,"name":"Ranilug"},
{"ortId":41,"zipCode":7941,"name":"Gugut"},
{"ortId":42,"zipCode":2446,"name":"Paraíso"},
{"ortId":43,"zipCode":9319,"name":"Cabangahan"},
{"ortId":44,"zipCode":4655,"name":"Batumi"},
{"ortId":45,"zipCode":3784,"name":"Lleida"},
{"ortId":46,"zipCode":2822,"name":"Zhifang"},
{"ortId":47,"zipCode":4463,"name":"Noramarg"},
{"ortId":48,"zipCode":9055,"name":"Sloboda"},
{"ortId":49,"zipCode":1347,"name":"San Andres"},
{"ortId":50,"zipCode":6193,"name":"Sloboda"},
{"ortId":51,"zipCode":6605,"name":"Quận Mười"},
{"ortId":52,"zipCode":6330,"name":"Umuquena"},
{"ortId":53,"zipCode":4936,"name":"Washington"},
{"ortId":54,"zipCode":6476,"name":"Sanjiangkou"},
{"ortId":55,"zipCode":4804,"name":"Honolulu"},
{"ortId":56,"zipCode":5322,"name":"Tiyuguan"},
{"ortId":57,"zipCode":5832,"name":"Fernandópolis"},
{"ortId":58,"zipCode":4606,"name":"Barra dos Coqueiros"},
{"ortId":59,"zipCode":7205,"name":"Matoupu"},
{"ortId":60,"zipCode":1686,"name":"Miao’ertan"},
{"ortId":61,"zipCode":2669,"name":"Pedro Leopoldo"},
{"ortId":62,"zipCode":9395,"name":"San Pedro"},
{"ortId":63,"zipCode":1113,"name":"Wang Chan"},
{"ortId":64,"zipCode":7738,"name":"São Miguel da Carreira"},
{"ortId":65,"zipCode":5762,"name":"Niba"},
{"ortId":66,"zipCode":2062,"name":"Bosobolo"},
{"ortId":67,"zipCode":2609,"name":"Gia Nghĩa"},
{"ortId":68,"zipCode":9175,"name":"Åtvidaberg"},
{"ortId":69,"zipCode":3888,"name":"Dangchang Chengguanzhen"},
{"ortId":70,"zipCode":8686,"name":"Cangzhou"},
{"ortId":71,"zipCode":7267,"name":"Olesno"},
{"ortId":72,"zipCode":5197,"name":"East End"},
{"ortId":73,"zipCode":9163,"name":"Bangui"},
{"ortId":74,"zipCode":1080,"name":"Tonjongsari"},
{"ortId":75,"zipCode":2850,"name":"Vyaz’ma"},
{"ortId":76,"zipCode":8808,"name":"Banjar Tibubiyu Kaja"},
{"ortId":77,"zipCode":6674,"name":"Pappadátes"},
{"ortId":78,"zipCode":2814,"name":"Mantar"},
{"ortId":79,"zipCode":4797,"name":"Jurangjero"},
{"ortId":80,"zipCode":5005,"name":"Kożuchów"},
{"ortId":81,"zipCode":6532,"name":"Buritama"},
{"ortId":82,"zipCode":7601,"name":"Mbomba"},
{"ortId":83,"zipCode":8864,"name":"Kristiansand S"},
{"ortId":84,"zipCode":2938,"name":"Hasaki"},
{"ortId":85,"zipCode":8260,"name":"Anwen"},
{"ortId":86,"zipCode":9718,"name":"Qobu"},
{"ortId":87,"zipCode":8929,"name":"Wangping"},
{"ortId":88,"zipCode":4742,"name":"Zhangjiawan"},
{"ortId":89,"zipCode":3355,"name":"Järfälla"},
{"ortId":90,"zipCode":9717,"name":"Tapayan"},
{"ortId":91,"zipCode":3462,"name":"Frankfurt am Main"},
{"ortId":92,"zipCode":9213,"name":"Stockholm"},
{"ortId":93,"zipCode":1744,"name":"Louisville"},
{"ortId":94,"zipCode":6850,"name":"Volokolamsk"},
{"ortId":95,"zipCode":8845,"name":"Guiuan"},
{"ortId":96,"zipCode":6868,"name":"Aral"},
{"ortId":97,"zipCode":6813,"name":"Крива Паланка"},
{"ortId":98,"zipCode":6101,"name":"Vardane"},
{"ortId":99,"zipCode":5203,"name":"Dziewin"},
{"ortId":100,"zipCode":7891,"name":"Hongxingqiao"},
{"ortId":101,"zipCode":2321,"name":"Chenyangzhai"},
{"ortId":102,"zipCode":8206,"name":"Uppsala"},
{"ortId":103,"zipCode":8927,"name":"Pacar"},
{"ortId":104,"zipCode":6392,"name":"Puteaux"},
{"ortId":105,"zipCode":8859,"name":"Huangguan"},
{"ortId":106,"zipCode":2643,"name":"San Miguel"},
{"ortId":107,"zipCode":8084,"name":"Gorgoram"},
{"ortId":108,"zipCode":2166,"name":"Chaloem Phra Kiat"},
{"ortId":109,"zipCode":4916,"name":"Were Īlu"},
{"ortId":110,"zipCode":1955,"name":"Tiro"},
{"ortId":111,"zipCode":3295,"name":"Pitanga"},
{"ortId":112,"zipCode":1906,"name":"Fasi"},
{"ortId":113,"zipCode":4957,"name":"Buenaventura"},
{"ortId":114,"zipCode":2813,"name":"Dongguang"},
{"ortId":115,"zipCode":3215,"name":"Atlanta"},
{"ortId":116,"zipCode":4334,"name":"Cachoeira do Sul"},
{"ortId":117,"zipCode":1948,"name":"Swinford"},
{"ortId":118,"zipCode":1644,"name":"Cherëmushki"},
{"ortId":119,"zipCode":4567,"name":"Corralillo"},
{"ortId":120,"zipCode":8907,"name":"Donglu"},
{"ortId":121,"zipCode":9398,"name":"Xiamujiao"},
{"ortId":122,"zipCode":2691,"name":"Chlói"},
{"ortId":123,"zipCode":4078,"name":"Langob"},
{"ortId":124,"zipCode":5004,"name":"Xiantang"},
{"ortId":125,"zipCode":6004,"name":"Midrand"},
{"ortId":126,"zipCode":6090,"name":"Cipanas"},
{"ortId":127,"zipCode":8681,"name":"Powassan"},
{"ortId":128,"zipCode":4597,"name":"Licupis"},
{"ortId":129,"zipCode":1122,"name":"Krasnystaw"},
{"ortId":130,"zipCode":9202,"name":"Nova Viçosa"},
{"ortId":131,"zipCode":9405,"name":"Sotomayor"},
{"ortId":132,"zipCode":3282,"name":"Atlasovo"},
{"ortId":133,"zipCode":7649,"name":"Batou"},
{"ortId":134,"zipCode":1559,"name":"Krasnapollye"},
{"ortId":135,"zipCode":9080,"name":"Apongo"},
{"ortId":136,"zipCode":2074,"name":"Marinilla"},
{"ortId":137,"zipCode":7738,"name":"Cangshan"},
{"ortId":138,"zipCode":1529,"name":"Toledo"},
{"ortId":139,"zipCode":3128,"name":"Kosino"},
{"ortId":140,"zipCode":1647,"name":"Nanxi"},
{"ortId":141,"zipCode":4805,"name":"Mādārīpur"},
{"ortId":142,"zipCode":1122,"name":"Pichilemu"},
{"ortId":143,"zipCode":3822,"name":"Yokotemachi"},
{"ortId":144,"zipCode":1011,"name":"Ohafia-Ifigh"},
{"ortId":145,"zipCode":3955,"name":"Ḩuraytān"},
{"ortId":146,"zipCode":2589,"name":"Bromma"},
{"ortId":147,"zipCode":4019,"name":"San Angelo"},
{"ortId":148,"zipCode":5759,"name":"Yuncheng"},
{"ortId":149,"zipCode":6317,"name":"Ziyang"},
{"ortId":150,"zipCode":6517,"name":"Tuopu"},
{"ortId":151,"zipCode":6592,"name":"Baranoa"},
{"ortId":152,"zipCode":5223,"name":"Embu"},
{"ortId":153,"zipCode":5822,"name":"Youxi Chengguanzhen"},
{"ortId":154,"zipCode":7915,"name":"Vimmerby"},
{"ortId":155,"zipCode":9528,"name":"Ainaro"},
{"ortId":156,"zipCode":3274,"name":"Agidel’"},
{"ortId":157,"zipCode":9638,"name":"Bafatá"},
{"ortId":158,"zipCode":6394,"name":"Losari"},
{"ortId":159,"zipCode":9268,"name":"San Fernando"},
{"ortId":160,"zipCode":2207,"name":"Asquipata"},
{"ortId":161,"zipCode":8585,"name":"San Rafael"},
{"ortId":162,"zipCode":1301,"name":"Washington"},
{"ortId":163,"zipCode":6811,"name":"Yasothon"},
{"ortId":164,"zipCode":5560,"name":"Sułoszowa"},
{"ortId":165,"zipCode":7744,"name":"Oslo"},
{"ortId":166,"zipCode":3209,"name":"San Cristóbal Totonicapán"},
{"ortId":167,"zipCode":2768,"name":"Huilongshan"},
{"ortId":168,"zipCode":4167,"name":"Fengdian"},
{"ortId":169,"zipCode":2083,"name":"San Luis"},
{"ortId":170,"zipCode":9988,"name":"Pengfang"},
{"ortId":171,"zipCode":8688,"name":"Acao"},
{"ortId":172,"zipCode":8426,"name":"Bragança"},
{"ortId":173,"zipCode":6510,"name":"Kafr Kannā"},
{"ortId":174,"zipCode":8569,"name":"Storvik"},
{"ortId":175,"zipCode":8058,"name":"Talzemt"},
{"ortId":176,"zipCode":6457,"name":"Lashio"},
{"ortId":177,"zipCode":4794,"name":"Turku"},
{"ortId":178,"zipCode":3455,"name":"Fanyang"},
{"ortId":179,"zipCode":6125,"name":"Yangqiao"},
{"ortId":180,"zipCode":5698,"name":"Gramoteino"},
{"ortId":181,"zipCode":4920,"name":"Hrastnik"},
{"ortId":182,"zipCode":8779,"name":"Leeds"},
{"ortId":183,"zipCode":8190,"name":"Llocllapampa"},
{"ortId":184,"zipCode":6496,"name":"Drnje"},
{"ortId":185,"zipCode":4683,"name":"La Quebrada"},
{"ortId":186,"zipCode":7345,"name":"Hongqiao"},
{"ortId":187,"zipCode":2613,"name":"Ljusdal"},
{"ortId":188,"zipCode":6988,"name":"São Miguel do Iguaçu"},
{"ortId":189,"zipCode":7950,"name":"‘Afak"},
{"ortId":190,"zipCode":7032,"name":"Rennebu"},
{"ortId":191,"zipCode":8691,"name":"Beilun"},
{"ortId":192,"zipCode":8961,"name":"Upton"},
{"ortId":193,"zipCode":1333,"name":"Montalvão"},
{"ortId":194,"zipCode":6036,"name":"Jurm"},
{"ortId":195,"zipCode":5371,"name":"Hannover"},
{"ortId":196,"zipCode":1888,"name":"Terra Chã"},
{"ortId":197,"zipCode":8841,"name":"Tonglin"},
{"ortId":198,"zipCode":8640,"name":"Tawangsari"},
{"ortId":199,"zipCode":5156,"name":"Chahe"},
{"ortId":200,"zipCode":1641,"name":"Ketampak"},
{"ortId":201,"zipCode":1758,"name":"Leeuwarden"},
{"ortId":202,"zipCode":8879,"name":"Mulanay"},
{"ortId":203,"zipCode":1622,"name":"Ostroróg"},
{"ortId":204,"zipCode":4026,"name":"Al Ghāriyah"},
{"ortId":205,"zipCode":1408,"name":"Tabwakea Village"},
{"ortId":206,"zipCode":8263,"name":"Sovetsk"},
{"ortId":207,"zipCode":1241,"name":"Sakassou"},
{"ortId":208,"zipCode":1293,"name":"Sukakarya"},
{"ortId":209,"zipCode":8623,"name":"Duancun"},
{"ortId":210,"zipCode":2987,"name":"Genova"},
{"ortId":211,"zipCode":5614,"name":"Cornwall"},
{"ortId":212,"zipCode":8637,"name":"Kouvola"},
{"ortId":213,"zipCode":3508,"name":"Caen"},
{"ortId":214,"zipCode":8998,"name":"Cajati"},
{"ortId":215,"zipCode":9633,"name":"Koumac"},
{"ortId":216,"zipCode":4583,"name":"Kugri"},
{"ortId":217,"zipCode":5693,"name":"Sukasenang"},
{"ortId":218,"zipCode":6239,"name":"Semënovskoye"},
{"ortId":219,"zipCode":6876,"name":"Habana del Este"},
{"ortId":220,"zipCode":4424,"name":"Pananaw"},
{"ortId":221,"zipCode":4883,"name":"Podporozh’ye"},
{"ortId":222,"zipCode":3145,"name":"Mniszków"},
{"ortId":223,"zipCode":8111,"name":"Benito Juarez"},
{"ortId":224,"zipCode":2974,"name":"Sonlit"},
{"ortId":225,"zipCode":9150,"name":"Fécamp"},
{"ortId":226,"zipCode":7163,"name":"Limonade"},
{"ortId":227,"zipCode":1305,"name":"Pokrovskoye-Streshnëvo"},
{"ortId":228,"zipCode":3379,"name":"Ciomas"},
{"ortId":229,"zipCode":1981,"name":"Baltimore"},
{"ortId":230,"zipCode":6589,"name":"Ljukovo"},
{"ortId":231,"zipCode":8613,"name":"Umeå"},
{"ortId":232,"zipCode":1507,"name":"Oskarshamn"},
{"ortId":233,"zipCode":1162,"name":"Voloka"},
{"ortId":234,"zipCode":4408,"name":"Tondano"},
{"ortId":235,"zipCode":1610,"name":"Cap Malheureux"},
{"ortId":236,"zipCode":1912,"name":"Lillooet"},
{"ortId":237,"zipCode":7900,"name":"Dampit"},
{"ortId":238,"zipCode":4868,"name":"Kiamba"},
{"ortId":239,"zipCode":5235,"name":"Obršani"},
{"ortId":240,"zipCode":8388,"name":"Magallanes"},
{"ortId":241,"zipCode":3286,"name":"Ribeira Quente"},
{"ortId":242,"zipCode":8898,"name":"Gurung"},
{"ortId":243,"zipCode":1429,"name":"Rivne"},
{"ortId":244,"zipCode":8709,"name":"Madrid"},
{"ortId":245,"zipCode":6750,"name":"Bayt Maqdūm"},
{"ortId":246,"zipCode":3377,"name":"Bribir"},
{"ortId":247,"zipCode":1044,"name":"Shigu"},
{"ortId":248,"zipCode":4352,"name":"Dibulla"},
{"ortId":249,"zipCode":1361,"name":"Yuantan"},
{"ortId":250,"zipCode":6347,"name":"Dapeng"},
{"ortId":251,"zipCode":4086,"name":"Tuapse"},
{"ortId":252,"zipCode":8491,"name":"Contramaestre"},
{"ortId":253,"zipCode":2939,"name":"Fengcheng"},
{"ortId":254,"zipCode":3282,"name":"Laojunmiao"},
{"ortId":255,"zipCode":8593,"name":"Güiria"},
{"ortId":256,"zipCode":1299,"name":"Taoyuan"},
{"ortId":257,"zipCode":7805,"name":"Tete"},
{"ortId":258,"zipCode":5944,"name":"Lagos"},
{"ortId":259,"zipCode":4447,"name":"Ichnya"},
{"ortId":260,"zipCode":5013,"name":"Shuangfeng"},
{"ortId":261,"zipCode":4581,"name":"San Andrés Xecul"},
{"ortId":262,"zipCode":9947,"name":"El Tambo"},
{"ortId":263,"zipCode":4134,"name":"Bloemhof"},
{"ortId":264,"zipCode":8954,"name":"Tegalwero"},
{"ortId":265,"zipCode":5121,"name":"Chisht-e Sharīf"},
{"ortId":266,"zipCode":4596,"name":"Guanagazapa"},
{"ortId":267,"zipCode":1556,"name":"Mó"},
{"ortId":268,"zipCode":7190,"name":"Changtan"},
{"ortId":269,"zipCode":7552,"name":"Rodez"},
{"ortId":270,"zipCode":9016,"name":"Bello"},
{"ortId":271,"zipCode":5010,"name":"Ngawen"},
{"ortId":272,"zipCode":3445,"name":"Boavista"},
{"ortId":273,"zipCode":4941,"name":"Sunchales"},
{"ortId":274,"zipCode":3318,"name":"Algés"},
{"ortId":275,"zipCode":3144,"name":"Chư Ty"},
{"ortId":276,"zipCode":3201,"name":"Pejë"},
{"ortId":277,"zipCode":5312,"name":"Tacna"},
{"ortId":278,"zipCode":8769,"name":"Malaruhatan"},
{"ortId":279,"zipCode":7200,"name":"Kuala Lumpur"},
{"ortId":280,"zipCode":1959,"name":"Lille"},
{"ortId":281,"zipCode":5708,"name":"Victoria"},
{"ortId":282,"zipCode":7733,"name":"Xiache"},
{"ortId":283,"zipCode":8498,"name":"Pereira"},
{"ortId":284,"zipCode":7162,"name":"Koroyo"},
{"ortId":285,"zipCode":2476,"name":"Pnikut"},
{"ortId":286,"zipCode":9780,"name":"Wamba"},
{"ortId":287,"zipCode":5976,"name":"Hou’an"},
{"ortId":288,"zipCode":3519,"name":"Castanheira de Pêra"},
{"ortId":289,"zipCode":8307,"name":"Fengli"},
{"ortId":290,"zipCode":8763,"name":"Banatski Dvor"},
{"ortId":291,"zipCode":9586,"name":"Jiekeng"},
{"ortId":292,"zipCode":4875,"name":"Lianglin"},
{"ortId":293,"zipCode":9919,"name":"Chegang"},
{"ortId":294,"zipCode":9906,"name":"Beiqiao"},
{"ortId":295,"zipCode":7941,"name":"Dongxin"},
{"ortId":296,"zipCode":4592,"name":"Gombong"},
{"ortId":297,"zipCode":6941,"name":"Bartolomé Masó"},
{"ortId":298,"zipCode":9610,"name":"Dolní Bojanovice"},
{"ortId":299,"zipCode":2310,"name":"Tambopata"},
{"ortId":300,"zipCode":1707,"name":"Itagüí"},
{"ortId":301,"zipCode":9872,"name":"Plandi"},
{"ortId":302,"zipCode":2684,"name":"Rawa Satu"},
{"ortId":303,"zipCode":3054,"name":"Stoczek Łukowski"},
{"ortId":304,"zipCode":6273,"name":"Mengzhai"},
{"ortId":305,"zipCode":8883,"name":"Javalera"},
{"ortId":306,"zipCode":6353,"name":"Gaojiazhuang"},
{"ortId":307,"zipCode":9915,"name":"Ujung"},
{"ortId":308,"zipCode":1216,"name":"High Prairie"},
{"ortId":309,"zipCode":9101,"name":"Songjiang"},
{"ortId":310,"zipCode":8090,"name":"Rybczewice"},
{"ortId":311,"zipCode":2618,"name":"Siquanpu"},
{"ortId":312,"zipCode":4383,"name":"Cendagah"},
{"ortId":313,"zipCode":5413,"name":"Viljakkala"},
{"ortId":314,"zipCode":9293,"name":"Cangyou"},
{"ortId":315,"zipCode":3066,"name":"Medvedok"},
{"ortId":316,"zipCode":5965,"name":"Biljača"},
{"ortId":317,"zipCode":2133,"name":"Raffingora"},
{"ortId":318,"zipCode":3874,"name":"Hallstavik"},
{"ortId":319,"zipCode":2737,"name":"Qaxbaş"},
{"ortId":320,"zipCode":2592,"name":"Sindangkerta"},
{"ortId":321,"zipCode":6471,"name":"Morangis"},
{"ortId":322,"zipCode":9674,"name":"Campo Largo"},
{"ortId":323,"zipCode":1045,"name":"Bąków"},
{"ortId":324,"zipCode":9814,"name":"Sumberagung"},
{"ortId":325,"zipCode":8532,"name":"Mesa"},
{"ortId":326,"zipCode":4002,"name":"Pagangan"},
{"ortId":327,"zipCode":7549,"name":"Lewo"},
{"ortId":328,"zipCode":6152,"name":"Mentoro Wetan"},
{"ortId":329,"zipCode":3861,"name":"Voznesenskoye"},
{"ortId":330,"zipCode":1071,"name":"Yitang"},
{"ortId":331,"zipCode":1984,"name":"Araçatuba"},
{"ortId":332,"zipCode":9644,"name":"Beaumont"},
{"ortId":333,"zipCode":6910,"name":"Ketang"},
{"ortId":334,"zipCode":2722,"name":"Langenburg"},
{"ortId":335,"zipCode":4941,"name":"Phú Túc"},
{"ortId":336,"zipCode":4241,"name":"Oslo"},
{"ortId":337,"zipCode":6678,"name":"Wangcungang"},
{"ortId":338,"zipCode":7076,"name":"Luoping"},
{"ortId":339,"zipCode":2382,"name":"Krasnoye"},
{"ortId":340,"zipCode":6639,"name":"Las Tablas"},
{"ortId":341,"zipCode":9891,"name":"Kochenëvo"},
{"ortId":342,"zipCode":6216,"name":"Qalyūb"},
{"ortId":343,"zipCode":2905,"name":"Lillehammer"},
{"ortId":344,"zipCode":5797,"name":"Yuankeng"},
{"ortId":345,"zipCode":7047,"name":"Bibinje"},
{"ortId":346,"zipCode":3129,"name":"São Pedro de Muel"},
{"ortId":347,"zipCode":6985,"name":"Marseille"},
{"ortId":348,"zipCode":4542,"name":"Hoboksar"},
{"ortId":349,"zipCode":9747,"name":"Beihe"},
{"ortId":350,"zipCode":7959,"name":"San Pedro"},
{"ortId":351,"zipCode":6507,"name":"Muaralembu"},
{"ortId":352,"zipCode":6225,"name":"Itajaí"},
{"ortId":353,"zipCode":3036,"name":"København"},
{"ortId":354,"zipCode":3671,"name":"Volzhskiy"},
{"ortId":355,"zipCode":7605,"name":"Shihudang"},
{"ortId":356,"zipCode":2886,"name":"Lesichevo"},
{"ortId":357,"zipCode":6497,"name":"Makiwalo"},
{"ortId":358,"zipCode":6904,"name":"Osby"},
{"ortId":359,"zipCode":1615,"name":"Hodkovičky"},
{"ortId":360,"zipCode":1881,"name":"Praia das Maçãs"},
{"ortId":361,"zipCode":8051,"name":"Jiaoxiyakou"},
{"ortId":362,"zipCode":3434,"name":"Sagay"},
{"ortId":363,"zipCode":3119,"name":"Catania"},
{"ortId":364,"zipCode":1688,"name":"Santol"},
{"ortId":365,"zipCode":1403,"name":"Sámi"},
{"ortId":366,"zipCode":1076,"name":"Paphos"},
{"ortId":367,"zipCode":3916,"name":"Eystur"},
{"ortId":368,"zipCode":4348,"name":"Marinilla"},
{"ortId":369,"zipCode":3230,"name":"Boa Vista"},
{"ortId":370,"zipCode":3268,"name":"Bagumbayan"},
{"ortId":371,"zipCode":4109,"name":"Sabae"},
{"ortId":372,"zipCode":4119,"name":"Daugavpils"},
{"ortId":373,"zipCode":5394,"name":"Mzimba"},
{"ortId":374,"zipCode":6658,"name":"Tangtuzhui"},
{"ortId":375,"zipCode":5349,"name":"Taverny"},
{"ortId":376,"zipCode":6137,"name":"Krychaw"},
{"ortId":377,"zipCode":8110,"name":"Borino"},
{"ortId":378,"zipCode":3983,"name":"Moses"},
{"ortId":379,"zipCode":1897,"name":"Metlika"},
{"ortId":380,"zipCode":6688,"name":"Lelystad"},
{"ortId":381,"zipCode":4360,"name":"Muladbucad"},
{"ortId":382,"zipCode":1878,"name":"Ignacio Zaragoza"},
{"ortId":383,"zipCode":8411,"name":"Tiaodeng"},
{"ortId":384,"zipCode":4894,"name":"Nong Bua Daeng"},
{"ortId":385,"zipCode":3047,"name":"Huanggong"},
{"ortId":386,"zipCode":6581,"name":"Merritt"},
{"ortId":387,"zipCode":6243,"name":"Karasuyama"},
{"ortId":388,"zipCode":2393,"name":"Bluefields"},
{"ortId":389,"zipCode":6470,"name":"Ballisodare"},
{"ortId":390,"zipCode":9052,"name":"Gaotai"},
{"ortId":391,"zipCode":9707,"name":"Skoczów"},
{"ortId":392,"zipCode":1068,"name":"Plottier"},
{"ortId":393,"zipCode":6098,"name":"Lancai"},
{"ortId":394,"zipCode":5470,"name":"Xintai"},
{"ortId":395,"zipCode":9619,"name":"Yono"},
{"ortId":396,"zipCode":1070,"name":"Jiujie"},
{"ortId":397,"zipCode":3657,"name":"Saint-Tite"},
{"ortId":398,"zipCode":6804,"name":"Chimanimani"},
{"ortId":399,"zipCode":4232,"name":"Donji Dobrić"},
{"ortId":400,"zipCode":1193,"name":"Sardasht"},
{"ortId":401,"zipCode":4309,"name":"Mjölby"},
{"ortId":402,"zipCode":3270,"name":"Gechuan"},
{"ortId":403,"zipCode":7139,"name":"Lau"},
{"ortId":404,"zipCode":1158,"name":"Nueva Guinea"},
{"ortId":405,"zipCode":8478,"name":"Palermo"},
{"ortId":406,"zipCode":7239,"name":"Anding"},
{"ortId":407,"zipCode":5079,"name":"Zonghan"},
{"ortId":408,"zipCode":8884,"name":"Marevo"},
{"ortId":409,"zipCode":3314,"name":"Garibaldi"},
{"ortId":410,"zipCode":8602,"name":"Tangjia"},
{"ortId":411,"zipCode":8138,"name":"Sukarara Utara"},
{"ortId":412,"zipCode":2449,"name":"Mira"},
{"ortId":413,"zipCode":6200,"name":"Haramgai"},
{"ortId":414,"zipCode":5142,"name":"Bakhmach"},
{"ortId":415,"zipCode":7027,"name":"Bagacay"},
{"ortId":416,"zipCode":9903,"name":"Itapetininga"},
{"ortId":417,"zipCode":1827,"name":"Pallasovka"},
{"ortId":418,"zipCode":2779,"name":"Vuokatti"},
{"ortId":419,"zipCode":9376,"name":"Jacareí"},
{"ortId":420,"zipCode":3351,"name":"Oju"},
{"ortId":421,"zipCode":3745,"name":"Chongkan"},
{"ortId":422,"zipCode":2450,"name":"Latacunga"},
{"ortId":423,"zipCode":3927,"name":"Akouda"},
{"ortId":424,"zipCode":1550,"name":"Velikiye Luki"},
{"ortId":425,"zipCode":4056,"name":"San Fernando"},
{"ortId":426,"zipCode":3137,"name":"Saint Paul"},
{"ortId":427,"zipCode":1889,"name":"Kokotów"},
{"ortId":428,"zipCode":7089,"name":"Dagou"},
{"ortId":429,"zipCode":4009,"name":"Lebak"},
{"ortId":430,"zipCode":9568,"name":"Bangjun"},
{"ortId":431,"zipCode":8276,"name":"Solna"},
{"ortId":432,"zipCode":5403,"name":"Il’inskiy Pogost"},
{"ortId":433,"zipCode":9242,"name":"Sungai Raya"},
{"ortId":434,"zipCode":9267,"name":"Bairro Assunção Piedade"},
{"ortId":435,"zipCode":9181,"name":"Pasirlaja"},
{"ortId":436,"zipCode":3458,"name":"Igbeti"},
{"ortId":437,"zipCode":3887,"name":"Jankowice"},
{"ortId":438,"zipCode":7150,"name":"San Andrés"},
{"ortId":439,"zipCode":9229,"name":"Maji"},
{"ortId":440,"zipCode":5321,"name":"Lagoa do Itaenga"},
{"ortId":441,"zipCode":3850,"name":"Gabahan"},
{"ortId":442,"zipCode":1226,"name":"Tadabliro"},
{"ortId":443,"zipCode":8541,"name":"Santa Clara La Laguna"},
{"ortId":444,"zipCode":2892,"name":"Severnyy"},
{"ortId":445,"zipCode":7378,"name":"Kaduseeng"},
{"ortId":446,"zipCode":4946,"name":"Milówka"},
{"ortId":447,"zipCode":3984,"name":"Pefkochóri"},
{"ortId":448,"zipCode":3505,"name":"Bato"},
{"ortId":449,"zipCode":4381,"name":"Stockholm"},
{"ortId":450,"zipCode":8073,"name":"Zborište"},
{"ortId":451,"zipCode":6019,"name":"Rebe"},
{"ortId":452,"zipCode":6116,"name":"Guantouzui"},
{"ortId":453,"zipCode":7845,"name":"Bełchatów"},
{"ortId":454,"zipCode":2353,"name":"San Antonio Aguas Calientes"},
{"ortId":455,"zipCode":8411,"name":"Las Flores"},
{"ortId":456,"zipCode":4106,"name":"Bystřany"},
{"ortId":457,"zipCode":6218,"name":"Weepanapi"},
{"ortId":458,"zipCode":2184,"name":"Summerside"},
{"ortId":459,"zipCode":2418,"name":"Azogues"},
{"ortId":460,"zipCode":3369,"name":"Cibebek"},
{"ortId":461,"zipCode":7265,"name":"Cigadog Hilir"},
{"ortId":462,"zipCode":7580,"name":"Anju"},
{"ortId":463,"zipCode":4260,"name":"Oyam"},
{"ortId":464,"zipCode":1225,"name":"Kultayevo"},
{"ortId":465,"zipCode":1443,"name":"Balading"},
{"ortId":466,"zipCode":3830,"name":"Vidoši"},
{"ortId":467,"zipCode":6073,"name":"Xikou"},
{"ortId":468,"zipCode":2480,"name":"Baracoa"},
{"ortId":469,"zipCode":4772,"name":"Sangumata"},
{"ortId":470,"zipCode":3257,"name":"Debre Werk’"},
{"ortId":471,"zipCode":4332,"name":"Limoeiro"},
{"ortId":472,"zipCode":4896,"name":"Chuanpu"},
{"ortId":473,"zipCode":4727,"name":"Pandean"},
{"ortId":474,"zipCode":1550,"name":"Panggungasri"},
{"ortId":475,"zipCode":8224,"name":"Linjiang"},
{"ortId":476,"zipCode":8415,"name":"San Isidro"},
{"ortId":477,"zipCode":6242,"name":"Dongtou"},
{"ortId":478,"zipCode":1422,"name":"Atlantis"},
{"ortId":479,"zipCode":6662,"name":"Ongkharak"},
{"ortId":480,"zipCode":6792,"name":"Nemby"},
{"ortId":481,"zipCode":9316,"name":"Governor’s Harbour"},
{"ortId":482,"zipCode":9873,"name":"Posedarje"},
{"ortId":483,"zipCode":6281,"name":"Halimpu"},
{"ortId":484,"zipCode":6613,"name":"Athi River"},
{"ortId":485,"zipCode":7504,"name":"Kashihara"},
{"ortId":486,"zipCode":4347,"name":"Skrzyszów"},
{"ortId":487,"zipCode":6506,"name":"Xirikxiy"},
{"ortId":488,"zipCode":5574,"name":"Laem Sing"},
{"ortId":489,"zipCode":5256,"name":"Kamensk-Shakhtinskiy"},
{"ortId":490,"zipCode":8095,"name":"Masparrito"},
{"ortId":491,"zipCode":6742,"name":"Przeworsk"},
{"ortId":492,"zipCode":2569,"name":"Dulyapino"},
{"ortId":493,"zipCode":5612,"name":"Kalasin"},
{"ortId":494,"zipCode":3118,"name":"Örebro"},
{"ortId":495,"zipCode":1706,"name":"Nacimiento"},
{"ortId":496,"zipCode":7253,"name":"Juanshui"},
{"ortId":497,"zipCode":8875,"name":"Damietta"},
{"ortId":498,"zipCode":8072,"name":"Korkino"},
{"ortId":499,"zipCode":2240,"name":"Werbkowice"},
{"ortId":500,"zipCode":6132,"name":"Sufang"},
{"ortId":501,"zipCode":5497,"name":"Thị Trấn Than Uyên"},
{"ortId":502,"zipCode":3244,"name":"Matsubara"},
{"ortId":503,"zipCode":2908,"name":"Stockholm"},
{"ortId":504,"zipCode":1499,"name":"San Roque"},
{"ortId":505,"zipCode":9583,"name":"Bohutín"},
{"ortId":506,"zipCode":8076,"name":"Nanpiao"},
{"ortId":507,"zipCode":2455,"name":"Yasothon"},
{"ortId":508,"zipCode":4392,"name":"Barra Mansa"},
{"ortId":509,"zipCode":1368,"name":"Gongchang Zhen"},
{"ortId":510,"zipCode":5175,"name":"Beichengqu"},
{"ortId":511,"zipCode":6076,"name":"Jiancha"},
{"ortId":512,"zipCode":4386,"name":"Sovetsk"},
{"ortId":513,"zipCode":1291,"name":"Kuala Lumpur"},
{"ortId":514,"zipCode":5463,"name":"Biryulëvo Zapadnoye"},
{"ortId":515,"zipCode":8444,"name":"Bhamo"},
{"ortId":516,"zipCode":4049,"name":"Andrushivka"},
{"ortId":517,"zipCode":2408,"name":"Boksitogorsk"},
{"ortId":518,"zipCode":1088,"name":"Ntoroko"},
{"ortId":519,"zipCode":8665,"name":"Thomastown"},
{"ortId":520,"zipCode":1411,"name":"Ganggawang"},
{"ortId":521,"zipCode":2278,"name":"Bontoc"},
{"ortId":522,"zipCode":4311,"name":"Borås"},
{"ortId":523,"zipCode":9178,"name":"Kelburn"},
{"ortId":524,"zipCode":1931,"name":"Koungou"},
{"ortId":525,"zipCode":8790,"name":"Betong"},
{"ortId":526,"zipCode":9228,"name":"Pregrada"},
{"ortId":527,"zipCode":5070,"name":"Fianarantsoa"},
{"ortId":528,"zipCode":1563,"name":"Hŭngju-dong"},
{"ortId":529,"zipCode":1682,"name":"Guxi"},
{"ortId":530,"zipCode":7643,"name":"Mwinilunga"},
{"ortId":531,"zipCode":3208,"name":"Oni"},
{"ortId":532,"zipCode":4294,"name":"Ordem"},
{"ortId":533,"zipCode":7412,"name":"Tielu"},
{"ortId":534,"zipCode":5669,"name":"Mosteirô"},
{"ortId":535,"zipCode":2958,"name":"Mayahi"},
{"ortId":536,"zipCode":2686,"name":"Quxia"},
{"ortId":537,"zipCode":1496,"name":"Hehe"},
{"ortId":538,"zipCode":4819,"name":"Bayan"},
{"ortId":539,"zipCode":3702,"name":"Vista Alegre"},
{"ortId":540,"zipCode":2531,"name":"Linhó"},
{"ortId":541,"zipCode":5960,"name":"Jingmen"},
{"ortId":542,"zipCode":3508,"name":"Yangliu"},
{"ortId":543,"zipCode":5588,"name":"Tucupita"},
{"ortId":544,"zipCode":6386,"name":"Ardee"},
{"ortId":545,"zipCode":8145,"name":"Dartang"},
{"ortId":546,"zipCode":6993,"name":"Azara"},
{"ortId":547,"zipCode":7928,"name":"Alingsås"},
{"ortId":548,"zipCode":6546,"name":"Fushan"},
{"ortId":549,"zipCode":7703,"name":"Weiguo"},
{"ortId":550,"zipCode":6115,"name":"Sendafa"},
{"ortId":551,"zipCode":8595,"name":"Ntungamo"},
{"ortId":552,"zipCode":7804,"name":"Yangjingziwan"},
{"ortId":553,"zipCode":1537,"name":"Zaliznychne"},
{"ortId":554,"zipCode":4931,"name":"Nipawin"},
{"ortId":555,"zipCode":6491,"name":"Jinhu"},
{"ortId":556,"zipCode":9773,"name":"Santa Cecília"},
{"ortId":557,"zipCode":2913,"name":"Lons-le-Saunier"},
{"ortId":558,"zipCode":4103,"name":"Sijiu"},
{"ortId":559,"zipCode":5407,"name":"Longkou"},
{"ortId":560,"zipCode":1454,"name":"Bhawāna"},
{"ortId":561,"zipCode":2645,"name":"Curumaní"},
{"ortId":562,"zipCode":6041,"name":"Natu"},
{"ortId":563,"zipCode":8597,"name":"Apaga"},
{"ortId":564,"zipCode":8496,"name":"Rotterdam postbusnummers"},
{"ortId":565,"zipCode":1605,"name":"Pedra Azul"},
{"ortId":566,"zipCode":9839,"name":"Tuba"},
{"ortId":567,"zipCode":9866,"name":"Rawson"},
{"ortId":568,"zipCode":7805,"name":"Kvartsitnyy"},
{"ortId":569,"zipCode":4086,"name":"Karis"},
{"ortId":570,"zipCode":1086,"name":"Magallanes"},
{"ortId":571,"zipCode":9335,"name":"Sidi Bousber"},
{"ortId":572,"zipCode":7458,"name":"Krupanj"},
{"ortId":573,"zipCode":7503,"name":"Funga"},
{"ortId":574,"zipCode":3481,"name":"Shuibian"},
{"ortId":575,"zipCode":6294,"name":"Arroyo Naranjo"},
{"ortId":576,"zipCode":1379,"name":"Brest"},
{"ortId":577,"zipCode":9717,"name":"Limón"},
{"ortId":578,"zipCode":6047,"name":"Sanxixiang"},
{"ortId":579,"zipCode":5083,"name":"Jämsänkoski"},
{"ortId":580,"zipCode":4909,"name":"Hulín"},
{"ortId":581,"zipCode":9450,"name":"Göteborg"},
{"ortId":582,"zipCode":6767,"name":"Anchorage"},
{"ortId":583,"zipCode":8165,"name":"São Francisco do Conde"},
{"ortId":584,"zipCode":5176,"name":"Chandal Bā’ī"},
{"ortId":585,"zipCode":3604,"name":"Nueva Guinea"},
{"ortId":586,"zipCode":2682,"name":"Ronneby"},
{"ortId":587,"zipCode":6728,"name":"Jatisari"},
{"ortId":588,"zipCode":5906,"name":"Ferbane"},
{"ortId":589,"zipCode":8201,"name":"Viga"},
{"ortId":590,"zipCode":1689,"name":"Villejuif"},
{"ortId":591,"zipCode":3725,"name":"Oroin Xibe"},
{"ortId":592,"zipCode":5169,"name":"Buta Ranquil"},
{"ortId":593,"zipCode":8582,"name":"Jinhui"},
{"ortId":594,"zipCode":4364,"name":"Llaillay"},
{"ortId":595,"zipCode":9019,"name":"Sukth"},
{"ortId":596,"zipCode":7093,"name":"København"},
{"ortId":597,"zipCode":9355,"name":"Tyrnyauz"},
{"ortId":598,"zipCode":5066,"name":"Nangka"},
{"ortId":599,"zipCode":6154,"name":"Belung Satu"},
{"ortId":600,"zipCode":9489,"name":"Springfield"},
{"ortId":601,"zipCode":9368,"name":"Lubao"},
{"ortId":602,"zipCode":6029,"name":"Zhizhong"},
{"ortId":603,"zipCode":8870,"name":"Zhapu"},
{"ortId":604,"zipCode":2705,"name":"Karangbenda"},
{"ortId":605,"zipCode":3792,"name":"Wangying"},
{"ortId":606,"zipCode":9107,"name":"Cisompet"},
{"ortId":607,"zipCode":6726,"name":"Malakwal City"},
{"ortId":608,"zipCode":3699,"name":"Quxia"},
{"ortId":609,"zipCode":9968,"name":"Boulogne-Billancourt"},
{"ortId":610,"zipCode":8428,"name":"Ciechocin"},
{"ortId":611,"zipCode":5661,"name":"General Arenales"},
{"ortId":612,"zipCode":2296,"name":"Sonsón"},
{"ortId":613,"zipCode":8908,"name":"Tyshkivka"},
{"ortId":614,"zipCode":9373,"name":"Panique"},
{"ortId":615,"zipCode":2443,"name":"Gharavŭtí"},
{"ortId":616,"zipCode":9544,"name":"Haokou"},
{"ortId":617,"zipCode":1627,"name":"Uchaly"},
{"ortId":618,"zipCode":2222,"name":"Oksa"},
{"ortId":619,"zipCode":5116,"name":"Youwei"},
{"ortId":620,"zipCode":9196,"name":"Gò Dầu"},
{"ortId":621,"zipCode":3242,"name":"Azurva"},
{"ortId":622,"zipCode":5516,"name":"Kadudampit"},
{"ortId":623,"zipCode":4244,"name":"Kungsör"},
{"ortId":624,"zipCode":1171,"name":"Kamen"},
{"ortId":625,"zipCode":3174,"name":"Semarang"},
{"ortId":626,"zipCode":7250,"name":"Gorbatovka"},
{"ortId":627,"zipCode":3163,"name":"Phayuha Khiri"},
{"ortId":628,"zipCode":8581,"name":"Paris 07"},
{"ortId":629,"zipCode":1590,"name":"Pechenizhyn"},
{"ortId":630,"zipCode":4048,"name":"Melaka"},
{"ortId":631,"zipCode":3643,"name":"Maghār"},
{"ortId":632,"zipCode":5090,"name":"Ar Rubū‘"},
{"ortId":633,"zipCode":5875,"name":"Babat"},
{"ortId":634,"zipCode":1596,"name":"Izbicko"},
{"ortId":635,"zipCode":9720,"name":"Pedregulho"},
{"ortId":636,"zipCode":1538,"name":"San Nicolás"},
{"ortId":637,"zipCode":7111,"name":"Banyubang"},
{"ortId":638,"zipCode":1437,"name":"Lipin Bor"},
{"ortId":639,"zipCode":9116,"name":"Grodków"},
{"ortId":640,"zipCode":3993,"name":"Divnoye"},
{"ortId":641,"zipCode":3697,"name":"Elista"},
{"ortId":642,"zipCode":1240,"name":"Amangarh"},
{"ortId":643,"zipCode":7705,"name":"Tullyallen"},
{"ortId":644,"zipCode":7553,"name":"Xuhang"},
{"ortId":645,"zipCode":3561,"name":"Tosu"},
{"ortId":646,"zipCode":4468,"name":"Dapdap"},
{"ortId":647,"zipCode":1405,"name":"Tres Isletas"},
{"ortId":648,"zipCode":2603,"name":"Newcastle"},
{"ortId":649,"zipCode":1397,"name":"Gelsenkirchen"},
{"ortId":650,"zipCode":3211,"name":"Yangping"},
{"ortId":651,"zipCode":1946,"name":"Bastan"},
{"ortId":652,"zipCode":1972,"name":"Vinha"},
{"ortId":653,"zipCode":8127,"name":"Taipingchuan"},
{"ortId":654,"zipCode":2675,"name":"Chorkówka"},
{"ortId":655,"zipCode":1944,"name":"Cali"},
{"ortId":656,"zipCode":1363,"name":"Borūjen"},
{"ortId":657,"zipCode":3016,"name":"Motala"},
{"ortId":658,"zipCode":7982,"name":"Hortolândia"},
{"ortId":659,"zipCode":4363,"name":"Ararat"},
{"ortId":660,"zipCode":8614,"name":"Italó"},
{"ortId":661,"zipCode":1716,"name":"Strömsund"},
{"ortId":662,"zipCode":4774,"name":"Sakurai"},
{"ortId":663,"zipCode":7082,"name":"Maño"},
{"ortId":664,"zipCode":2713,"name":"Batibati"},
{"ortId":665,"zipCode":9794,"name":"Madara"},
{"ortId":666,"zipCode":9182,"name":"Vetlanda"},
{"ortId":667,"zipCode":3172,"name":"Lingbei"},
{"ortId":668,"zipCode":2316,"name":"Putrajaya"},
{"ortId":669,"zipCode":6254,"name":"Novobeysugskaya"},
{"ortId":670,"zipCode":5431,"name":"Serikbuya"},
{"ortId":671,"zipCode":8457,"name":"Voyinka"},
{"ortId":672,"zipCode":2379,"name":"Kirawsk"},
{"ortId":673,"zipCode":3153,"name":"Belyy Yar"},
{"ortId":674,"zipCode":5987,"name":"Yanmen"},
{"ortId":675,"zipCode":7573,"name":"Lapa"},
{"ortId":676,"zipCode":7040,"name":"Heerlen"},
{"ortId":677,"zipCode":2388,"name":"Ciego de Ávila"},
{"ortId":678,"zipCode":6361,"name":"Pangantocan"},
{"ortId":679,"zipCode":8710,"name":"Gubeikou"},
{"ortId":680,"zipCode":4887,"name":"Sidomulyo"},
{"ortId":681,"zipCode":9898,"name":"São Brás de Alportel"},
{"ortId":682,"zipCode":9777,"name":"Karlivka"},
{"ortId":683,"zipCode":8562,"name":"Sanrao"},
{"ortId":684,"zipCode":5923,"name":"Ternate"},
{"ortId":685,"zipCode":5486,"name":"Cocachacra"},
{"ortId":686,"zipCode":2954,"name":"Lubochnia"},
{"ortId":687,"zipCode":3734,"name":"Shihui"},
{"ortId":688,"zipCode":6626,"name":"Pingdu"},
{"ortId":689,"zipCode":3873,"name":"Engure"},
{"ortId":690,"zipCode":4082,"name":"Velingrad"},
{"ortId":691,"zipCode":5753,"name":"Norberg"},
{"ortId":692,"zipCode":4947,"name":"Jocotán"},
{"ortId":693,"zipCode":8218,"name":"Morioka-shi"},
{"ortId":694,"zipCode":6371,"name":"Saint-Augustin"},
{"ortId":695,"zipCode":5497,"name":"Olavarría"},
{"ortId":696,"zipCode":8663,"name":"Babice"},
{"ortId":697,"zipCode":9899,"name":"Vitoria-Gasteiz"},
{"ortId":698,"zipCode":5496,"name":"Wilfrido Loor Moreira"},
{"ortId":699,"zipCode":3615,"name":"Chexi"},
{"ortId":700,"zipCode":8594,"name":"Mandera"},
{"ortId":701,"zipCode":7744,"name":"Rio Branco do Sul"},
{"ortId":702,"zipCode":9148,"name":"Talangnan"},
{"ortId":703,"zipCode":6596,"name":"Qiandong"},
{"ortId":704,"zipCode":1288,"name":"Dzwola"},
{"ortId":705,"zipCode":6650,"name":"Bastia"},
{"ortId":706,"zipCode":2930,"name":"Xishan"},
{"ortId":707,"zipCode":9067,"name":"Dearborn"},
{"ortId":708,"zipCode":9598,"name":"Strogino"},
{"ortId":709,"zipCode":3045,"name":"Vancouver"},
{"ortId":710,"zipCode":2751,"name":"Yeliguan"},
{"ortId":711,"zipCode":6650,"name":"Togu"},
{"ortId":712,"zipCode":1738,"name":"Colonia Elía"},
{"ortId":713,"zipCode":7595,"name":"Tallahassee"},
{"ortId":714,"zipCode":4204,"name":"Potęgowo"},
{"ortId":715,"zipCode":2268,"name":"Muang Sing"},
{"ortId":716,"zipCode":1256,"name":"Tangchi"},
{"ortId":717,"zipCode":6653,"name":"Yangkang"},
{"ortId":718,"zipCode":6953,"name":"General Enrique Godoy"},
{"ortId":719,"zipCode":1457,"name":"Petrovskaya"},
{"ortId":720,"zipCode":8791,"name":"Bangeran"},
{"ortId":721,"zipCode":8364,"name":"Conel"},
{"ortId":722,"zipCode":3962,"name":"Olopa"},
{"ortId":723,"zipCode":1380,"name":"Mar’ina Roshcha"},
{"ortId":724,"zipCode":6354,"name":"Kuaidamao"},
{"ortId":725,"zipCode":6160,"name":"Praingkareha"},
{"ortId":726,"zipCode":9244,"name":"Headlands"},
{"ortId":727,"zipCode":3455,"name":"Rios Frios"},
{"ortId":728,"zipCode":7558,"name":"Nanshe"},
{"ortId":729,"zipCode":9386,"name":"Pagsanahan Norte"},
{"ortId":730,"zipCode":6919,"name":"Liwonde"},
{"ortId":731,"zipCode":6564,"name":"Andalucía"},
{"ortId":732,"zipCode":1666,"name":"Manfalūţ"},
{"ortId":733,"zipCode":9078,"name":"Krasnomayskiy"},
{"ortId":734,"zipCode":6433,"name":"Yonglong"},
{"ortId":735,"zipCode":8377,"name":"Nice"},
{"ortId":736,"zipCode":2986,"name":"Khān Neshīn"},
{"ortId":737,"zipCode":3378,"name":"Villa Consuelo"},
{"ortId":738,"zipCode":2089,"name":"Nalsian Norte"},
{"ortId":739,"zipCode":8360,"name":"Xinshichang"},
{"ortId":740,"zipCode":4830,"name":"Niechanowo"},
{"ortId":741,"zipCode":1584,"name":"Zhaigang"},
{"ortId":742,"zipCode":8529,"name":"Yunga"},
{"ortId":743,"zipCode":9091,"name":"Haradzyeya"},
{"ortId":744,"zipCode":4479,"name":"Osasco"},
{"ortId":745,"zipCode":4164,"name":"Hegarmanah"},
{"ortId":746,"zipCode":5510,"name":"Kaznějov"},
{"ortId":747,"zipCode":7201,"name":"Jinpanling"},
{"ortId":748,"zipCode":5125,"name":"Wŏnsan"},
{"ortId":749,"zipCode":1429,"name":"Longhua"},
{"ortId":750,"zipCode":1102,"name":"Eskifjörður"},
{"ortId":751,"zipCode":9069,"name":"Datartua"},
{"ortId":752,"zipCode":5231,"name":"Tuti"},
{"ortId":753,"zipCode":1524,"name":"Ituverava"},
{"ortId":754,"zipCode":3670,"name":"Changmaoling"},
{"ortId":755,"zipCode":7534,"name":"Haridimun"},
{"ortId":756,"zipCode":8044,"name":"Aricagua"},
{"ortId":757,"zipCode":4400,"name":"Bongbong"},
{"ortId":758,"zipCode":9735,"name":"Tekstil’shchiki"},
{"ortId":759,"zipCode":2758,"name":"Belčišta"},
{"ortId":760,"zipCode":9943,"name":"Tamiso"},
{"ortId":761,"zipCode":7281,"name":"Hexi"},
{"ortId":762,"zipCode":1793,"name":"Esmeraldas"},
{"ortId":763,"zipCode":6086,"name":"São Paio Merelim"},
{"ortId":764,"zipCode":6411,"name":"Ivanovskoye"},
{"ortId":765,"zipCode":3809,"name":"San Isidro"},
{"ortId":766,"zipCode":6027,"name":"Barroso"},
{"ortId":767,"zipCode":1383,"name":"Dongdu"},
{"ortId":768,"zipCode":5164,"name":"Nzega"},
{"ortId":769,"zipCode":8338,"name":"Meiqi"},
{"ortId":770,"zipCode":8765,"name":"Aso"},
{"ortId":771,"zipCode":2848,"name":"Longxing"},
{"ortId":772,"zipCode":5804,"name":"Krutaya Gorka"},
{"ortId":773,"zipCode":2608,"name":"Tipitapa"},
{"ortId":774,"zipCode":4133,"name":"Gò Dầu"},
{"ortId":775,"zipCode":6056,"name":"Mino"},
{"ortId":776,"zipCode":2744,"name":"Bergen"},
{"ortId":777,"zipCode":5992,"name":"Dengzhou"},
{"ortId":778,"zipCode":1716,"name":"Stockholm"},
{"ortId":779,"zipCode":7039,"name":"Xiaochi"},
{"ortId":780,"zipCode":5911,"name":"Kloangpopot"},
{"ortId":781,"zipCode":5737,"name":"Pingyang"},
{"ortId":782,"zipCode":6989,"name":"Fatualam"},
{"ortId":783,"zipCode":2609,"name":"Campechuela"},
{"ortId":784,"zipCode":2094,"name":"Medenine"},
{"ortId":785,"zipCode":5298,"name":"Watergrasshill"},
{"ortId":786,"zipCode":2479,"name":"Štítná nad Vláří"},
{"ortId":787,"zipCode":4355,"name":"El Refugio"},
{"ortId":788,"zipCode":5197,"name":"Cotton Ground"},
{"ortId":789,"zipCode":2542,"name":"Seren"},
{"ortId":790,"zipCode":7333,"name":"Czechowice-Dziedzice"},
{"ortId":791,"zipCode":8162,"name":"Flora"},
{"ortId":792,"zipCode":9963,"name":"South Bend"},
{"ortId":793,"zipCode":5611,"name":"Pyay"},
{"ortId":794,"zipCode":8329,"name":"La Libertad"},
{"ortId":795,"zipCode":2858,"name":"Zhishan"},
{"ortId":796,"zipCode":2432,"name":"Natividade"},
{"ortId":797,"zipCode":3562,"name":"Mo I Rana"},
{"ortId":798,"zipCode":2352,"name":"Qesarya"},
{"ortId":799,"zipCode":5878,"name":"Siewierz"},
{"ortId":800,"zipCode":9427,"name":"Castelo"},
{"ortId":801,"zipCode":7403,"name":"Tánh Linh"},
{"ortId":802,"zipCode":7035,"name":"Apurawan"},
{"ortId":803,"zipCode":9273,"name":"Soraya"},
{"ortId":804,"zipCode":4340,"name":"Severo-Zadonsk"},
{"ortId":805,"zipCode":2275,"name":"Desa Werasari"},
{"ortId":806,"zipCode":5577,"name":"Cidikit Girang"},
{"ortId":807,"zipCode":3015,"name":"Jingtan"},
{"ortId":808,"zipCode":3582,"name":"Duanjia"},
{"ortId":809,"zipCode":5266,"name":"Soe"},
{"ortId":810,"zipCode":4864,"name":"Zhangbang"},
{"ortId":811,"zipCode":4801,"name":"Al Matlīn"},
{"ortId":812,"zipCode":4904,"name":"Liliongan"},
{"ortId":813,"zipCode":6837,"name":"Kéfalos"},
{"ortId":814,"zipCode":8863,"name":"Dacheng"},
{"ortId":815,"zipCode":9981,"name":"Oleiros"},
{"ortId":816,"zipCode":1330,"name":"Dori"},
{"ortId":817,"zipCode":6882,"name":"Bergen"},
{"ortId":818,"zipCode":3309,"name":"Shanglian"},
{"ortId":819,"zipCode":7719,"name":"São Pedro de Trafaria"},
{"ortId":820,"zipCode":3998,"name":"Huasta"},
{"ortId":821,"zipCode":9091,"name":"Shahe"},
{"ortId":822,"zipCode":3362,"name":"Krajan Gading"},
{"ortId":823,"zipCode":4085,"name":"Nailung"},
{"ortId":824,"zipCode":5020,"name":"Hŭngnam"},
{"ortId":825,"zipCode":3050,"name":"Fuxi"},
{"ortId":826,"zipCode":4708,"name":"Korçë"},
{"ortId":827,"zipCode":8362,"name":"Dapaong"},
{"ortId":828,"zipCode":2933,"name":"Bitung"},
{"ortId":829,"zipCode":2881,"name":"Minh Long"},
{"ortId":830,"zipCode":7986,"name":"Yihe"},
{"ortId":831,"zipCode":2934,"name":"Balgatay"},
{"ortId":832,"zipCode":7523,"name":"Kansas City"},
{"ortId":833,"zipCode":4444,"name":"Sobreira"},
{"ortId":834,"zipCode":5332,"name":"Sutton"},
{"ortId":835,"zipCode":8507,"name":"Saku"},
{"ortId":836,"zipCode":1422,"name":"Funza"},
{"ortId":837,"zipCode":2330,"name":"Boniewo"},
{"ortId":838,"zipCode":9835,"name":"Erada"},
{"ortId":839,"zipCode":5038,"name":"Colmar"},
{"ortId":840,"zipCode":9753,"name":"Melíssia"},
{"ortId":841,"zipCode":5076,"name":"Nankeng"},
{"ortId":842,"zipCode":3098,"name":"Besançon"},
{"ortId":843,"zipCode":1725,"name":"Kontagora"},
{"ortId":844,"zipCode":1878,"name":"Barbosa"},
{"ortId":845,"zipCode":8188,"name":"Enonkoski"},
{"ortId":846,"zipCode":8632,"name":"Qianjiang"},
{"ortId":847,"zipCode":5624,"name":"El Guamo"},
{"ortId":848,"zipCode":3625,"name":"Nieuwegein"},
{"ortId":849,"zipCode":1367,"name":"Campamento"},
{"ortId":850,"zipCode":5328,"name":"Leganes"},
{"ortId":851,"zipCode":4171,"name":"Calidñgan"},
{"ortId":852,"zipCode":2793,"name":"Chenguang"},
{"ortId":853,"zipCode":7037,"name":"Krajan Satu"},
{"ortId":854,"zipCode":9798,"name":"Lomme"},
{"ortId":855,"zipCode":9209,"name":"Lohong"},
{"ortId":856,"zipCode":3281,"name":"Pokrovka"},
{"ortId":857,"zipCode":5363,"name":"Laiwu"},
{"ortId":858,"zipCode":8970,"name":"Vélizy-Villacoublay"},
{"ortId":859,"zipCode":8154,"name":"Gongxi"},
{"ortId":860,"zipCode":5397,"name":"Trajouce"},
{"ortId":861,"zipCode":8784,"name":"Lobão"},
{"ortId":862,"zipCode":9428,"name":"Poá"},
{"ortId":863,"zipCode":8352,"name":"Chaloem Phra Kiat"},
{"ortId":864,"zipCode":2085,"name":"Daur"},
{"ortId":865,"zipCode":5584,"name":"Moroto"},
{"ortId":866,"zipCode":1540,"name":"Mīzan Teferī"},
{"ortId":867,"zipCode":2871,"name":"Espinal"},
{"ortId":868,"zipCode":9926,"name":"Tanggung"},
{"ortId":869,"zipCode":4844,"name":"Bayzhansay"},
{"ortId":870,"zipCode":4200,"name":"Tamahú"},
{"ortId":871,"zipCode":6005,"name":"Shaguotun"},
{"ortId":872,"zipCode":9894,"name":"Tarkastad"},
{"ortId":873,"zipCode":4163,"name":"Hougong"},
{"ortId":874,"zipCode":9863,"name":"Llorente"},
{"ortId":875,"zipCode":4658,"name":"Francisco Villa"},
{"ortId":876,"zipCode":2251,"name":"Dalu"},
{"ortId":877,"zipCode":3397,"name":"Liminka"},
{"ortId":878,"zipCode":2802,"name":"Lisui"},
{"ortId":879,"zipCode":6402,"name":"Manquiring"},
{"ortId":880,"zipCode":8413,"name":"Hukvaldy"},
{"ortId":881,"zipCode":5403,"name":"Changgou"},
{"ortId":882,"zipCode":2953,"name":"Mella"},
{"ortId":883,"zipCode":8761,"name":"Ōzu"},
{"ortId":884,"zipCode":6136,"name":"‘Ibrī"},
{"ortId":885,"zipCode":9078,"name":"Jun’an"},
{"ortId":886,"zipCode":6602,"name":"Birr"},
{"ortId":887,"zipCode":9263,"name":"Mizoch"},
{"ortId":888,"zipCode":8260,"name":"Dan Makham Tia"},
{"ortId":889,"zipCode":3518,"name":"Dungloe"},
{"ortId":890,"zipCode":5017,"name":"Lerrnanist"},
{"ortId":891,"zipCode":4300,"name":"Cogreg Wetan"},
{"ortId":892,"zipCode":6033,"name":"Chiang Khan"},
{"ortId":893,"zipCode":1096,"name":"Atalaia"},
{"ortId":894,"zipCode":3655,"name":"Zhongxin"},
{"ortId":895,"zipCode":5409,"name":"El Paso"},
{"ortId":896,"zipCode":6132,"name":"Sydney"},
{"ortId":897,"zipCode":5651,"name":"Krosno"},
{"ortId":898,"zipCode":7309,"name":"Velký Újezd"},
{"ortId":899,"zipCode":4269,"name":"Cibitungmasjid"},
{"ortId":900,"zipCode":8740,"name":"El Real"},
{"ortId":901,"zipCode":9023,"name":"Yachimata"},
{"ortId":902,"zipCode":2277,"name":"Tworków"},
{"ortId":903,"zipCode":1054,"name":"Donnycarney"},
{"ortId":904,"zipCode":6889,"name":"Péfki"},
{"ortId":905,"zipCode":7251,"name":"Nanping"},
{"ortId":906,"zipCode":9217,"name":"Tokyo"},
{"ortId":907,"zipCode":7702,"name":"Kudang"},
{"ortId":908,"zipCode":4897,"name":"Bungur"},
{"ortId":909,"zipCode":4586,"name":"Xinchengzi"},
{"ortId":910,"zipCode":9822,"name":"Orekhovo-Borisovo Severnoye"},
{"ortId":911,"zipCode":9718,"name":"Itapissuma"},
{"ortId":912,"zipCode":4228,"name":"Mlaka pri Kranju"},
{"ortId":913,"zipCode":5167,"name":"Raniżów"},
{"ortId":914,"zipCode":8159,"name":"Camajuaní"},
{"ortId":915,"zipCode":8606,"name":"Hilotongan"},
{"ortId":916,"zipCode":6078,"name":"Talas"},
{"ortId":917,"zipCode":3867,"name":"Paris 07"},
{"ortId":918,"zipCode":5759,"name":"Mari"},
{"ortId":919,"zipCode":3294,"name":"Zhenshan"},
{"ortId":920,"zipCode":5336,"name":"Ficksburg"},
{"ortId":921,"zipCode":9443,"name":"Gao"},
{"ortId":922,"zipCode":3222,"name":"La Sarre"},
{"ortId":923,"zipCode":1436,"name":"Chorkówka"},
{"ortId":924,"zipCode":9397,"name":"Trajouce"},
{"ortId":925,"zipCode":5080,"name":"Yelizavetino"},
{"ortId":926,"zipCode":1980,"name":"Odivelas"},
{"ortId":927,"zipCode":6904,"name":"Tandil"},
{"ortId":928,"zipCode":4675,"name":"Panchagarh"},
{"ortId":929,"zipCode":1306,"name":"Teslić"},
{"ortId":930,"zipCode":8854,"name":"Baranowo"},
{"ortId":931,"zipCode":1606,"name":"Ngroto"},
{"ortId":932,"zipCode":4543,"name":"Takari"},
{"ortId":933,"zipCode":1561,"name":"Vila Chã"},
{"ortId":934,"zipCode":8339,"name":"Fómeque"},
{"ortId":935,"zipCode":7142,"name":"Jönköping"},
{"ortId":936,"zipCode":9991,"name":"Ambato"},
{"ortId":937,"zipCode":3556,"name":"Camangcamang"},
{"ortId":938,"zipCode":6245,"name":"Wujiaying"},
{"ortId":939,"zipCode":2947,"name":"Antipolo"},
{"ortId":940,"zipCode":6499,"name":"Zhihe"},
{"ortId":941,"zipCode":2937,"name":"Jiaoxie"},
{"ortId":942,"zipCode":3528,"name":"Bendosewu"},
{"ortId":943,"zipCode":1387,"name":"Telč"},
{"ortId":944,"zipCode":4090,"name":"Gilowice"},
{"ortId":945,"zipCode":9217,"name":"Stari Bohorodchany"},
{"ortId":946,"zipCode":5821,"name":"Daleman"},
{"ortId":947,"zipCode":6624,"name":"Bonik"},
{"ortId":948,"zipCode":9156,"name":"Sritanjung"},
{"ortId":949,"zipCode":6819,"name":"Tanūmah"},
{"ortId":950,"zipCode":5693,"name":"Maicao"},
{"ortId":951,"zipCode":9810,"name":"Shicang"},
{"ortId":952,"zipCode":2492,"name":"Zengfu"},
{"ortId":953,"zipCode":8157,"name":"Bykivka"},
{"ortId":954,"zipCode":7639,"name":"Teeli"},
{"ortId":955,"zipCode":6979,"name":"Cikawunggading"},
{"ortId":956,"zipCode":8113,"name":"Guadalupe"},
{"ortId":957,"zipCode":5934,"name":"Cheremshan"},
{"ortId":958,"zipCode":3699,"name":"Jendouba"},
{"ortId":959,"zipCode":2949,"name":"Boise"},
{"ortId":960,"zipCode":1705,"name":"Sankwia"},
{"ortId":961,"zipCode":6498,"name":"Basarabeasca"},
{"ortId":962,"zipCode":1116,"name":"Candi Prambanan"},
{"ortId":963,"zipCode":3699,"name":"Yangqing"},
{"ortId":964,"zipCode":4193,"name":"Dapdapan"},
{"ortId":965,"zipCode":9394,"name":"Itabaianinha"},
{"ortId":966,"zipCode":3913,"name":"Velký Újezd"},
{"ortId":967,"zipCode":7525,"name":"Furmanov"},
{"ortId":968,"zipCode":1440,"name":"Yanwang"},
{"ortId":969,"zipCode":5696,"name":"Puerto Rico"},
{"ortId":970,"zipCode":5337,"name":"Dugcal"},
{"ortId":971,"zipCode":9479,"name":"Svetogorsk"},
{"ortId":972,"zipCode":8362,"name":"Paseka"},
{"ortId":973,"zipCode":7874,"name":"Roissy Charles-de-Gaulle"},
{"ortId":974,"zipCode":5303,"name":"Quán Hành"},
{"ortId":975,"zipCode":1163,"name":"Illushi"},
{"ortId":976,"zipCode":3540,"name":"Zhangyang"},
{"ortId":977,"zipCode":2374,"name":"Hinunangan"},
{"ortId":978,"zipCode":3099,"name":"Viļāni"},
{"ortId":979,"zipCode":1656,"name":"Catalina"},
{"ortId":980,"zipCode":8320,"name":"Xiaogang"},
{"ortId":981,"zipCode":8580,"name":"Malonty"},
{"ortId":982,"zipCode":4671,"name":"Al Qiţena"},
{"ortId":983,"zipCode":4750,"name":"Raków"},
{"ortId":984,"zipCode":4122,"name":"Kaniów"},
{"ortId":985,"zipCode":3633,"name":"Wenshui"},
{"ortId":986,"zipCode":1040,"name":"Pokhvistnevo"},
{"ortId":987,"zipCode":4482,"name":"Batujaran"},
{"ortId":988,"zipCode":2314,"name":"Koudougou"},
{"ortId":989,"zipCode":4442,"name":"Além do Rio"},
{"ortId":990,"zipCode":7495,"name":"Lorraine"},
{"ortId":991,"zipCode":5851,"name":"Kembang"},
{"ortId":992,"zipCode":1420,"name":"Rymanów"},
{"ortId":993,"zipCode":1295,"name":"Maulawin"},
{"ortId":994,"zipCode":6583,"name":"Pawłosiów"},
{"ortId":995,"zipCode":3826,"name":"Granadero Baigorria"},
{"ortId":996,"zipCode":6397,"name":"Zyuzino"},
{"ortId":997,"zipCode":1125,"name":"Phon Charoen"},
{"ortId":998,"zipCode":9982,"name":"Dobrica"},
{"ortId":999,"zipCode":3108,"name":"Fagersta"},
{"ortId":1000,"zipCode":9138,"name":"Businovo"}]