[{"ortId":1,"zipCode":1956,"name":"Zlatni Pyasatsi"},
{"ortId":2,"zipCode":8881,"name":"Xiakouyi"},
{"ortId":3,"zipCode":8556,"name":"San Jose"},
{"ortId":4,"zipCode":2508,"name":"Porsgrunn"},
{"ortId":5,"zipCode":1766,"name":"Sumusţā as Sulţānī"},
{"ortId":6,"zipCode":2299,"name":"Nakhchivan"},
{"ortId":7,"zipCode":3144,"name":"Malinovskiy"},
{"ortId":8,"zipCode":6400,"name":"Kondrovo"},
{"ortId":9,"zipCode":4240,"name":"Maruoka"},
{"ortId":10,"zipCode":1006,"name":"Beizhakou"},
{"ortId":11,"zipCode":9104,"name":"Piotrków Kujawski"},
{"ortId":12,"zipCode":5042,"name":"Tumpang Satu"},
{"ortId":13,"zipCode":9983,"name":"Sarrat"},
{"ortId":14,"zipCode":8490,"name":"Wengaingo"},
{"ortId":15,"zipCode":9946,"name":"Tianzhuang"},
{"ortId":16,"zipCode":7380,"name":"Dongshan"},
{"ortId":17,"zipCode":1136,"name":"Morani"},
{"ortId":18,"zipCode":2398,"name":"Rāvar"},
{"ortId":19,"zipCode":7404,"name":"Goianira"},
{"ortId":20,"zipCode":1837,"name":"Hofors"},
{"ortId":21,"zipCode":5521,"name":"Agía Triáda"},
{"ortId":22,"zipCode":8704,"name":"Gamawa"},
{"ortId":23,"zipCode":3438,"name":"Rauma"},
{"ortId":24,"zipCode":1550,"name":"Rongxing"},
{"ortId":25,"zipCode":1491,"name":"Laguilayan"},
{"ortId":26,"zipCode":9575,"name":"Ambato"},
{"ortId":27,"zipCode":8998,"name":"Všestary"},
{"ortId":28,"zipCode":4423,"name":"La Unión"},
{"ortId":29,"zipCode":7779,"name":"Sakaidechō"},
{"ortId":30,"zipCode":1963,"name":"Nanxi"},
{"ortId":31,"zipCode":3479,"name":"Anshan"},
{"ortId":32,"zipCode":5227,"name":"Châlons-en-Champagne"},
{"ortId":33,"zipCode":4243,"name":"Nigel"},
{"ortId":34,"zipCode":2431,"name":"Pridonskoy"},
{"ortId":35,"zipCode":1099,"name":"Marhanets’"},
{"ortId":36,"zipCode":3636,"name":"Banī Khallād"},
{"ortId":37,"zipCode":8323,"name":"Oekuu"},
{"ortId":38,"zipCode":5160,"name":"Phanat Nikhom"},
{"ortId":39,"zipCode":4440,"name":"Chơn Thành"},
{"ortId":40,"zipCode":9168,"name":"Calizo"},
{"ortId":41,"zipCode":4354,"name":"Xinminxiang"},
{"ortId":42,"zipCode":5167,"name":"Sukoanyar"},
{"ortId":43,"zipCode":9638,"name":"Nizhniy Ufaley"},
{"ortId":44,"zipCode":7869,"name":"Xiaolongmen"},
{"ortId":45,"zipCode":9242,"name":"Liangshuijing"},
{"ortId":46,"zipCode":5317,"name":"Ikšķile"},
{"ortId":47,"zipCode":2018,"name":"Winterthur"},
{"ortId":48,"zipCode":3516,"name":"Rosebank"},
{"ortId":49,"zipCode":5331,"name":"Nong Yasai"},
{"ortId":50,"zipCode":9033,"name":"Calceta"},
{"ortId":51,"zipCode":7054,"name":"Beiping"},
{"ortId":52,"zipCode":9671,"name":"Paka"},
{"ortId":53,"zipCode":2335,"name":"Jackson"},
{"ortId":54,"zipCode":2803,"name":"Lynchburg"},
{"ortId":55,"zipCode":1345,"name":"Nysa"},
{"ortId":56,"zipCode":9314,"name":"Strazhitsa"},
{"ortId":57,"zipCode":6515,"name":"Xishaping"},
{"ortId":58,"zipCode":1046,"name":"Hyesan-si"},
{"ortId":59,"zipCode":8001,"name":"Luleå"},
{"ortId":60,"zipCode":2166,"name":"Podedwórze"},
{"ortId":61,"zipCode":2771,"name":"Villeneuve-lès-Avignon"},
{"ortId":62,"zipCode":5626,"name":"Przyborów"},
{"ortId":63,"zipCode":5127,"name":"Moscow"},
{"ortId":64,"zipCode":1466,"name":"Le Pontet"},
{"ortId":65,"zipCode":1042,"name":"Dębno"},
{"ortId":66,"zipCode":1867,"name":"Złotniki Kujawskie"},
{"ortId":67,"zipCode":1938,"name":"Järfälla"},
{"ortId":68,"zipCode":6156,"name":"Melres"},
{"ortId":69,"zipCode":5541,"name":"Yuanquan"},
{"ortId":70,"zipCode":2440,"name":"Breia"},
{"ortId":71,"zipCode":5750,"name":"Kupiskis"},
{"ortId":72,"zipCode":9317,"name":"Sandakan"},
{"ortId":73,"zipCode":9467,"name":"Ōfunato"},
{"ortId":74,"zipCode":8224,"name":"Batubantar"},
{"ortId":75,"zipCode":5266,"name":"Rio Formoso"},
{"ortId":76,"zipCode":5441,"name":"Hoçisht"},
{"ortId":77,"zipCode":3933,"name":"Nioro du Rip"},
{"ortId":78,"zipCode":5095,"name":"Mianhu"},
{"ortId":79,"zipCode":9514,"name":"Norsborg"},
{"ortId":80,"zipCode":2406,"name":"Kombissiri"},
{"ortId":81,"zipCode":3491,"name":"Kolympári"},
{"ortId":82,"zipCode":8434,"name":"Roioen"},
{"ortId":83,"zipCode":6315,"name":"Saint-Leu-la-Forêt"},
{"ortId":84,"zipCode":5775,"name":"Timrat"},
{"ortId":85,"zipCode":9727,"name":"Ribeiro"},
{"ortId":86,"zipCode":9226,"name":"Bobowa"},
{"ortId":87,"zipCode":1233,"name":"Jiangcun"},
{"ortId":88,"zipCode":9240,"name":"General Levalle"},
{"ortId":89,"zipCode":5090,"name":"Port Saint Lucie"},
{"ortId":90,"zipCode":1553,"name":"Sinarharapan"},
{"ortId":91,"zipCode":7390,"name":"Kakata"},
{"ortId":92,"zipCode":6055,"name":"Porsgrunn"},
{"ortId":93,"zipCode":7336,"name":"San Vicente"},
{"ortId":94,"zipCode":5903,"name":"Montepuez"},
{"ortId":95,"zipCode":3298,"name":"Osielsko"},
{"ortId":96,"zipCode":9523,"name":"Las Flores"},
{"ortId":97,"zipCode":9973,"name":"Potoru"},
{"ortId":98,"zipCode":4916,"name":"Anfu"},
{"ortId":99,"zipCode":4519,"name":"Chambly"},
{"ortId":100,"zipCode":7307,"name":"Rakvere"},
{"ortId":101,"zipCode":8004,"name":"Dār an Naşr"},
{"ortId":102,"zipCode":1684,"name":"Sunne"},
{"ortId":103,"zipCode":6710,"name":"Jurak Lao’"},
{"ortId":104,"zipCode":2367,"name":"Tlogotunggal"},
{"ortId":105,"zipCode":2466,"name":"Trondheim"},
{"ortId":106,"zipCode":5078,"name":"Louisville"},
{"ortId":107,"zipCode":5742,"name":"Shiki"},
{"ortId":108,"zipCode":2049,"name":"Zhanghua"},
{"ortId":109,"zipCode":5536,"name":"Erie"},
{"ortId":110,"zipCode":10000,"name":"Huanggangshan"},
{"ortId":111,"zipCode":6308,"name":"Youyang"},
{"ortId":112,"zipCode":2529,"name":"Simitli"},
{"ortId":113,"zipCode":2439,"name":"Rantaupanjangkiri"},
{"ortId":114,"zipCode":9020,"name":"Los Angeles"},
{"ortId":115,"zipCode":2290,"name":"‘Arab ar Rashāydah"},
{"ortId":116,"zipCode":7202,"name":"Gabasumdo"},
{"ortId":117,"zipCode":1597,"name":"Alilem"},
{"ortId":118,"zipCode":6255,"name":"Örebro"},
{"ortId":119,"zipCode":1915,"name":"Wadi Kidul"},
{"ortId":120,"zipCode":5624,"name":"Marau"},
{"ortId":121,"zipCode":9018,"name":"Claver"},
{"ortId":122,"zipCode":7747,"name":"Kudusan"},
{"ortId":123,"zipCode":3934,"name":"Marićka"},
{"ortId":124,"zipCode":1524,"name":"Warungbanten"},
{"ortId":125,"zipCode":1180,"name":"El Refugio"},
{"ortId":126,"zipCode":3964,"name":"Koilás"},
{"ortId":127,"zipCode":6910,"name":"Sodankylä"},
{"ortId":128,"zipCode":3779,"name":"Lengji"},
{"ortId":129,"zipCode":2970,"name":"Richmond"},
{"ortId":130,"zipCode":8134,"name":"Ueno"},
{"ortId":131,"zipCode":9680,"name":"Korkino"},
{"ortId":132,"zipCode":3807,"name":"Lishu"},
{"ortId":133,"zipCode":2966,"name":"Tokorozawa"},
{"ortId":134,"zipCode":1324,"name":"Xiaojinkou"},
{"ortId":135,"zipCode":9986,"name":"Al Faḩāḩīl"},
{"ortId":136,"zipCode":7983,"name":"Gândara"},
{"ortId":137,"zipCode":4560,"name":"Penisihan"},
{"ortId":138,"zipCode":2714,"name":"Skogås"},
{"ortId":139,"zipCode":4665,"name":"Usab"},
{"ortId":140,"zipCode":7571,"name":"Zhenwen"},
{"ortId":141,"zipCode":4450,"name":"Mandepa Barat"},
{"ortId":142,"zipCode":1146,"name":"Suita"},
{"ortId":143,"zipCode":3877,"name":"Pinhal da Marquesa"},
{"ortId":144,"zipCode":5235,"name":"Rokiciny"},
{"ortId":145,"zipCode":7879,"name":"Butubut Norte"},
{"ortId":146,"zipCode":3616,"name":"Huangtu"},
{"ortId":147,"zipCode":1877,"name":"Khuean Ubonrat"},
{"ortId":148,"zipCode":9390,"name":"Bicos"},
{"ortId":149,"zipCode":9303,"name":"Colonia Yguazú"},
{"ortId":150,"zipCode":6344,"name":"Dokuchayevs’k"},
{"ortId":151,"zipCode":3377,"name":"Leudelange"},
{"ortId":152,"zipCode":4615,"name":"Mingshuihe"},
{"ortId":153,"zipCode":9686,"name":"Alindao"},
{"ortId":154,"zipCode":4565,"name":"Gahe"},
{"ortId":155,"zipCode":2191,"name":"Jikamshi"},
{"ortId":156,"zipCode":1021,"name":"Xundian"},
{"ortId":157,"zipCode":3827,"name":"Pejek"},
{"ortId":158,"zipCode":7740,"name":"Brodarica"},
{"ortId":159,"zipCode":1201,"name":"Monastyryshche"},
{"ortId":160,"zipCode":7719,"name":"Caiyuan"},
{"ortId":161,"zipCode":1564,"name":"Jomboy"},
{"ortId":162,"zipCode":6243,"name":"Vertientes"},
{"ortId":163,"zipCode":8333,"name":"Krasnyy Oktyabr’"},
{"ortId":164,"zipCode":3874,"name":"Lons-le-Saunier"},
{"ortId":165,"zipCode":6035,"name":"Angoulême"},
{"ortId":166,"zipCode":1782,"name":"Vigo"},
{"ortId":167,"zipCode":6101,"name":"Thành Phố Ninh Bình"},
{"ortId":168,"zipCode":5102,"name":"Pohang"},
{"ortId":169,"zipCode":3803,"name":"Khuzdār"},
{"ortId":170,"zipCode":7729,"name":"Béja"},
{"ortId":171,"zipCode":1100,"name":"Lianyi"},
{"ortId":172,"zipCode":7415,"name":"Sherwood Park"},
{"ortId":173,"zipCode":9687,"name":"Santa Cruz del Sur"},
{"ortId":174,"zipCode":7608,"name":"Centro Habana"},
{"ortId":175,"zipCode":6444,"name":"Pukhavichy"},
{"ortId":176,"zipCode":7153,"name":"Stari Grad"},
{"ortId":177,"zipCode":3730,"name":"Casigua El Cubo"},
{"ortId":178,"zipCode":7796,"name":"Cetinje"},
{"ortId":179,"zipCode":3723,"name":"Mircze"},
{"ortId":180,"zipCode":5931,"name":"Arrepiado"},
{"ortId":181,"zipCode":1245,"name":"Leninskoye"},
{"ortId":182,"zipCode":9223,"name":"São Gabriel da Cachoeira"},
{"ortId":183,"zipCode":8065,"name":"Peras Ruivas"},
{"ortId":184,"zipCode":2210,"name":"Fort Liberté"},
{"ortId":185,"zipCode":7685,"name":"Skála Oropoú"},
{"ortId":186,"zipCode":6956,"name":"Heishui"},
{"ortId":187,"zipCode":1112,"name":"Bagong Barrio"},
{"ortId":188,"zipCode":6345,"name":"Balai"},
{"ortId":189,"zipCode":9531,"name":"Shāhzādpur"},
{"ortId":190,"zipCode":1671,"name":"Huesca"},
{"ortId":191,"zipCode":2117,"name":"Yueyang"},
{"ortId":192,"zipCode":5692,"name":"Xiangdian"},
{"ortId":193,"zipCode":8738,"name":"Bárrio"},
{"ortId":194,"zipCode":4705,"name":"Putina"},
{"ortId":195,"zipCode":2014,"name":"Stockholm"},
{"ortId":196,"zipCode":8519,"name":"Mahikeng"},
{"ortId":197,"zipCode":1733,"name":"Culubasa"},
{"ortId":198,"zipCode":5739,"name":"Níkiti"},
{"ortId":199,"zipCode":4721,"name":"Fuxing"},
{"ortId":200,"zipCode":7665,"name":"Quezon"},
{"ortId":201,"zipCode":3393,"name":"Jawornik"},
{"ortId":202,"zipCode":7136,"name":"Šmartno pri Litiji"},
{"ortId":203,"zipCode":2580,"name":"Tongjin"},
{"ortId":204,"zipCode":8670,"name":"Luleå"},
{"ortId":205,"zipCode":9066,"name":"Wutongkou"},
{"ortId":206,"zipCode":4351,"name":"Liangshuihe"},
{"ortId":207,"zipCode":7761,"name":"Mehtar Lām"},
{"ortId":208,"zipCode":8645,"name":"San Antonio"},
{"ortId":209,"zipCode":2040,"name":"Rencun"},
{"ortId":210,"zipCode":5566,"name":"San Jacinto"},
{"ortId":211,"zipCode":9126,"name":"San Diego"},
{"ortId":212,"zipCode":9907,"name":"Puyung"},
{"ortId":213,"zipCode":3935,"name":"Maayong Tubig"},
{"ortId":214,"zipCode":5976,"name":"Renhe"},
{"ortId":215,"zipCode":9420,"name":"Cimo de Vila"},
{"ortId":216,"zipCode":6620,"name":"Puerto Alto"},
{"ortId":217,"zipCode":8361,"name":"Bhisho"},
{"ortId":218,"zipCode":4886,"name":"Punolu"},
{"ortId":219,"zipCode":9655,"name":"Brakas"},
{"ortId":220,"zipCode":7263,"name":"As Suwaydā"},
{"ortId":221,"zipCode":1791,"name":"Baraguá"},
{"ortId":222,"zipCode":7385,"name":"Perzów"},
{"ortId":223,"zipCode":7314,"name":"Pleszew"},
{"ortId":224,"zipCode":8808,"name":"Itaperuçu"},
{"ortId":225,"zipCode":7913,"name":"Shanlian"},
{"ortId":226,"zipCode":6333,"name":"Shaoguan"},
{"ortId":227,"zipCode":8484,"name":"Wonosari"},
{"ortId":228,"zipCode":4475,"name":"Várzea da Serra"},
{"ortId":229,"zipCode":3169,"name":"Muikamachi"},
{"ortId":230,"zipCode":1215,"name":"Charras"},
{"ortId":231,"zipCode":8543,"name":"La Cumbre"},
{"ortId":232,"zipCode":8681,"name":"Belmullet"},
{"ortId":233,"zipCode":5181,"name":"Portão"},
{"ortId":234,"zipCode":9025,"name":"Prigrevica"},
{"ortId":235,"zipCode":2174,"name":"Hirvensalmi"},
{"ortId":236,"zipCode":8868,"name":"Yuanhou"},
{"ortId":237,"zipCode":6348,"name":"Daguma"},
{"ortId":238,"zipCode":5675,"name":"Jongīyeh"},
{"ortId":239,"zipCode":6189,"name":"Fomento"},
{"ortId":240,"zipCode":5810,"name":"Palomoc"},
{"ortId":241,"zipCode":6390,"name":"Pshekhskaya"},
{"ortId":242,"zipCode":5835,"name":"Arhust"},
{"ortId":243,"zipCode":2342,"name":"Tekik Wetan"},
{"ortId":244,"zipCode":5521,"name":"Paris 03"},
{"ortId":245,"zipCode":8001,"name":"El Pardo"},
{"ortId":246,"zipCode":7172,"name":"Qiongshan"},
{"ortId":247,"zipCode":3867,"name":"Zolotonosha"},
{"ortId":248,"zipCode":8620,"name":"Durrës"},
{"ortId":249,"zipCode":1319,"name":"Clermont-Ferrand"},
{"ortId":250,"zipCode":4605,"name":"Tianchi"},
{"ortId":251,"zipCode":7597,"name":"Macaé"},
{"ortId":252,"zipCode":6030,"name":"Huangben"},
{"ortId":253,"zipCode":6434,"name":"Babakankalong"},
{"ortId":254,"zipCode":9733,"name":"Cabog"},
{"ortId":255,"zipCode":6696,"name":"Faro"},
{"ortId":256,"zipCode":9867,"name":"As Sālimīyah"},
{"ortId":257,"zipCode":6578,"name":"Székesfehérvár"},
{"ortId":258,"zipCode":1358,"name":"Xindong"},
{"ortId":259,"zipCode":5819,"name":"Postřekov"},
{"ortId":260,"zipCode":5305,"name":"Trzciana"},
{"ortId":261,"zipCode":4358,"name":"Bokino"},
{"ortId":262,"zipCode":3573,"name":"Arnhem"},
{"ortId":263,"zipCode":2483,"name":"Ilha Solteira"},
{"ortId":264,"zipCode":3746,"name":"Synevyr"},
{"ortId":265,"zipCode":7603,"name":"Donostia-San Sebastian"},
{"ortId":266,"zipCode":6711,"name":"Aizhai"},
{"ortId":267,"zipCode":2519,"name":"Guanshan"},
{"ortId":268,"zipCode":3961,"name":"Driyorejo"},
{"ortId":269,"zipCode":9066,"name":"Kiryū"},
{"ortId":270,"zipCode":1875,"name":"Habry"},
{"ortId":271,"zipCode":1041,"name":"Aulnay-sous-Bois"},
{"ortId":272,"zipCode":6505,"name":"Mbomba"},
{"ortId":273,"zipCode":3327,"name":"Cotabato"},
{"ortId":274,"zipCode":9458,"name":"Kabor"},
{"ortId":275,"zipCode":7880,"name":"Metz"},
{"ortId":276,"zipCode":2886,"name":"San Juan"},
{"ortId":277,"zipCode":6580,"name":"Kalde Panga"},
{"ortId":278,"zipCode":8280,"name":"Kemlya"},
{"ortId":279,"zipCode":5911,"name":"Richmond"},
{"ortId":280,"zipCode":4720,"name":"Khuma"},
{"ortId":281,"zipCode":7897,"name":"Chixi"},
{"ortId":282,"zipCode":1275,"name":"Peterhof"},
{"ortId":283,"zipCode":7062,"name":"Changkeng"},
{"ortId":284,"zipCode":9004,"name":"Glasnevin"},
{"ortId":285,"zipCode":6954,"name":"Nadvoitsy"},
{"ortId":286,"zipCode":1097,"name":"Montes Claros"},
{"ortId":287,"zipCode":9213,"name":"Plan de Ayala"},
{"ortId":288,"zipCode":4515,"name":"Kuala Lumpur"},
{"ortId":289,"zipCode":6006,"name":"Utrecht (stad)"},
{"ortId":290,"zipCode":6975,"name":"Bahe"},
{"ortId":291,"zipCode":1892,"name":"Tsagaan-Ovoo"},
{"ortId":292,"zipCode":9965,"name":"Changshengqiao"},
{"ortId":293,"zipCode":8214,"name":"Kostakioí"},
{"ortId":294,"zipCode":4470,"name":"Shengli"},
{"ortId":295,"zipCode":7319,"name":"Banjar Dauhpura"},
{"ortId":296,"zipCode":7735,"name":"Runan"},
{"ortId":297,"zipCode":9084,"name":"Plaju"},
{"ortId":298,"zipCode":4884,"name":"Rokietnica"},
{"ortId":299,"zipCode":2342,"name":"Cisiec"},
{"ortId":300,"zipCode":1019,"name":"Zafar"},
{"ortId":301,"zipCode":8496,"name":"Alegrete"},
{"ortId":302,"zipCode":6016,"name":"Yukuhashi"},
{"ortId":303,"zipCode":9829,"name":"Donggu"},
{"ortId":304,"zipCode":4591,"name":"Murfreesboro"},
{"ortId":305,"zipCode":4416,"name":"Divnomorskoye"},
{"ortId":306,"zipCode":3034,"name":"Orlando"},
{"ortId":307,"zipCode":9687,"name":"Daba"},
{"ortId":308,"zipCode":5811,"name":"Nariño"},
{"ortId":309,"zipCode":2700,"name":"Saseel"},
{"ortId":310,"zipCode":1924,"name":"Al Lubban al Gharbī"},
{"ortId":311,"zipCode":6054,"name":"Kashmor"},
{"ortId":312,"zipCode":9700,"name":"Andradina"},
{"ortId":313,"zipCode":8108,"name":"Jadranovo"},
{"ortId":314,"zipCode":7032,"name":"Bantardawa"},
{"ortId":315,"zipCode":1226,"name":"Gaozhou"},
{"ortId":316,"zipCode":1722,"name":"Felgueiras"},
{"ortId":317,"zipCode":3053,"name":"Xiangjia"},
{"ortId":318,"zipCode":3774,"name":"Trnovska Vas"},
{"ortId":319,"zipCode":9669,"name":"Kitapak"},
{"ortId":320,"zipCode":1814,"name":"Serzedelo"},
{"ortId":321,"zipCode":8966,"name":"Pucyura"},
{"ortId":322,"zipCode":5203,"name":"Werota"},
{"ortId":323,"zipCode":1986,"name":"Quintã"},
{"ortId":324,"zipCode":2052,"name":"Xinyang"},
{"ortId":325,"zipCode":7161,"name":"Vitarte"},
{"ortId":326,"zipCode":5549,"name":"Canguçu"},
{"ortId":327,"zipCode":3345,"name":"Al Manāqil"},
{"ortId":328,"zipCode":9376,"name":"Buga"},
{"ortId":329,"zipCode":4746,"name":"Pakel"},
{"ortId":330,"zipCode":8074,"name":"Shijing"},
{"ortId":331,"zipCode":5998,"name":"Humen"},
{"ortId":332,"zipCode":4053,"name":"Rumphi"},
{"ortId":333,"zipCode":9966,"name":"Palmas Bellas"},
{"ortId":334,"zipCode":5163,"name":"Qijiawan"},
{"ortId":335,"zipCode":4862,"name":"Postmasburg"},
{"ortId":336,"zipCode":8306,"name":"Gampang"},
{"ortId":337,"zipCode":1501,"name":"Zachepylivka"},
{"ortId":338,"zipCode":7003,"name":"Pŭrvomaytsi"},
{"ortId":339,"zipCode":5774,"name":"Gagarawa"},
{"ortId":340,"zipCode":4584,"name":"Skoczów"},
{"ortId":341,"zipCode":7059,"name":"Kampunglistrik"},
{"ortId":342,"zipCode":8022,"name":"Karaundi"},
{"ortId":343,"zipCode":5286,"name":"Vale de Vila"},
{"ortId":344,"zipCode":6324,"name":"Cherryville"},
{"ortId":345,"zipCode":5485,"name":"Yayao"},
{"ortId":346,"zipCode":7947,"name":"Tanjungpati"},
{"ortId":347,"zipCode":2899,"name":"Nguigmi"},
{"ortId":348,"zipCode":6941,"name":"Khadan Khāk"},
{"ortId":349,"zipCode":5567,"name":"Otradnoye"},
{"ortId":350,"zipCode":7557,"name":"Lemende"},
{"ortId":351,"zipCode":5796,"name":"Omoa"},
{"ortId":352,"zipCode":7799,"name":"Mlanggeng"},
{"ortId":353,"zipCode":1554,"name":"Des Moines"},
{"ortId":354,"zipCode":6266,"name":"San Nicolás de los Arroyos"},
{"ortId":355,"zipCode":6656,"name":"Bangbayang Kaler"},
{"ortId":356,"zipCode":5006,"name":"Monamon"},
{"ortId":357,"zipCode":5590,"name":"Gakovo"},
{"ortId":358,"zipCode":1974,"name":"Huddinge"},
{"ortId":359,"zipCode":5828,"name":"Pizarro"},
{"ortId":360,"zipCode":2876,"name":"Mosteiro"},
{"ortId":361,"zipCode":4339,"name":"Damiao"},
{"ortId":362,"zipCode":5149,"name":"Saint-Maurice-l'Exil"},
{"ortId":363,"zipCode":6177,"name":"Gargaliánoi"},
{"ortId":364,"zipCode":5800,"name":"Shayu"},
{"ortId":365,"zipCode":4639,"name":"Torino"},
{"ortId":366,"zipCode":8731,"name":"Xiangshui"},
{"ortId":367,"zipCode":5739,"name":"Golema Rečica"},
{"ortId":368,"zipCode":3759,"name":"Jablah"},
{"ortId":369,"zipCode":6134,"name":"Pangkalan Kasai"},
{"ortId":370,"zipCode":1482,"name":"Wadung"},
{"ortId":371,"zipCode":3969,"name":"Sakhipur"},
{"ortId":372,"zipCode":5604,"name":"Krasnomayskiy"},
{"ortId":373,"zipCode":6386,"name":"Pingwang"},
{"ortId":374,"zipCode":4095,"name":"Jocón"},
{"ortId":375,"zipCode":3495,"name":"Yuci"},
{"ortId":376,"zipCode":2991,"name":"Nanmu"},
{"ortId":377,"zipCode":7633,"name":"Carenang Lor"},
{"ortId":378,"zipCode":4547,"name":"Velký Újezd"},
{"ortId":379,"zipCode":3567,"name":"Tsiatsan"},
{"ortId":380,"zipCode":2990,"name":"Itupiranga"},
{"ortId":381,"zipCode":7942,"name":"Kambia"},
{"ortId":382,"zipCode":2909,"name":"Ipoti"},
{"ortId":383,"zipCode":1390,"name":"Guanshui"},
{"ortId":384,"zipCode":3955,"name":"Bueng Kum"},
{"ortId":385,"zipCode":1175,"name":"Gaoqiaolou"},
{"ortId":386,"zipCode":8299,"name":"Potosí"},
{"ortId":387,"zipCode":2111,"name":"Novorossiysk"},
{"ortId":388,"zipCode":8520,"name":"El Espino"},
{"ortId":389,"zipCode":3012,"name":"Ustrzyki Dolne"},
{"ortId":390,"zipCode":6111,"name":"Ngulangan"},
{"ortId":391,"zipCode":5658,"name":"Orléans"},
{"ortId":392,"zipCode":1509,"name":"Bestovje"},
{"ortId":393,"zipCode":6076,"name":"Tilcara"},
{"ortId":394,"zipCode":8742,"name":"Biruinţa"},
{"ortId":395,"zipCode":8652,"name":"Gaozhou"},
{"ortId":396,"zipCode":7201,"name":"Zbiroh"},
{"ortId":397,"zipCode":8155,"name":"Quixeramobim"},
{"ortId":398,"zipCode":3940,"name":"Astanajapura"},
{"ortId":399,"zipCode":8356,"name":"Nanganumba"},
{"ortId":400,"zipCode":9481,"name":"Měnín"},
{"ortId":401,"zipCode":9834,"name":"Ghāro"},
{"ortId":402,"zipCode":5693,"name":"Guri i Zi"},
{"ortId":403,"zipCode":6941,"name":"Tambulatana"},
{"ortId":404,"zipCode":3446,"name":"Banjar Sambangan"},
{"ortId":405,"zipCode":4765,"name":"Azogues"},
{"ortId":406,"zipCode":6891,"name":"Calauan"},
{"ortId":407,"zipCode":8516,"name":"Chuarrancho"},
{"ortId":408,"zipCode":7540,"name":"Jun’an"},
{"ortId":409,"zipCode":9908,"name":"Mafinga"},
{"ortId":410,"zipCode":6685,"name":"Gent"},
{"ortId":411,"zipCode":8559,"name":"Guararema"},
{"ortId":412,"zipCode":6577,"name":"Xishanzui"},
{"ortId":413,"zipCode":8225,"name":"Bitola"},
{"ortId":414,"zipCode":2699,"name":"Huancaray"},
{"ortId":415,"zipCode":6231,"name":"Fencheng"},
{"ortId":416,"zipCode":7454,"name":"Všetaty"},
{"ortId":417,"zipCode":7616,"name":"Takari"},
{"ortId":418,"zipCode":7644,"name":"Jacinto Arauz"},
{"ortId":419,"zipCode":2124,"name":"Paratinga"},
{"ortId":420,"zipCode":3425,"name":"Al Hilāliyya"},
{"ortId":421,"zipCode":1826,"name":"Bayrachky"},
{"ortId":422,"zipCode":1574,"name":"Prantaan"},
{"ortId":423,"zipCode":3582,"name":"Pul-e Sangī"},
{"ortId":424,"zipCode":4114,"name":"Vetlanda"},
{"ortId":425,"zipCode":7667,"name":"Prażmów"},
{"ortId":426,"zipCode":7371,"name":"Seraya"},
{"ortId":427,"zipCode":4262,"name":"Boco"},
{"ortId":428,"zipCode":9216,"name":"Wonokerto"},
{"ortId":429,"zipCode":4779,"name":"Daping"},
{"ortId":430,"zipCode":7342,"name":"Horki"},
{"ortId":431,"zipCode":8267,"name":"Smarhon’"},
{"ortId":432,"zipCode":7482,"name":"Qaryūt"},
{"ortId":433,"zipCode":8852,"name":"Xiaogang"},
{"ortId":434,"zipCode":6774,"name":"Tianhu"},
{"ortId":435,"zipCode":8429,"name":"Huité"},
{"ortId":436,"zipCode":2820,"name":"Quinta"},
{"ortId":437,"zipCode":3948,"name":"Seixas"},
{"ortId":438,"zipCode":9858,"name":"Ribamar"},
{"ortId":439,"zipCode":5728,"name":"Xinfeng"},
{"ortId":440,"zipCode":7111,"name":"Jabranti"},
{"ortId":441,"zipCode":9004,"name":"Huskvarna"},
{"ortId":442,"zipCode":7484,"name":"Columbus"},
{"ortId":443,"zipCode":1505,"name":"Moita da Roda"},
{"ortId":444,"zipCode":3728,"name":"Al Karāmah"},
{"ortId":445,"zipCode":5759,"name":"Maroanging"},
{"ortId":446,"zipCode":7572,"name":"Puputan"},
{"ortId":447,"zipCode":5643,"name":"Dainan"},
{"ortId":448,"zipCode":5643,"name":"Lendangara Satu"},
{"ortId":449,"zipCode":2371,"name":"Kende"},
{"ortId":450,"zipCode":7308,"name":"Paojan"},
{"ortId":451,"zipCode":1059,"name":"Xinmin"},
{"ortId":452,"zipCode":8796,"name":"Panaytayon"},
{"ortId":453,"zipCode":2253,"name":"Sosnovaya Polyana"},
{"ortId":454,"zipCode":8931,"name":"Pindamonhangaba"},
{"ortId":455,"zipCode":6112,"name":"Colorado Springs"},
{"ortId":456,"zipCode":2237,"name":"Dawu"},
{"ortId":457,"zipCode":7479,"name":"Cileueur"},
{"ortId":458,"zipCode":6496,"name":"Nuku‘alofa"},
{"ortId":459,"zipCode":8882,"name":"Sekarjalak"},
{"ortId":460,"zipCode":2721,"name":"Matsumoto"},
{"ortId":461,"zipCode":7933,"name":"Tékane"},
{"ortId":462,"zipCode":3186,"name":"Telnice"},
{"ortId":463,"zipCode":3874,"name":"Amizmiz"},
{"ortId":464,"zipCode":8729,"name":"Žiežmariai"},
{"ortId":465,"zipCode":4544,"name":"Bangunharja"},
{"ortId":466,"zipCode":9046,"name":"El Soberbio"},
{"ortId":467,"zipCode":3634,"name":"Cemplang"},
{"ortId":468,"zipCode":9207,"name":"Esmeraldas"},
{"ortId":469,"zipCode":5065,"name":"Karvia"},
{"ortId":470,"zipCode":8826,"name":"Boawae"},
{"ortId":471,"zipCode":6728,"name":"Dolati"},
{"ortId":472,"zipCode":4130,"name":"Saint Hubert"},
{"ortId":473,"zipCode":5765,"name":"Cimara"},
{"ortId":474,"zipCode":8348,"name":"Kurayoshi"},
{"ortId":475,"zipCode":2916,"name":"Wuxing"},
{"ortId":476,"zipCode":7031,"name":"Šumice"},
{"ortId":477,"zipCode":5904,"name":"Staraya Derevnya"},
{"ortId":478,"zipCode":9118,"name":"Ōtsuki"},
{"ortId":479,"zipCode":1306,"name":"Arkhaía Kórinthos"},
{"ortId":480,"zipCode":2665,"name":"Nan’ao"},
{"ortId":481,"zipCode":2704,"name":"Qiwen"},
{"ortId":482,"zipCode":9079,"name":"Rzeszów"},
{"ortId":483,"zipCode":4381,"name":"Lubumbashi"},
{"ortId":484,"zipCode":4023,"name":"Abucay"},
{"ortId":485,"zipCode":2386,"name":"Jianjun"},
{"ortId":486,"zipCode":3207,"name":"Skoki"},
{"ortId":487,"zipCode":9511,"name":"Sietesz"},
{"ortId":488,"zipCode":8901,"name":"Miaojie"},
{"ortId":489,"zipCode":2203,"name":"Ocucaje"},
{"ortId":490,"zipCode":4962,"name":"Eshowe"},
{"ortId":491,"zipCode":5212,"name":"La Estancia"},
{"ortId":492,"zipCode":1835,"name":"Tulihe"},
{"ortId":493,"zipCode":5343,"name":"Lugulu"},
{"ortId":494,"zipCode":6608,"name":"Žlutava"},
{"ortId":495,"zipCode":1541,"name":"Yeosu"},
{"ortId":496,"zipCode":4911,"name":"Orhei"},
{"ortId":497,"zipCode":1461,"name":"Pleasant Point"},
{"ortId":498,"zipCode":4243,"name":"Aoji-ri"},
{"ortId":499,"zipCode":2972,"name":"Palmira"},
{"ortId":500,"zipCode":9688,"name":"Calvão"},
{"ortId":501,"zipCode":7922,"name":"Langkap"},
{"ortId":502,"zipCode":2275,"name":"Roubaix"},
{"ortId":503,"zipCode":9750,"name":"Pinhal da Marquesa"},
{"ortId":504,"zipCode":9901,"name":"Lons-le-Saunier"},
{"ortId":505,"zipCode":2230,"name":"Funchalinho"},
{"ortId":506,"zipCode":5838,"name":"Yaviza"},
{"ortId":507,"zipCode":7744,"name":"Iwata"},
{"ortId":508,"zipCode":3374,"name":"Jaguariaíva"},
{"ortId":509,"zipCode":6888,"name":"Östersund"},
{"ortId":510,"zipCode":4739,"name":"Katsina-Ala"},
{"ortId":511,"zipCode":4566,"name":"Bassar"},
{"ortId":512,"zipCode":3965,"name":"Kálymnos"},
{"ortId":513,"zipCode":4637,"name":"Huertas"},
{"ortId":514,"zipCode":1557,"name":"Cikuda"},
{"ortId":515,"zipCode":3621,"name":"Lame"},
{"ortId":516,"zipCode":9340,"name":"Tartagal"},
{"ortId":517,"zipCode":9904,"name":"Dagang"},
{"ortId":518,"zipCode":8741,"name":"Rudy"},
{"ortId":519,"zipCode":8864,"name":"Shiraz"},
{"ortId":520,"zipCode":5214,"name":"Hecheng"},
{"ortId":521,"zipCode":8753,"name":"Kola"},
{"ortId":522,"zipCode":2734,"name":"Fāqūs"},
{"ortId":523,"zipCode":4212,"name":"Novopokrovka"},
{"ortId":524,"zipCode":9549,"name":"Pagaden"},
{"ortId":525,"zipCode":4153,"name":"José de Freitas"},
{"ortId":526,"zipCode":2597,"name":"Barcelona"},
{"ortId":527,"zipCode":4812,"name":"Nikolo-Pavlovskoye"},
{"ortId":528,"zipCode":3122,"name":"Mondim de Basto"},
{"ortId":529,"zipCode":5372,"name":"Sasykoli"},
{"ortId":530,"zipCode":9398,"name":"North Bay"},
{"ortId":531,"zipCode":6599,"name":"Ishikari"},
{"ortId":532,"zipCode":3976,"name":"Waru"},
{"ortId":533,"zipCode":9992,"name":"Dmytrivka"},
{"ortId":534,"zipCode":5930,"name":"Cabrela"},
{"ortId":535,"zipCode":8794,"name":"Malawa"},
{"ortId":536,"zipCode":6963,"name":"Aoqiao"},
{"ortId":537,"zipCode":8198,"name":"North Shore"},
{"ortId":538,"zipCode":1361,"name":"Batallas"},
{"ortId":539,"zipCode":4096,"name":"Cotton Ground"},
{"ortId":540,"zipCode":6071,"name":"Rudnyy"},
{"ortId":541,"zipCode":4221,"name":"Shestakovo"},
{"ortId":542,"zipCode":2517,"name":"Van Nuys"},
{"ortId":543,"zipCode":9078,"name":"Vanadzor"},
{"ortId":544,"zipCode":6622,"name":"Skanör"},
{"ortId":545,"zipCode":7036,"name":"Gempol"},
{"ortId":546,"zipCode":3301,"name":"Song’ao"},
{"ortId":547,"zipCode":7189,"name":"Al Fujayrah"},
{"ortId":548,"zipCode":9977,"name":"Sennoy"},
{"ortId":549,"zipCode":8455,"name":"Floreşti"},
{"ortId":550,"zipCode":5009,"name":"Olkusz"},
{"ortId":551,"zipCode":7824,"name":"Noenoni"},
{"ortId":552,"zipCode":3749,"name":"Qingtang"},
{"ortId":553,"zipCode":4188,"name":"Novaya Derevnya"},
{"ortId":554,"zipCode":1226,"name":"Hangou"},
{"ortId":555,"zipCode":8419,"name":"Brangsi"},
{"ortId":556,"zipCode":2284,"name":"Minas de Matahambre"},
{"ortId":557,"zipCode":6867,"name":"Eláteia"},
{"ortId":558,"zipCode":8531,"name":"Taitung City"},
{"ortId":559,"zipCode":7415,"name":"Montonggamang"},
{"ortId":560,"zipCode":3061,"name":"Aserrío de Gariché"},
{"ortId":561,"zipCode":5160,"name":"Vallenar"},
{"ortId":562,"zipCode":2035,"name":"Bonoua"},
{"ortId":563,"zipCode":7716,"name":"Barobo"},
{"ortId":564,"zipCode":3527,"name":"Biaoshan"},
{"ortId":565,"zipCode":9108,"name":"Düsseldorf"},
{"ortId":566,"zipCode":5525,"name":"Tarłów"},
{"ortId":567,"zipCode":6520,"name":"Pokrov"},
{"ortId":568,"zipCode":2878,"name":"Tygda"},
{"ortId":569,"zipCode":5598,"name":"Hagonoy"},
{"ortId":570,"zipCode":9764,"name":"Bayramaly"},
{"ortId":571,"zipCode":3512,"name":"Qiansuo"},
{"ortId":572,"zipCode":7034,"name":"Belopa"},
{"ortId":573,"zipCode":1817,"name":"Qorovulbozor"},
{"ortId":574,"zipCode":8101,"name":"La Garenne-Colombes"},
{"ortId":575,"zipCode":6573,"name":"Vladislav"},
{"ortId":576,"zipCode":4011,"name":"Bājitpur"},
{"ortId":577,"zipCode":6002,"name":"Glugur Tengah"},
{"ortId":578,"zipCode":5540,"name":"Lazaro Cardenas"},
{"ortId":579,"zipCode":9598,"name":"Villa Nueva"},
{"ortId":580,"zipCode":7386,"name":"Barreiras"},
{"ortId":581,"zipCode":1374,"name":"Paderne"},
{"ortId":582,"zipCode":8196,"name":"Phnom Penh"},
{"ortId":583,"zipCode":3052,"name":"Banjar Beratan"},
{"ortId":584,"zipCode":8504,"name":"Ptení"},
{"ortId":585,"zipCode":1447,"name":"Paraisópolis"},
{"ortId":586,"zipCode":3182,"name":"Bristol"},
{"ortId":587,"zipCode":9195,"name":"Rosetta"},
{"ortId":588,"zipCode":5513,"name":"Batad"},
{"ortId":589,"zipCode":1044,"name":"Menzel Jemil"},
{"ortId":590,"zipCode":7167,"name":"Buritis"},
{"ortId":591,"zipCode":2920,"name":"Ribeirão Preto"},
{"ortId":592,"zipCode":7741,"name":"Tauranga"},
{"ortId":593,"zipCode":7800,"name":"Gainesville"},
{"ortId":594,"zipCode":5820,"name":"Xinwan"},
{"ortId":595,"zipCode":1389,"name":"Santa Lucía"},
{"ortId":596,"zipCode":8145,"name":"Yelizavetinskoye"},
{"ortId":597,"zipCode":2273,"name":"Kuantan"},
{"ortId":598,"zipCode":6209,"name":"Horní Suchá"},
{"ortId":599,"zipCode":7558,"name":"Ji’an"},
{"ortId":600,"zipCode":6508,"name":"Dawusu"},
{"ortId":601,"zipCode":6452,"name":"Lodhrān"},
{"ortId":602,"zipCode":3287,"name":"Pira"},
{"ortId":603,"zipCode":6892,"name":"Biguo"},
{"ortId":604,"zipCode":6281,"name":"Sikasso"},
{"ortId":605,"zipCode":9736,"name":"Aleksandrów"},
{"ortId":606,"zipCode":2541,"name":"Plácido de Castro"},
{"ortId":607,"zipCode":3746,"name":"Alubijid"},
{"ortId":608,"zipCode":3360,"name":"Jistebník"},
{"ortId":609,"zipCode":6660,"name":"Yershov"},
{"ortId":610,"zipCode":9670,"name":"Barice"},
{"ortId":611,"zipCode":1196,"name":"Nūsay"},
{"ortId":612,"zipCode":9651,"name":"Konga"},
{"ortId":613,"zipCode":5655,"name":"Santa Maria da Vitória"},
{"ortId":614,"zipCode":3071,"name":"Semalang"},
{"ortId":615,"zipCode":1797,"name":"Zhenxing"},
{"ortId":616,"zipCode":1876,"name":"Mengdong"},
{"ortId":617,"zipCode":5145,"name":"Rybnaya Sloboda"},
{"ortId":618,"zipCode":4011,"name":"Mancha Khiri"},
{"ortId":619,"zipCode":3425,"name":"Sitiarjo"},
{"ortId":620,"zipCode":1819,"name":"Quimper"},
{"ortId":621,"zipCode":7810,"name":"Lincheng"},
{"ortId":622,"zipCode":3828,"name":"Sibulan"},
{"ortId":623,"zipCode":7153,"name":"Huatai"},
{"ortId":624,"zipCode":8282,"name":"Komaki"},
{"ortId":625,"zipCode":8532,"name":"Mariestad"},
{"ortId":626,"zipCode":8019,"name":"Vĩnh Thuận"},
{"ortId":627,"zipCode":9583,"name":"El Arenal"},
{"ortId":628,"zipCode":2274,"name":"Köneürgench"},
{"ortId":629,"zipCode":5364,"name":"Arrah"},
{"ortId":630,"zipCode":3007,"name":"Nzega"},
{"ortId":631,"zipCode":3622,"name":"Ugep"},
{"ortId":632,"zipCode":5146,"name":"Tiberias"},
{"ortId":633,"zipCode":1005,"name":"Ciénega"},
{"ortId":634,"zipCode":4227,"name":"Hewa"},
{"ortId":635,"zipCode":6082,"name":"Brzączowice"},
{"ortId":636,"zipCode":9370,"name":"Jiukeng"},
{"ortId":637,"zipCode":2932,"name":"Kendayakan"},
{"ortId":638,"zipCode":3670,"name":"Layog"},
{"ortId":639,"zipCode":6530,"name":"Nāṟay"},
{"ortId":640,"zipCode":2560,"name":"Kebonsari Kidul"},
{"ortId":641,"zipCode":8916,"name":"Trongsa"},
{"ortId":642,"zipCode":1326,"name":"São Luís"},
{"ortId":643,"zipCode":8727,"name":"Pondokaso"},
{"ortId":644,"zipCode":3406,"name":"Mulleriyawa"},
{"ortId":645,"zipCode":5975,"name":"Pinara"},
{"ortId":646,"zipCode":6363,"name":"Columbus"},
{"ortId":647,"zipCode":5631,"name":"Yupiltepeque"},
{"ortId":648,"zipCode":9765,"name":"Eiguliai"},
{"ortId":649,"zipCode":3685,"name":"Headlands"},
{"ortId":650,"zipCode":3348,"name":"Xinzhai"},
{"ortId":651,"zipCode":5825,"name":"Pantai"},
{"ortId":652,"zipCode":8102,"name":"Yuyapichis"},
{"ortId":653,"zipCode":5395,"name":"Binulasan"},
{"ortId":654,"zipCode":9477,"name":"Puerto Berrío"},
{"ortId":655,"zipCode":9044,"name":"Luis Donaldo Colosio"},
{"ortId":656,"zipCode":9320,"name":"Leticia"},
{"ortId":657,"zipCode":5797,"name":"Nangen"},
{"ortId":658,"zipCode":7970,"name":"Nashville"},
{"ortId":659,"zipCode":1757,"name":"Philadelphia"},
{"ortId":660,"zipCode":6335,"name":"Mozirje"},
{"ortId":661,"zipCode":3688,"name":"New York City"},
{"ortId":662,"zipCode":6960,"name":"Skoútari"},
{"ortId":663,"zipCode":1852,"name":"Kuala Lumpur"},
{"ortId":664,"zipCode":6527,"name":"Sagaing"},
{"ortId":665,"zipCode":2686,"name":"Kawangohari"},
{"ortId":666,"zipCode":1144,"name":"Stockholm"},
{"ortId":667,"zipCode":6052,"name":"Colares"},
{"ortId":668,"zipCode":7412,"name":"Ostrów Lubelski"},
{"ortId":669,"zipCode":7734,"name":"Masoyila"},
{"ortId":670,"zipCode":2083,"name":"Bogandinskiy"},
{"ortId":671,"zipCode":9010,"name":"Zelenodolsk"},
{"ortId":672,"zipCode":7681,"name":"Soio"},
{"ortId":673,"zipCode":7566,"name":"Lorient"},
{"ortId":674,"zipCode":4370,"name":"Pergamos"},
{"ortId":675,"zipCode":4298,"name":"La Reforma"},
{"ortId":676,"zipCode":2341,"name":"Tianqian"},
{"ortId":677,"zipCode":9423,"name":"Deskáti"},
{"ortId":678,"zipCode":9191,"name":"Leudelange"},
{"ortId":679,"zipCode":9207,"name":"Xiangtan"},
{"ortId":680,"zipCode":8329,"name":"Palma De Mallorca"},
{"ortId":681,"zipCode":9103,"name":"Delvinë"},
{"ortId":682,"zipCode":1521,"name":"Koszarawa"},
{"ortId":683,"zipCode":2234,"name":"San Miguel"},
{"ortId":684,"zipCode":5297,"name":"Zhifudao"},
{"ortId":685,"zipCode":3413,"name":"Lefkoniko"},
{"ortId":686,"zipCode":3676,"name":"Cahuac"},
{"ortId":687,"zipCode":8625,"name":"Huangge"},
{"ortId":688,"zipCode":7146,"name":"Cipunglu"},
{"ortId":689,"zipCode":2879,"name":"Sypniewo"},
{"ortId":690,"zipCode":8222,"name":"Căuşeni"},
{"ortId":691,"zipCode":2033,"name":"Atibaia"},
{"ortId":692,"zipCode":4859,"name":"Zhongpai"},
{"ortId":693,"zipCode":1370,"name":"Lengshuitan"},
{"ortId":694,"zipCode":8497,"name":"Mineralni Bani"},
{"ortId":695,"zipCode":4849,"name":"Baler Baleagung"},
{"ortId":696,"zipCode":1630,"name":"Bangil"},
{"ortId":697,"zipCode":5591,"name":"Särkisalo"},
{"ortId":698,"zipCode":5574,"name":"Camaçari"},
{"ortId":699,"zipCode":8991,"name":"Mundão"},
{"ortId":700,"zipCode":2098,"name":"Naushahro Fīroz"},
{"ortId":701,"zipCode":9298,"name":"Vishnyakovskiye Dachi"},
{"ortId":702,"zipCode":9457,"name":"Kostarea Satu"},
{"ortId":703,"zipCode":5704,"name":"Zebrzydowice"},
{"ortId":704,"zipCode":4249,"name":"Caridade"},
{"ortId":705,"zipCode":4162,"name":"Žulová"},
{"ortId":706,"zipCode":3693,"name":"Paradyż"},
{"ortId":707,"zipCode":6494,"name":"Sishui"},
{"ortId":708,"zipCode":4475,"name":"Weishan"},
{"ortId":709,"zipCode":5234,"name":"Huangmei"},
{"ortId":710,"zipCode":6095,"name":"Konstantynów"},
{"ortId":711,"zipCode":5201,"name":"Boussé"},
{"ortId":712,"zipCode":1046,"name":"Ḩalabjah"},
{"ortId":713,"zipCode":1230,"name":"Oslo"},
{"ortId":714,"zipCode":2053,"name":"Nagbukel"},
{"ortId":715,"zipCode":5593,"name":"Pau"},
{"ortId":716,"zipCode":4485,"name":"Shpola"},
{"ortId":717,"zipCode":7365,"name":"Shimen"},
{"ortId":718,"zipCode":5253,"name":"Julayjilah"},
{"ortId":719,"zipCode":4387,"name":"Magang"},
{"ortId":720,"zipCode":6545,"name":"Vitrolles"},
{"ortId":721,"zipCode":1534,"name":"Kibondo"},
{"ortId":722,"zipCode":4124,"name":"Hernando"},
{"ortId":723,"zipCode":2071,"name":"‘Aşīrah ash Shamālīyah"},
{"ortId":724,"zipCode":3639,"name":"Téra"},
{"ortId":725,"zipCode":9651,"name":"Erlangkou"},
{"ortId":726,"zipCode":4962,"name":"Bergen"},
{"ortId":727,"zipCode":2269,"name":"Qinghu"},
{"ortId":728,"zipCode":9389,"name":"Sigeng"},
{"ortId":729,"zipCode":7545,"name":"Cingambul"},
{"ortId":730,"zipCode":6531,"name":"Mellieħa"},
{"ortId":731,"zipCode":5234,"name":"Vidyayevo"},
{"ortId":732,"zipCode":2602,"name":"Pesnica pri Mariboru"},
{"ortId":733,"zipCode":3427,"name":"Sobienie Jeziory"},
{"ortId":734,"zipCode":1393,"name":"Kiryandongo"},
{"ortId":735,"zipCode":2857,"name":"Haysyn"},
{"ortId":736,"zipCode":5898,"name":"Czarna Woda"},
{"ortId":737,"zipCode":9170,"name":"Qiangqinxue"},
{"ortId":738,"zipCode":1499,"name":"Durham"},
{"ortId":739,"zipCode":6942,"name":"Sātkania"},
{"ortId":740,"zipCode":7115,"name":"Christiana"},
{"ortId":741,"zipCode":5112,"name":"Malayal"},
{"ortId":742,"zipCode":4777,"name":"Itápolis"},
{"ortId":743,"zipCode":7075,"name":"El Fureidīs"},
{"ortId":744,"zipCode":1121,"name":"Azenhas do Mar"},
{"ortId":745,"zipCode":9273,"name":"Chaodi"},
{"ortId":746,"zipCode":5875,"name":"Bayt ‘Adhāqah"},
{"ortId":747,"zipCode":2192,"name":"Huo’erqi"},
{"ortId":748,"zipCode":4787,"name":"Shuihu"},
{"ortId":749,"zipCode":9241,"name":"Bergen"},
{"ortId":750,"zipCode":9821,"name":"Dimataling"},
{"ortId":751,"zipCode":8005,"name":"Färjestaden"},
{"ortId":752,"zipCode":3812,"name":"La Palma"},
{"ortId":753,"zipCode":1167,"name":"Shima"},
{"ortId":754,"zipCode":3747,"name":"Jinfeng"},
{"ortId":755,"zipCode":1402,"name":"Ad Dīwānīyah"},
{"ortId":756,"zipCode":4610,"name":"Kelungkung"},
{"ortId":757,"zipCode":1946,"name":"Renhe"},
{"ortId":758,"zipCode":3055,"name":"Níkaia"},
{"ortId":759,"zipCode":7846,"name":"Mas‘adah"},
{"ortId":760,"zipCode":7430,"name":"La Huerta"},
{"ortId":761,"zipCode":6278,"name":"Nezhinka"},
{"ortId":762,"zipCode":3791,"name":"San Pablo"},
{"ortId":763,"zipCode":6633,"name":"Dassa-Zoumé"},
{"ortId":764,"zipCode":2689,"name":"Matalam"},
{"ortId":765,"zipCode":3320,"name":"Novais"},
{"ortId":766,"zipCode":2670,"name":"Kassiri"},
{"ortId":767,"zipCode":4927,"name":"Xijiao"},
{"ortId":768,"zipCode":7516,"name":"Ampasimanolotra"},
{"ortId":769,"zipCode":6657,"name":"Komono"},
{"ortId":770,"zipCode":2774,"name":"Narutochō-mitsuishi"},
{"ortId":771,"zipCode":4314,"name":"Pyu"},
{"ortId":772,"zipCode":1965,"name":"Huolongping"},
{"ortId":773,"zipCode":3369,"name":"Kariat Arkmane"},
{"ortId":774,"zipCode":7854,"name":"Mar’’ina Horka"},
{"ortId":775,"zipCode":1397,"name":"Dasanlian Lauk"},
{"ortId":776,"zipCode":5515,"name":"Parapat"},
{"ortId":777,"zipCode":9720,"name":"Jasieniec"},
{"ortId":778,"zipCode":9533,"name":"Don Chedi"},
{"ortId":779,"zipCode":3267,"name":"Ymittos"},
{"ortId":780,"zipCode":9825,"name":"Bourg-lès-Valence"},
{"ortId":781,"zipCode":7652,"name":"Chuquitira"},
{"ortId":782,"zipCode":5723,"name":"Marsabit"},
{"ortId":783,"zipCode":3273,"name":"Ekenäs"},
{"ortId":784,"zipCode":5551,"name":"Tacoma"},
{"ortId":785,"zipCode":1488,"name":"No Kunda"},
{"ortId":786,"zipCode":3210,"name":"Kumla"},
{"ortId":787,"zipCode":6036,"name":"Wuxing"},
{"ortId":788,"zipCode":4236,"name":"Mshinskaya"},
{"ortId":789,"zipCode":5518,"name":"Ibirité"},
{"ortId":790,"zipCode":4202,"name":"Salanegara"},
{"ortId":791,"zipCode":9275,"name":"Birigui"},
{"ortId":792,"zipCode":9072,"name":"Dolores"},
{"ortId":793,"zipCode":4908,"name":"Shangsanji"},
{"ortId":794,"zipCode":6055,"name":"Kotaagung"},
{"ortId":795,"zipCode":5089,"name":"Virolahti"},
{"ortId":796,"zipCode":5338,"name":"Pirg"},
{"ortId":797,"zipCode":7649,"name":"Tal’ne"},
{"ortId":798,"zipCode":5025,"name":"Xingong"},
{"ortId":799,"zipCode":6015,"name":"Kamennogorsk"},
{"ortId":800,"zipCode":6049,"name":"Kingston"},
{"ortId":801,"zipCode":1650,"name":"Florianópolis"},
{"ortId":802,"zipCode":4096,"name":"Louisville"},
{"ortId":803,"zipCode":3667,"name":"Vaiusu"},
{"ortId":804,"zipCode":7896,"name":"Su-dong"},
{"ortId":805,"zipCode":4960,"name":"Pining"},
{"ortId":806,"zipCode":6546,"name":"Moutsamoudou"},
{"ortId":807,"zipCode":8455,"name":"Har-Us"},
{"ortId":808,"zipCode":9305,"name":"Fengchuan"},
{"ortId":809,"zipCode":4613,"name":"Smolyan"},
{"ortId":810,"zipCode":3931,"name":"Limoges"},
{"ortId":811,"zipCode":4567,"name":"Chengtian"},
{"ortId":812,"zipCode":8444,"name":"Nkove"},
{"ortId":813,"zipCode":9276,"name":"Shizunai-furukawachō"},
{"ortId":814,"zipCode":4838,"name":"Homa Bay"},
{"ortId":815,"zipCode":1232,"name":"Paris La Défense"},
{"ortId":816,"zipCode":5089,"name":"Novais"},
{"ortId":817,"zipCode":8405,"name":"Vršac"},
{"ortId":818,"zipCode":4839,"name":"Independencia"},
{"ortId":819,"zipCode":8913,"name":"Hienghène"},
{"ortId":820,"zipCode":1175,"name":"Kuteynykove"},
{"ortId":821,"zipCode":3654,"name":"Paris 11"},
{"ortId":822,"zipCode":4215,"name":"Pinaring"},
{"ortId":823,"zipCode":9918,"name":"Vila Franca do Campo"},
{"ortId":824,"zipCode":7271,"name":"Alqueva"},
{"ortId":825,"zipCode":6053,"name":"Oenam"},
{"ortId":826,"zipCode":5733,"name":"Qingtang"},
{"ortId":827,"zipCode":5232,"name":"Carregal"},
{"ortId":828,"zipCode":8590,"name":"Shiqiao"},
{"ortId":829,"zipCode":4071,"name":"Shigou"},
{"ortId":830,"zipCode":3112,"name":"Ishurdi"},
{"ortId":831,"zipCode":3328,"name":"Sauce"},
{"ortId":832,"zipCode":6780,"name":"Fontvieille"},
{"ortId":833,"zipCode":9247,"name":"Obertyn"},
{"ortId":834,"zipCode":6530,"name":"Purral"},
{"ortId":835,"zipCode":6241,"name":"Pataruman"},
{"ortId":836,"zipCode":1523,"name":"Zhongxiao"},
{"ortId":837,"zipCode":2179,"name":"Lurugan"},
{"ortId":838,"zipCode":8177,"name":"Bugko"},
{"ortId":839,"zipCode":4265,"name":"Tangjin"},
{"ortId":840,"zipCode":6281,"name":"Huarancante"},
{"ortId":841,"zipCode":9724,"name":"Labruge"},
{"ortId":842,"zipCode":9007,"name":"Ying’ebu"},
{"ortId":843,"zipCode":7952,"name":"Shangma"},
{"ortId":844,"zipCode":9775,"name":"Raheny"},
{"ortId":845,"zipCode":4006,"name":"Heimahe"},
{"ortId":846,"zipCode":8936,"name":"Karanggeneng"},
{"ortId":847,"zipCode":3073,"name":"Ngulahan"},
{"ortId":848,"zipCode":8488,"name":"Thun"},
{"ortId":849,"zipCode":3641,"name":"Siluman"},
{"ortId":850,"zipCode":4999,"name":"Beizhouzi"},
{"ortId":851,"zipCode":9974,"name":"Tatsunochō-tominaga"},
{"ortId":852,"zipCode":6468,"name":"Centre de Flacq"},
{"ortId":853,"zipCode":8899,"name":"Ichinohe"},
{"ortId":854,"zipCode":3673,"name":"Huangnihe"},
{"ortId":855,"zipCode":7023,"name":"Rawasan"},
{"ortId":856,"zipCode":5728,"name":"Lingbei"},
{"ortId":857,"zipCode":9316,"name":"Gaojialing"},
{"ortId":858,"zipCode":7079,"name":"Leyuan"},
{"ortId":859,"zipCode":3431,"name":"Przasnysz"},
{"ortId":860,"zipCode":4277,"name":"Warudoyong"},
{"ortId":861,"zipCode":6346,"name":"Phatthalung"},
{"ortId":862,"zipCode":9118,"name":"Banzão"},
{"ortId":863,"zipCode":7473,"name":"Cayungnan"},
{"ortId":864,"zipCode":3235,"name":"Farīdpur"},
{"ortId":865,"zipCode":3564,"name":"Mistrató"},
{"ortId":866,"zipCode":1938,"name":"Banjarjo"},
{"ortId":867,"zipCode":6339,"name":"Vardablur"},
{"ortId":868,"zipCode":8742,"name":"Maiyema"},
{"ortId":869,"zipCode":6194,"name":"Laliki"},
{"ortId":870,"zipCode":2563,"name":"Houten"},
{"ortId":871,"zipCode":1060,"name":"Daegu"},
{"ortId":872,"zipCode":5645,"name":"Marshintsy"},
{"ortId":873,"zipCode":4422,"name":"Hrtkovci"},
{"ortId":874,"zipCode":7616,"name":"Obolo-Eke (1)"},
{"ortId":875,"zipCode":8795,"name":"San Lorenzo de Esmeraldas"},
{"ortId":876,"zipCode":7515,"name":"Arroyo Seco"},
{"ortId":877,"zipCode":1839,"name":"Odintsovo"},
{"ortId":878,"zipCode":6705,"name":"Hebu"},
{"ortId":879,"zipCode":3718,"name":"Mbumi"},
{"ortId":880,"zipCode":6919,"name":"Wairiang"},
{"ortId":881,"zipCode":2636,"name":"Toulon"},
{"ortId":882,"zipCode":1518,"name":"Fumin"},
{"ortId":883,"zipCode":3277,"name":"Zavidovo"},
{"ortId":884,"zipCode":7719,"name":"Liure"},
{"ortId":885,"zipCode":9339,"name":"Moreno"},
{"ortId":886,"zipCode":8376,"name":"Karangmulyo"},
{"ortId":887,"zipCode":7654,"name":"Papelón"},
{"ortId":888,"zipCode":5616,"name":"Mtubatuba"},
{"ortId":889,"zipCode":7009,"name":"Lyon"},
{"ortId":890,"zipCode":5716,"name":"Pacajus"},
{"ortId":891,"zipCode":7555,"name":"Blois"},
{"ortId":892,"zipCode":5522,"name":"Göteborg"},
{"ortId":893,"zipCode":9321,"name":"Medalem"},
{"ortId":894,"zipCode":2642,"name":"San Juan Ermita"},
{"ortId":895,"zipCode":1307,"name":"Pidvolochys’k"},
{"ortId":896,"zipCode":3692,"name":"Angatel"},
{"ortId":897,"zipCode":8733,"name":"Anserma"},
{"ortId":898,"zipCode":7137,"name":"Valuyki"},
{"ortId":899,"zipCode":3270,"name":"Plužine"},
{"ortId":900,"zipCode":6245,"name":"Santiago Atitlán"},
{"ortId":901,"zipCode":5421,"name":"Acobamba"},
{"ortId":902,"zipCode":8155,"name":"Nakhon Ratchasima"},
{"ortId":903,"zipCode":7483,"name":"Binawara"},
{"ortId":904,"zipCode":9591,"name":"Lipovci"},
{"ortId":905,"zipCode":9148,"name":"Oebaki"},
{"ortId":906,"zipCode":5001,"name":"Smiths Falls"},
{"ortId":907,"zipCode":3936,"name":"Lanshan"},
{"ortId":908,"zipCode":6645,"name":"Phra Phutthabat"},
{"ortId":909,"zipCode":6370,"name":"Jingzhuang"},
{"ortId":910,"zipCode":6186,"name":"Lyubar"},
{"ortId":911,"zipCode":4237,"name":"Carazinho"},
{"ortId":912,"zipCode":8606,"name":"Kyra"},
{"ortId":913,"zipCode":6632,"name":"Wudui"},
{"ortId":914,"zipCode":4738,"name":"Marttila"},
{"ortId":915,"zipCode":9203,"name":"Airmadidi"},
{"ortId":916,"zipCode":4812,"name":"Nizhniy Kislyay"},
{"ortId":917,"zipCode":6840,"name":"Lacroix-Saint-Ouen"},
{"ortId":918,"zipCode":4140,"name":"Shah Alam"},
{"ortId":919,"zipCode":5970,"name":"Campo Grande"},
{"ortId":920,"zipCode":3592,"name":"Isniq"},
{"ortId":921,"zipCode":3482,"name":"Cerro de Pasco"},
{"ortId":922,"zipCode":5175,"name":"Starcevica"},
{"ortId":923,"zipCode":5054,"name":"Mtimbira"},
{"ortId":924,"zipCode":8087,"name":"Karamat"},
{"ortId":925,"zipCode":4123,"name":"Satowebrang"},
{"ortId":926,"zipCode":8937,"name":"Timbuktu"},
{"ortId":927,"zipCode":7092,"name":"Skopje"},
{"ortId":928,"zipCode":9850,"name":"Petkovci"},
{"ortId":929,"zipCode":8471,"name":"Kyzylzhar"},
{"ortId":930,"zipCode":8768,"name":"Dongxi"},
{"ortId":931,"zipCode":7430,"name":"Kaélé"},
{"ortId":932,"zipCode":7482,"name":"Mabini"},
{"ortId":933,"zipCode":8100,"name":"Querocotillo"},
{"ortId":934,"zipCode":9175,"name":"Krajan Karangsari"},
{"ortId":935,"zipCode":4733,"name":"Banjar Dauhmargi"},
{"ortId":936,"zipCode":5363,"name":"Plavy"},
{"ortId":937,"zipCode":4979,"name":"Kuchinarai"},
{"ortId":938,"zipCode":1313,"name":"Vorontsovka"},
{"ortId":939,"zipCode":8797,"name":"Solna"},
{"ortId":940,"zipCode":2303,"name":"Santa Cruz das Palmeiras"},
{"ortId":941,"zipCode":6070,"name":"Haradok"},
{"ortId":942,"zipCode":6276,"name":"União"},
{"ortId":943,"zipCode":7394,"name":"Momanalu"},
{"ortId":944,"zipCode":6274,"name":"Corona"},
{"ortId":945,"zipCode":6739,"name":"Lhasa"},
{"ortId":946,"zipCode":5326,"name":"San Diego"},
{"ortId":947,"zipCode":6388,"name":"Almenara"},
{"ortId":948,"zipCode":7964,"name":"Pueblo Nuevo Viñas"},
{"ortId":949,"zipCode":6099,"name":"Ban Na Muang"},
{"ortId":950,"zipCode":2635,"name":"Mata Grande"},
{"ortId":951,"zipCode":6330,"name":"Hecheng"},
{"ortId":952,"zipCode":3036,"name":"Zátor"},
{"ortId":953,"zipCode":5537,"name":"Bondoufle"},
{"ortId":954,"zipCode":1793,"name":"Nakuru"},
{"ortId":955,"zipCode":3413,"name":"Almere Haven"},
{"ortId":956,"zipCode":2350,"name":"Quillota"},
{"ortId":957,"zipCode":7651,"name":"Ticllos"},
{"ortId":958,"zipCode":6631,"name":"Abuxarda"},
{"ortId":959,"zipCode":2300,"name":"Sebuku"},
{"ortId":960,"zipCode":4033,"name":"Shiyan"},
{"ortId":961,"zipCode":3864,"name":"Banjar Tengah"},
{"ortId":962,"zipCode":2219,"name":"Stryszów"},
{"ortId":963,"zipCode":2808,"name":"Shengmi"},
{"ortId":964,"zipCode":8148,"name":"Arteni"},
{"ortId":965,"zipCode":7466,"name":"La Bélgica"},
{"ortId":966,"zipCode":5564,"name":"Meixian"},
{"ortId":967,"zipCode":1279,"name":"Shenavan"},
{"ortId":968,"zipCode":8587,"name":"Phủ Thông"},
{"ortId":969,"zipCode":1604,"name":"Ipoh"},
{"ortId":970,"zipCode":1877,"name":"Steinkjer"},
{"ortId":971,"zipCode":2539,"name":"Pappadátes"},
{"ortId":972,"zipCode":8707,"name":"Venado Tuerto"},
{"ortId":973,"zipCode":5977,"name":"Markaz al Marīr"},
{"ortId":974,"zipCode":8369,"name":"Bailiang"},
{"ortId":975,"zipCode":2370,"name":"Envigado"},
{"ortId":976,"zipCode":1060,"name":"Lagunillas"},
{"ortId":977,"zipCode":6252,"name":"El Alto"},
{"ortId":978,"zipCode":9179,"name":"Zopilotepe"},
{"ortId":979,"zipCode":6438,"name":"Laba Goumen"},
{"ortId":980,"zipCode":1341,"name":"Lampa"},
{"ortId":981,"zipCode":4840,"name":"Pule"},
{"ortId":982,"zipCode":2786,"name":"København"},
{"ortId":983,"zipCode":9798,"name":"Santiago de los Caballeros"},
{"ortId":984,"zipCode":4129,"name":"Mujur"},
{"ortId":985,"zipCode":6242,"name":"Huangsha"},
{"ortId":986,"zipCode":3919,"name":"Torino"},
{"ortId":987,"zipCode":5444,"name":"Mikhaylovskoye"},
{"ortId":988,"zipCode":6266,"name":"Voronezh"},
{"ortId":989,"zipCode":8381,"name":"Vithkuq"},
{"ortId":990,"zipCode":9085,"name":"Palma Soriano"},
{"ortId":991,"zipCode":2102,"name":"Salam"},
{"ortId":992,"zipCode":4908,"name":"Duisburg"},
{"ortId":993,"zipCode":4678,"name":"Maoping"},
{"ortId":994,"zipCode":5852,"name":"Tufang"},
{"ortId":995,"zipCode":1990,"name":"Fermont"},
{"ortId":996,"zipCode":2634,"name":"Nioumamilima"},
{"ortId":997,"zipCode":7186,"name":"Rungis"},
{"ortId":998,"zipCode":7884,"name":"Irshava"},
{"ortId":999,"zipCode":4050,"name":"Mainque"},
{"ortId":1000,"zipCode":8862,"name":"Kambaxoi"}]