[{"adresse":{"adressId":1,"strasse":"Clarendon","nummer":"7677","ortId":1},"ort":{"ortId":1,"zipCode":4839,"name":"Gandapura"}},
{"adresse":{"adressId":2,"strasse":"Lakewood","nummer":"7832","ortId":2},"ort":{"ortId":2,"zipCode":4366,"name":"Bagusan"}},
{"adresse":{"adressId":3,"strasse":"Cody","nummer":"0","ortId":3},"ort":{"ortId":3,"zipCode":5534,"name":"Batojaran"}},
{"adresse":{"adressId":4,"strasse":"Melody","nummer":"87661","ortId":4},"ort":{"ortId":4,"zipCode":7173,"name":"Isanlu Itedoijowa"}},
{"adresse":{"adressId":5,"strasse":"Gale","nummer":"58556","ortId":5},"ort":{"ortId":5,"zipCode":9589,"name":"Kotabaru"}},
{"adresse":{"adressId":6,"strasse":"Spohn","nummer":"92","ortId":6},"ort":{"ortId":6,"zipCode":3309,"name":"Cuilco"}},
{"adresse":{"adressId":7,"strasse":"Rieder","nummer":"13","ortId":7},"ort":{"ortId":7,"zipCode":6868,"name":"Puerto Madryn"}},
{"adresse":{"adressId":8,"strasse":"Mandrake","nummer":"749","ortId":8},"ort":{"ortId":8,"zipCode":5565,"name":"Nikki"}},
{"adresse":{"adressId":9,"strasse":"Sage","nummer":"3","ortId":9},"ort":{"ortId":9,"zipCode":9263,"name":"Xinjie"}},
{"adresse":{"adressId":10,"strasse":"Spaight","nummer":"13972","ortId":10},"ort":{"ortId":10,"zipCode":8830,"name":"Zhongxinqiao"}},
{"adresse":{"adressId":11,"strasse":"Debra","nummer":"2","ortId":11},"ort":{"ortId":11,"zipCode":2020,"name":"Ust’-Uda"}},
{"adresse":{"adressId":12,"strasse":"Green Ridge","nummer":"2378","ortId":12},"ort":{"ortId":12,"zipCode":6678,"name":"Goulmima"}},
{"adresse":{"adressId":13,"strasse":"Hoepker","nummer":"68013","ortId":13},"ort":{"ortId":13,"zipCode":4099,"name":"Igoumenítsa"}},
{"adresse":{"adressId":14,"strasse":"Cordelia","nummer":"34","ortId":14},"ort":{"ortId":14,"zipCode":6367,"name":"Rogów"}},
{"adresse":{"adressId":15,"strasse":"Scofield","nummer":"28","ortId":15},"ort":{"ortId":15,"zipCode":8352,"name":"Afaahiti"}},
{"adresse":{"adressId":16,"strasse":"Chinook","nummer":"8198","ortId":16},"ort":{"ortId":16,"zipCode":5793,"name":"Lesnyye Polyany"}},
{"adresse":{"adressId":17,"strasse":"Truax","nummer":"3829","ortId":17},"ort":{"ortId":17,"zipCode":3382,"name":"Changpu"}},
{"adresse":{"adressId":18,"strasse":"John Wall","nummer":"80","ortId":18},"ort":{"ortId":18,"zipCode":2289,"name":"Hecheng"}},
{"adresse":{"adressId":19,"strasse":"Kensington","nummer":"80521","ortId":19},"ort":{"ortId":19,"zipCode":6143,"name":"Masina"}},
{"adresse":{"adressId":20,"strasse":"Atwood","nummer":"6574","ortId":20},"ort":{"ortId":20,"zipCode":5637,"name":"Staryy Saltiv"}},
{"adresse":{"adressId":21,"strasse":"Barnett","nummer":"0","ortId":21},"ort":{"ortId":21,"zipCode":1027,"name":"Stockholm"}},
{"adresse":{"adressId":22,"strasse":"Reindahl","nummer":"77","ortId":22},"ort":{"ortId":22,"zipCode":9204,"name":"Bowen Island"}},
{"adresse":{"adressId":23,"strasse":"Fair Oaks","nummer":"811","ortId":23},"ort":{"ortId":23,"zipCode":1312,"name":"Kebloran"}},
{"adresse":{"adressId":24,"strasse":"Darwin","nummer":"60574","ortId":24},"ort":{"ortId":24,"zipCode":4521,"name":"Batouri"}},
{"adresse":{"adressId":25,"strasse":"Welch","nummer":"1521","ortId":25},"ort":{"ortId":25,"zipCode":8751,"name":"Bailu"}},
{"adresse":{"adressId":26,"strasse":"Butternut","nummer":"08","ortId":26},"ort":{"ortId":26,"zipCode":5030,"name":"Tenkodogo"}},
{"adresse":{"adressId":27,"strasse":"Thompson","nummer":"3651","ortId":27},"ort":{"ortId":27,"zipCode":5293,"name":"Norrköping"}},
{"adresse":{"adressId":28,"strasse":"Brentwood","nummer":"64","ortId":28},"ort":{"ortId":28,"zipCode":2402,"name":"Hengjie"}},
{"adresse":{"adressId":29,"strasse":"Pine View","nummer":"03794","ortId":29},"ort":{"ortId":29,"zipCode":5187,"name":"Lenger"}},
{"adresse":{"adressId":30,"strasse":"Canary","nummer":"22186","ortId":30},"ort":{"ortId":30,"zipCode":7645,"name":"Kalibo (poblacion)"}},
{"adresse":{"adressId":31,"strasse":"Mockingbird","nummer":"8473","ortId":31},"ort":{"ortId":31,"zipCode":1374,"name":"Kurów"}},
{"adresse":{"adressId":32,"strasse":"Corscot","nummer":"06827","ortId":32},"ort":{"ortId":32,"zipCode":7037,"name":"Dioila"}},
{"adresse":{"adressId":33,"strasse":"Oak","nummer":"57875","ortId":33},"ort":{"ortId":33,"zipCode":2373,"name":"Dankama"}},
{"adresse":{"adressId":34,"strasse":"Moulton","nummer":"6","ortId":34},"ort":{"ortId":34,"zipCode":8830,"name":"Cantagallo"}},
{"adresse":{"adressId":35,"strasse":"Parkside","nummer":"17","ortId":35},"ort":{"ortId":35,"zipCode":4793,"name":"Xiaomiaozi"}},
{"adresse":{"adressId":36,"strasse":"Division","nummer":"0039","ortId":36},"ort":{"ortId":36,"zipCode":9228,"name":"Griboyedov"}},
{"adresse":{"adressId":37,"strasse":"High Crossing","nummer":"99","ortId":37},"ort":{"ortId":37,"zipCode":6412,"name":"Dolores"}},
{"adresse":{"adressId":38,"strasse":"Dorton","nummer":"987","ortId":38},"ort":{"ortId":38,"zipCode":6719,"name":"Independencia"}},
{"adresse":{"adressId":39,"strasse":"Oneill","nummer":"57842","ortId":39},"ort":{"ortId":39,"zipCode":9966,"name":"Ożarów"}},
{"adresse":{"adressId":40,"strasse":"Spaight","nummer":"31","ortId":40},"ort":{"ortId":40,"zipCode":3093,"name":"Fairbanks"}},
{"adresse":{"adressId":41,"strasse":"Mesta","nummer":"07","ortId":41},"ort":{"ortId":41,"zipCode":4950,"name":"Galovac"}},
{"adresse":{"adressId":42,"strasse":"Prairieview","nummer":"1117","ortId":42},"ort":{"ortId":42,"zipCode":5179,"name":"Gan Yavne"}},
{"adresse":{"adressId":43,"strasse":"Montana","nummer":"7400","ortId":43},"ort":{"ortId":43,"zipCode":7914,"name":"Ar Ruḩaybah"}},
{"adresse":{"adressId":44,"strasse":"Crownhardt","nummer":"242","ortId":44},"ort":{"ortId":44,"zipCode":9571,"name":"Madolenihm Municipality Government"}},
{"adresse":{"adressId":45,"strasse":"Mcguire","nummer":"123","ortId":45},"ort":{"ortId":45,"zipCode":3809,"name":"Shilaoren"}},
{"adresse":{"adressId":46,"strasse":"Hovde","nummer":"20","ortId":46},"ort":{"ortId":46,"zipCode":6629,"name":"Yulin"}},
{"adresse":{"adressId":47,"strasse":"Sherman","nummer":"5317","ortId":47},"ort":{"ortId":47,"zipCode":7460,"name":"General Guido"}},
{"adresse":{"adressId":48,"strasse":"Kingsford","nummer":"119","ortId":48},"ort":{"ortId":48,"zipCode":4674,"name":"Strazhitsa"}},
{"adresse":{"adressId":49,"strasse":"Golf","nummer":"04785","ortId":49},"ort":{"ortId":49,"zipCode":8660,"name":"Nowy Dwór Mazowiecki"}},
{"adresse":{"adressId":50,"strasse":"Rutledge","nummer":"2","ortId":50},"ort":{"ortId":50,"zipCode":9803,"name":"Qingshu"}},
{"adresse":{"adressId":51,"strasse":"Hanover","nummer":"05","ortId":51},"ort":{"ortId":51,"zipCode":1227,"name":"Granada"}},
{"adresse":{"adressId":52,"strasse":"Lawn","nummer":"54","ortId":52},"ort":{"ortId":52,"zipCode":1301,"name":"Jiangjia"}},
{"adresse":{"adressId":53,"strasse":"Summerview","nummer":"04","ortId":53},"ort":{"ortId":53,"zipCode":2269,"name":"Kyrylivka"}},
{"adresse":{"adressId":54,"strasse":"Continental","nummer":"71243","ortId":54},"ort":{"ortId":54,"zipCode":3422,"name":"Lýkeio"}},
{"adresse":{"adressId":55,"strasse":"Carioca","nummer":"96258","ortId":55},"ort":{"ortId":55,"zipCode":8380,"name":"Gómez"}},
{"adresse":{"adressId":56,"strasse":"Texas","nummer":"595","ortId":56},"ort":{"ortId":56,"zipCode":6155,"name":"Makuyuni"}},
{"adresse":{"adressId":57,"strasse":"Ridgeway","nummer":"3","ortId":57},"ort":{"ortId":57,"zipCode":2554,"name":"El Fureidīs"}},
{"adresse":{"adressId":58,"strasse":"Old Gate","nummer":"5038","ortId":58},"ort":{"ortId":58,"zipCode":8499,"name":"Musalerr"}},
{"adresse":{"adressId":59,"strasse":"Pawling","nummer":"29696","ortId":59},"ort":{"ortId":59,"zipCode":8354,"name":"Looc"}},
{"adresse":{"adressId":60,"strasse":"Rockefeller","nummer":"533","ortId":60},"ort":{"ortId":60,"zipCode":9944,"name":"Jinshan"}},
{"adresse":{"adressId":61,"strasse":"Redwing","nummer":"171","ortId":61},"ort":{"ortId":61,"zipCode":3413,"name":"San Jacinto"}},
{"adresse":{"adressId":62,"strasse":"Roth","nummer":"265","ortId":62},"ort":{"ortId":62,"zipCode":9521,"name":"Hyżne"}},
{"adresse":{"adressId":63,"strasse":"Johnson","nummer":"4","ortId":63},"ort":{"ortId":63,"zipCode":1210,"name":"Manuel Antonio Mesones Muro"}},
{"adresse":{"adressId":64,"strasse":"Portage","nummer":"4","ortId":64},"ort":{"ortId":64,"zipCode":7915,"name":"Bahir Dar"}},
{"adresse":{"adressId":65,"strasse":"Johnson","nummer":"9334","ortId":65},"ort":{"ortId":65,"zipCode":4065,"name":"Shifan"}},
{"adresse":{"adressId":66,"strasse":"Golf View","nummer":"5","ortId":66},"ort":{"ortId":66,"zipCode":1433,"name":"El Cuy"}},
{"adresse":{"adressId":67,"strasse":"Bay","nummer":"5111","ortId":67},"ort":{"ortId":67,"zipCode":4468,"name":"Estrada"}},
{"adresse":{"adressId":68,"strasse":"Esch","nummer":"25300","ortId":68},"ort":{"ortId":68,"zipCode":1211,"name":"Adani"}},
{"adresse":{"adressId":69,"strasse":"Butternut","nummer":"148","ortId":69},"ort":{"ortId":69,"zipCode":9607,"name":"Navais"}},
{"adresse":{"adressId":70,"strasse":"Harbort","nummer":"69","ortId":70},"ort":{"ortId":70,"zipCode":4572,"name":"Legaspi"}},
{"adresse":{"adressId":71,"strasse":"Green Ridge","nummer":"36450","ortId":71},"ort":{"ortId":71,"zipCode":4739,"name":"Florianópolis"}},
{"adresse":{"adressId":72,"strasse":"Hoepker","nummer":"027","ortId":72},"ort":{"ortId":72,"zipCode":5848,"name":"Wonotirto"}},
{"adresse":{"adressId":73,"strasse":"Russell","nummer":"35290","ortId":73},"ort":{"ortId":73,"zipCode":4288,"name":"Xiangshui"}},
{"adresse":{"adressId":74,"strasse":"Butterfield","nummer":"54646","ortId":74},"ort":{"ortId":74,"zipCode":9388,"name":"Duogongma"}},
{"adresse":{"adressId":75,"strasse":"Portage","nummer":"48","ortId":75},"ort":{"ortId":75,"zipCode":3427,"name":"Naranjal"}},
{"adresse":{"adressId":76,"strasse":"Dawn","nummer":"56","ortId":76},"ort":{"ortId":76,"zipCode":2103,"name":"Changning"}},
{"adresse":{"adressId":77,"strasse":"Golf View","nummer":"24","ortId":77},"ort":{"ortId":77,"zipCode":8150,"name":"Los Algarrobos"}},
{"adresse":{"adressId":78,"strasse":"Oak","nummer":"353","ortId":78},"ort":{"ortId":78,"zipCode":7707,"name":"San Pedro"}},
{"adresse":{"adressId":79,"strasse":"Transport","nummer":"78","ortId":79},"ort":{"ortId":79,"zipCode":4558,"name":"'Ali Sabieh"}},
{"adresse":{"adressId":80,"strasse":"Orin","nummer":"16986","ortId":80},"ort":{"ortId":80,"zipCode":1976,"name":"Norton"}},
{"adresse":{"adressId":81,"strasse":"Anthes","nummer":"74007","ortId":81},"ort":{"ortId":81,"zipCode":6424,"name":"Busia"}},
{"adresse":{"adressId":82,"strasse":"Kings","nummer":"0373","ortId":82},"ort":{"ortId":82,"zipCode":7855,"name":"Ambohitseheno"}},
{"adresse":{"adressId":83,"strasse":"Norway Maple","nummer":"0240","ortId":83},"ort":{"ortId":83,"zipCode":8763,"name":"Lusambo"}},
{"adresse":{"adressId":84,"strasse":"Park Meadow","nummer":"13843","ortId":84},"ort":{"ortId":84,"zipCode":5262,"name":"Gapan"}},
{"adresse":{"adressId":85,"strasse":"Clove","nummer":"78","ortId":85},"ort":{"ortId":85,"zipCode":8522,"name":"Hāsilpur"}},
{"adresse":{"adressId":86,"strasse":"Hermina","nummer":"324","ortId":86},"ort":{"ortId":86,"zipCode":6419,"name":"Katakwi"}},
{"adresse":{"adressId":87,"strasse":"Eggendart","nummer":"905","ortId":87},"ort":{"ortId":87,"zipCode":4719,"name":"Amangarh"}},
{"adresse":{"adressId":88,"strasse":"Montana","nummer":"0","ortId":88},"ort":{"ortId":88,"zipCode":3106,"name":"Guisa"}},
{"adresse":{"adressId":89,"strasse":"Autumn Leaf","nummer":"142","ortId":89},"ort":{"ortId":89,"zipCode":5308,"name":"Uchaly"}},
{"adresse":{"adressId":90,"strasse":"Mcbride","nummer":"7508","ortId":90},"ort":{"ortId":90,"zipCode":4733,"name":"Guamal"}},
{"adresse":{"adressId":91,"strasse":"Vernon","nummer":"01985","ortId":91},"ort":{"ortId":91,"zipCode":4882,"name":"Yangwei"}},
{"adresse":{"adressId":92,"strasse":"Blue Bill Park","nummer":"4","ortId":92},"ort":{"ortId":92,"zipCode":9113,"name":"Mache"}},
{"adresse":{"adressId":93,"strasse":"Luster","nummer":"61719","ortId":93},"ort":{"ortId":93,"zipCode":2623,"name":"Pamungguan"}},
{"adresse":{"adressId":94,"strasse":"Ilene","nummer":"9","ortId":94},"ort":{"ortId":94,"zipCode":8204,"name":"Jubaoshan"}},
{"adresse":{"adressId":95,"strasse":"Browning","nummer":"1935","ortId":95},"ort":{"ortId":95,"zipCode":9468,"name":"Xinmen"}},
{"adresse":{"adressId":96,"strasse":"Katie","nummer":"6815","ortId":96},"ort":{"ortId":96,"zipCode":5294,"name":"San Diego"}},
{"adresse":{"adressId":97,"strasse":"Morning","nummer":"87","ortId":97},"ort":{"ortId":97,"zipCode":6637,"name":"Kotakan Selatan"}},
{"adresse":{"adressId":98,"strasse":"Alpine","nummer":"22899","ortId":98},"ort":{"ortId":98,"zipCode":7876,"name":"Amsterdam Oud Zuid en Rivierenbuurt"}},
{"adresse":{"adressId":99,"strasse":"Autumn Leaf","nummer":"9","ortId":99},"ort":{"ortId":99,"zipCode":2274,"name":"Bobigny"}},
{"adresse":{"adressId":100,"strasse":"Mccormick","nummer":"7254","ortId":100},"ort":{"ortId":100,"zipCode":7771,"name":"Alegria"}},
{"adresse":{"adressId":101,"strasse":"Anniversary","nummer":"57","ortId":101},"ort":{"ortId":101,"zipCode":7482,"name":"Arles"}},
{"adresse":{"adressId":102,"strasse":"Lyons","nummer":"04","ortId":102},"ort":{"ortId":102,"zipCode":3074,"name":"Hatogaya-honchō"}},
{"adresse":{"adressId":103,"strasse":"Bartillon","nummer":"607","ortId":103},"ort":{"ortId":103,"zipCode":5065,"name":"Soubré"}},
{"adresse":{"adressId":104,"strasse":"Loomis","nummer":"67571","ortId":104},"ort":{"ortId":104,"zipCode":6133,"name":"Long Loreh"}},
{"adresse":{"adressId":105,"strasse":"2nd","nummer":"79342","ortId":105},"ort":{"ortId":105,"zipCode":7051,"name":"Täby"}},
{"adresse":{"adressId":106,"strasse":"Coleman","nummer":"26732","ortId":106},"ort":{"ortId":106,"zipCode":4146,"name":"Al Jadīd"}},
{"adresse":{"adressId":107,"strasse":"Elgar","nummer":"782","ortId":107},"ort":{"ortId":107,"zipCode":1882,"name":"Slovenj Gradec"}},
{"adresse":{"adressId":108,"strasse":"Mallory","nummer":"5276","ortId":108},"ort":{"ortId":108,"zipCode":9035,"name":"Nāgarpur"}},
{"adresse":{"adressId":109,"strasse":"Rowland","nummer":"99682","ortId":109},"ort":{"ortId":109,"zipCode":9092,"name":"Can-asujan"}},
{"adresse":{"adressId":110,"strasse":"Weeping Birch","nummer":"322","ortId":110},"ort":{"ortId":110,"zipCode":9998,"name":"Bunawan"}},
{"adresse":{"adressId":111,"strasse":"Grayhawk","nummer":"38515","ortId":111},"ort":{"ortId":111,"zipCode":6776,"name":"Gludug"}},
{"adresse":{"adressId":112,"strasse":"Hermina","nummer":"163","ortId":112},"ort":{"ortId":112,"zipCode":4841,"name":"Krajan"}},
{"adresse":{"adressId":113,"strasse":"Pine View","nummer":"8","ortId":113},"ort":{"ortId":113,"zipCode":2907,"name":"Aranhas"}},
{"adresse":{"adressId":114,"strasse":"Hallows","nummer":"4825","ortId":114},"ort":{"ortId":114,"zipCode":7207,"name":"Kowale"}},
{"adresse":{"adressId":115,"strasse":"Bluestem","nummer":"276","ortId":115},"ort":{"ortId":115,"zipCode":8829,"name":"Trieste"}},
{"adresse":{"adressId":116,"strasse":"Eagan","nummer":"2588","ortId":116},"ort":{"ortId":116,"zipCode":9058,"name":"Sampués"}},
{"adresse":{"adressId":117,"strasse":"7th","nummer":"5825","ortId":117},"ort":{"ortId":117,"zipCode":9329,"name":"Fort-de-France"}},
{"adresse":{"adressId":118,"strasse":"Bartillon","nummer":"8","ortId":118},"ort":{"ortId":118,"zipCode":4952,"name":"Cirangrang"}},
{"adresse":{"adressId":119,"strasse":"Superior","nummer":"5","ortId":119},"ort":{"ortId":119,"zipCode":6053,"name":"San Diego"}},
{"adresse":{"adressId":120,"strasse":"Fairfield","nummer":"7500","ortId":120},"ort":{"ortId":120,"zipCode":4259,"name":"Mhlambanyatsi"}},
{"adresse":{"adressId":121,"strasse":"Sherman","nummer":"8","ortId":121},"ort":{"ortId":121,"zipCode":8361,"name":"Xi’an"}},
{"adresse":{"adressId":122,"strasse":"Di Loreto","nummer":"348","ortId":122},"ort":{"ortId":122,"zipCode":5592,"name":"Rancabugel"}},
{"adresse":{"adressId":123,"strasse":"Dayton","nummer":"5","ortId":123},"ort":{"ortId":123,"zipCode":1598,"name":"Falun"}},
{"adresse":{"adressId":124,"strasse":"Oriole","nummer":"524","ortId":124},"ort":{"ortId":124,"zipCode":3037,"name":"Campo Belo"}},
{"adresse":{"adressId":125,"strasse":"Ridge Oak","nummer":"98648","ortId":125},"ort":{"ortId":125,"zipCode":8436,"name":"Xing’an"}},
{"adresse":{"adressId":126,"strasse":"Straubel","nummer":"63","ortId":126},"ort":{"ortId":126,"zipCode":5165,"name":"Carangola"}},
{"adresse":{"adressId":127,"strasse":"Fuller","nummer":"76517","ortId":127},"ort":{"ortId":127,"zipCode":7817,"name":"Erandique"}},
{"adresse":{"adressId":128,"strasse":"Boyd","nummer":"984","ortId":128},"ort":{"ortId":128,"zipCode":5839,"name":"Komendantsky aerodrom"}},
{"adresse":{"adressId":129,"strasse":"Grasskamp","nummer":"9950","ortId":129},"ort":{"ortId":129,"zipCode":4776,"name":"Kranjska Gora"}},
{"adresse":{"adressId":130,"strasse":"Stephen","nummer":"231","ortId":130},"ort":{"ortId":130,"zipCode":1319,"name":"Thung Yang Daeng"}},
{"adresse":{"adressId":131,"strasse":"Bunting","nummer":"2","ortId":131},"ort":{"ortId":131,"zipCode":8243,"name":"Drochia"}},
{"adresse":{"adressId":132,"strasse":"Ryan","nummer":"60","ortId":132},"ort":{"ortId":132,"zipCode":8572,"name":"Grootfontein"}},
{"adresse":{"adressId":133,"strasse":"Pankratz","nummer":"796","ortId":133},"ort":{"ortId":133,"zipCode":2188,"name":"Kansas City"}},
{"adresse":{"adressId":134,"strasse":"Fair Oaks","nummer":"71","ortId":134},"ort":{"ortId":134,"zipCode":5288,"name":"Santiago do Cacém"}},
{"adresse":{"adressId":135,"strasse":"Magdeline","nummer":"041","ortId":135},"ort":{"ortId":135,"zipCode":5321,"name":"Baima"}},
{"adresse":{"adressId":136,"strasse":"Ohio","nummer":"4","ortId":136},"ort":{"ortId":136,"zipCode":2253,"name":"Krasnoshchekovo"}},
{"adresse":{"adressId":137,"strasse":"Westport","nummer":"98","ortId":137},"ort":{"ortId":137,"zipCode":5895,"name":"Nevel’"}},
{"adresse":{"adressId":138,"strasse":"Transport","nummer":"6532","ortId":138},"ort":{"ortId":138,"zipCode":2496,"name":"Dadeldhurā"}},
{"adresse":{"adressId":139,"strasse":"Mendota","nummer":"129","ortId":139},"ort":{"ortId":139,"zipCode":9097,"name":"Ampera"}},
{"adresse":{"adressId":140,"strasse":"Del Mar","nummer":"71326","ortId":140},"ort":{"ortId":140,"zipCode":1070,"name":"Orlovskiy"}},
{"adresse":{"adressId":141,"strasse":"Buell","nummer":"28480","ortId":141},"ort":{"ortId":141,"zipCode":2574,"name":"Yuelai"}},
{"adresse":{"adressId":142,"strasse":"Fair Oaks","nummer":"84174","ortId":142},"ort":{"ortId":142,"zipCode":5690,"name":"Yuetang"}},
{"adresse":{"adressId":143,"strasse":"Mayer","nummer":"40670","ortId":143},"ort":{"ortId":143,"zipCode":5421,"name":"Acarigua"}},
{"adresse":{"adressId":144,"strasse":"Randy","nummer":"86653","ortId":144},"ort":{"ortId":144,"zipCode":7927,"name":"Barreirinhas"}},
{"adresse":{"adressId":145,"strasse":"Sugar","nummer":"1668","ortId":145},"ort":{"ortId":145,"zipCode":4393,"name":"Zhetian"}},
{"adresse":{"adressId":146,"strasse":"Ludington","nummer":"43514","ortId":146},"ort":{"ortId":146,"zipCode":5447,"name":"Sanxianling"}},
{"adresse":{"adressId":147,"strasse":"Katie","nummer":"51674","ortId":147},"ort":{"ortId":147,"zipCode":1717,"name":"Luofang"}},
{"adresse":{"adressId":148,"strasse":"Nobel","nummer":"9","ortId":148},"ort":{"ortId":148,"zipCode":3047,"name":"Yuyue"}},
{"adresse":{"adressId":149,"strasse":"Rockefeller","nummer":"73","ortId":149},"ort":{"ortId":149,"zipCode":5739,"name":"Zhugang"}},
{"adresse":{"adressId":150,"strasse":"Coolidge","nummer":"0526","ortId":150},"ort":{"ortId":150,"zipCode":2054,"name":"Gao"}},
{"adresse":{"adressId":151,"strasse":"Bay","nummer":"1579","ortId":151},"ort":{"ortId":151,"zipCode":1425,"name":"Andkhōy"}},
{"adresse":{"adressId":152,"strasse":"Cottonwood","nummer":"66682","ortId":152},"ort":{"ortId":152,"zipCode":4359,"name":"Zoumi"}},
{"adresse":{"adressId":153,"strasse":"Burning Wood","nummer":"0","ortId":153},"ort":{"ortId":153,"zipCode":1319,"name":"Bošovice"}},
{"adresse":{"adressId":154,"strasse":"Evergreen","nummer":"644","ortId":154},"ort":{"ortId":154,"zipCode":6837,"name":"Pittsburgh"}},
{"adresse":{"adressId":155,"strasse":"Knutson","nummer":"67598","ortId":155},"ort":{"ortId":155,"zipCode":8555,"name":"Rudnogorsk"}},
{"adresse":{"adressId":156,"strasse":"Tony","nummer":"6","ortId":156},"ort":{"ortId":156,"zipCode":1934,"name":"Bugcaon"}},
{"adresse":{"adressId":157,"strasse":"Barby","nummer":"15135","ortId":157},"ort":{"ortId":157,"zipCode":2320,"name":"Saransk"}},
{"adresse":{"adressId":158,"strasse":"Donald","nummer":"7502","ortId":158},"ort":{"ortId":158,"zipCode":4165,"name":"Tierimu"}},
{"adresse":{"adressId":159,"strasse":"Stone Corner","nummer":"40","ortId":159},"ort":{"ortId":159,"zipCode":3565,"name":"Padangbai"}},
{"adresse":{"adressId":160,"strasse":"Tomscot","nummer":"9","ortId":160},"ort":{"ortId":160,"zipCode":1408,"name":"Maquanzhen"}},
{"adresse":{"adressId":161,"strasse":"Londonderry","nummer":"853","ortId":161},"ort":{"ortId":161,"zipCode":5030,"name":"Huainan"}},
{"adresse":{"adressId":162,"strasse":"Ruskin","nummer":"76774","ortId":162},"ort":{"ortId":162,"zipCode":1403,"name":"Ribeira Seca"}},
{"adresse":{"adressId":163,"strasse":"Acker","nummer":"023","ortId":163},"ort":{"ortId":163,"zipCode":4771,"name":"Lame"}},
{"adresse":{"adressId":164,"strasse":"Mcbride","nummer":"7156","ortId":164},"ort":{"ortId":164,"zipCode":2828,"name":"Hūn"}},
{"adresse":{"adressId":165,"strasse":"Sugar","nummer":"96","ortId":165},"ort":{"ortId":165,"zipCode":5046,"name":"Newark"}},
{"adresse":{"adressId":166,"strasse":"3rd","nummer":"6671","ortId":166},"ort":{"ortId":166,"zipCode":7800,"name":"Gowurdak"}},
{"adresse":{"adressId":167,"strasse":"Talisman","nummer":"96","ortId":167},"ort":{"ortId":167,"zipCode":1830,"name":"Kultayevo"}},
{"adresse":{"adressId":168,"strasse":"Hagan","nummer":"59597","ortId":168},"ort":{"ortId":168,"zipCode":3536,"name":"Napnapan"}},
{"adresse":{"adressId":169,"strasse":"Division","nummer":"6753","ortId":169},"ort":{"ortId":169,"zipCode":6874,"name":"Mirontsi"}},
{"adresse":{"adressId":170,"strasse":"Scofield","nummer":"76834","ortId":170},"ort":{"ortId":170,"zipCode":3529,"name":"Ożarowice"}},
{"adresse":{"adressId":171,"strasse":"Waubesa","nummer":"607","ortId":171},"ort":{"ortId":171,"zipCode":2488,"name":"Poitiers"}},
{"adresse":{"adressId":172,"strasse":"Scoville","nummer":"71960","ortId":172},"ort":{"ortId":172,"zipCode":1816,"name":"Pisz"}},
{"adresse":{"adressId":173,"strasse":"Packers","nummer":"77078","ortId":173},"ort":{"ortId":173,"zipCode":4015,"name":"Ayotupas"}},
{"adresse":{"adressId":174,"strasse":"Alpine","nummer":"26832","ortId":174},"ort":{"ortId":174,"zipCode":6610,"name":"Ningyuan"}},
{"adresse":{"adressId":175,"strasse":"Manufacturers","nummer":"3141","ortId":175},"ort":{"ortId":175,"zipCode":4881,"name":"Santander"}},
{"adresse":{"adressId":176,"strasse":"Westerfield","nummer":"751","ortId":176},"ort":{"ortId":176,"zipCode":5223,"name":"El Porvenir"}},
{"adresse":{"adressId":177,"strasse":"Knutson","nummer":"3604","ortId":177},"ort":{"ortId":177,"zipCode":8992,"name":"Jacareí"}},
{"adresse":{"adressId":178,"strasse":"Sullivan","nummer":"11","ortId":178},"ort":{"ortId":178,"zipCode":4051,"name":"Asquipata"}},
{"adresse":{"adressId":179,"strasse":"Farmco","nummer":"086","ortId":179},"ort":{"ortId":179,"zipCode":2073,"name":"Suocheng"}},
{"adresse":{"adressId":180,"strasse":"Shoshone","nummer":"3","ortId":180},"ort":{"ortId":180,"zipCode":3705,"name":"Nankāna Sāhib"}},
{"adresse":{"adressId":181,"strasse":"2nd","nummer":"4","ortId":181},"ort":{"ortId":181,"zipCode":4242,"name":"Vito"}},
{"adresse":{"adressId":182,"strasse":"Killdeer","nummer":"9980","ortId":182},"ort":{"ortId":182,"zipCode":3152,"name":"Muonio"}},
{"adresse":{"adressId":183,"strasse":"Pine View","nummer":"0","ortId":183},"ort":{"ortId":183,"zipCode":4516,"name":"Taubaté"}},
{"adresse":{"adressId":184,"strasse":"Gateway","nummer":"787","ortId":184},"ort":{"ortId":184,"zipCode":2389,"name":"Zhengcun"}},
{"adresse":{"adressId":185,"strasse":"Paget","nummer":"31","ortId":185},"ort":{"ortId":185,"zipCode":5355,"name":"Taiqing"}},
{"adresse":{"adressId":186,"strasse":"Dovetail","nummer":"50","ortId":186},"ort":{"ortId":186,"zipCode":9837,"name":"Indaial"}},
{"adresse":{"adressId":187,"strasse":"Sheridan","nummer":"67148","ortId":187},"ort":{"ortId":187,"zipCode":3086,"name":"Mahikeng"}},
{"adresse":{"adressId":188,"strasse":"Pennsylvania","nummer":"866","ortId":188},"ort":{"ortId":188,"zipCode":1848,"name":"Gaimán"}},
{"adresse":{"adressId":189,"strasse":"Miller","nummer":"55676","ortId":189},"ort":{"ortId":189,"zipCode":8304,"name":"Hobaramachi"}},
{"adresse":{"adressId":190,"strasse":"Di Loreto","nummer":"19991","ortId":190},"ort":{"ortId":190,"zipCode":9418,"name":"Di Linh"}},
{"adresse":{"adressId":191,"strasse":"Hudson","nummer":"379","ortId":191},"ort":{"ortId":191,"zipCode":7216,"name":"Taraju"}},
{"adresse":{"adressId":192,"strasse":"Moose","nummer":"86730","ortId":192},"ort":{"ortId":192,"zipCode":4678,"name":"Oslo"}},
{"adresse":{"adressId":193,"strasse":"Spenser","nummer":"69","ortId":193},"ort":{"ortId":193,"zipCode":1954,"name":"Waiwejak"}},
{"adresse":{"adressId":194,"strasse":"Maywood","nummer":"490","ortId":194},"ort":{"ortId":194,"zipCode":1031,"name":"Novhorod-Sivers’kyy"}},
{"adresse":{"adressId":195,"strasse":"Melvin","nummer":"896","ortId":195},"ort":{"ortId":195,"zipCode":5404,"name":"Laau"}},
{"adresse":{"adressId":196,"strasse":"Meadow Valley","nummer":"877","ortId":196},"ort":{"ortId":196,"zipCode":7150,"name":"Oslo"}},
{"adresse":{"adressId":197,"strasse":"Badeau","nummer":"51","ortId":197},"ort":{"ortId":197,"zipCode":7234,"name":"Lishu"}},
{"adresse":{"adressId":198,"strasse":"Luster","nummer":"1883","ortId":198},"ort":{"ortId":198,"zipCode":4797,"name":"Qingyang"}},
{"adresse":{"adressId":199,"strasse":"Pond","nummer":"6002","ortId":199},"ort":{"ortId":199,"zipCode":6955,"name":"Jatiraya"}},
{"adresse":{"adressId":200,"strasse":"Sundown","nummer":"3775","ortId":200},"ort":{"ortId":200,"zipCode":2939,"name":"Baras"}},
{"adresse":{"adressId":201,"strasse":"Katie","nummer":"6","ortId":201},"ort":{"ortId":201,"zipCode":6752,"name":"Pentecoste"}},
{"adresse":{"adressId":202,"strasse":"Shasta","nummer":"21","ortId":202},"ort":{"ortId":202,"zipCode":8962,"name":"Rosebank"}},
{"adresse":{"adressId":203,"strasse":"Loftsgordon","nummer":"57","ortId":203},"ort":{"ortId":203,"zipCode":8718,"name":"Mariquita"}},
{"adresse":{"adressId":204,"strasse":"Spohn","nummer":"95131","ortId":204},"ort":{"ortId":204,"zipCode":5031,"name":"Pivijay"}},
{"adresse":{"adressId":205,"strasse":"Kinsman","nummer":"28583","ortId":205},"ort":{"ortId":205,"zipCode":1049,"name":"Valencia"}},
{"adresse":{"adressId":206,"strasse":"Butternut","nummer":"04","ortId":206},"ort":{"ortId":206,"zipCode":6319,"name":"Horad Barysaw"}},
{"adresse":{"adressId":207,"strasse":"Duke","nummer":"602","ortId":207},"ort":{"ortId":207,"zipCode":7887,"name":"Cotahuasi"}},
{"adresse":{"adressId":208,"strasse":"Debs","nummer":"5","ortId":208},"ort":{"ortId":208,"zipCode":8258,"name":"Ungca"}},
{"adresse":{"adressId":209,"strasse":"Becker","nummer":"3282","ortId":209},"ort":{"ortId":209,"zipCode":6049,"name":"Sergiyev Posad"}},
{"adresse":{"adressId":210,"strasse":"Browning","nummer":"03228","ortId":210},"ort":{"ortId":210,"zipCode":9491,"name":"Miragaia"}},
{"adresse":{"adressId":211,"strasse":"Lunder","nummer":"05367","ortId":211},"ort":{"ortId":211,"zipCode":5080,"name":"Shalizhai"}},
{"adresse":{"adressId":212,"strasse":"Roxbury","nummer":"05","ortId":212},"ort":{"ortId":212,"zipCode":6948,"name":"Sabunçu"}},
{"adresse":{"adressId":213,"strasse":"Ridgeway","nummer":"37","ortId":213},"ort":{"ortId":213,"zipCode":6687,"name":"Ресен"}},
{"adresse":{"adressId":214,"strasse":"Rusk","nummer":"45","ortId":214},"ort":{"ortId":214,"zipCode":7386,"name":"Chunhu"}},
{"adresse":{"adressId":215,"strasse":"Troy","nummer":"258","ortId":215},"ort":{"ortId":215,"zipCode":4275,"name":"Oslo"}},
{"adresse":{"adressId":216,"strasse":"Hansons","nummer":"033","ortId":216},"ort":{"ortId":216,"zipCode":8990,"name":"Granada"}},
{"adresse":{"adressId":217,"strasse":"Trailsway","nummer":"18","ortId":217},"ort":{"ortId":217,"zipCode":9868,"name":"Bulan"}},
{"adresse":{"adressId":218,"strasse":"High Crossing","nummer":"94","ortId":218},"ort":{"ortId":218,"zipCode":6669,"name":"Ban Thaen"}},
{"adresse":{"adressId":219,"strasse":"Center","nummer":"627","ortId":219},"ort":{"ortId":219,"zipCode":8938,"name":"Charneca"}},
{"adresse":{"adressId":220,"strasse":"Anniversary","nummer":"34722","ortId":220},"ort":{"ortId":220,"zipCode":8573,"name":"Wangmang"}},
{"adresse":{"adressId":221,"strasse":"Pepper Wood","nummer":"0712","ortId":221},"ort":{"ortId":221,"zipCode":6581,"name":"Nacka"}},
{"adresse":{"adressId":222,"strasse":"American Ash","nummer":"96042","ortId":222},"ort":{"ortId":222,"zipCode":6470,"name":"Zainsk"}},
{"adresse":{"adressId":223,"strasse":"La Follette","nummer":"1","ortId":223},"ort":{"ortId":223,"zipCode":9860,"name":"Volgo-Kaspiyskiy"}},
{"adresse":{"adressId":224,"strasse":"Scofield","nummer":"701","ortId":224},"ort":{"ortId":224,"zipCode":7551,"name":"Białobrzegi"}},
{"adresse":{"adressId":225,"strasse":"Maryland","nummer":"0","ortId":225},"ort":{"ortId":225,"zipCode":3415,"name":"Longzhou"}},
{"adresse":{"adressId":226,"strasse":"Jackson","nummer":"497","ortId":226},"ort":{"ortId":226,"zipCode":3114,"name":"Ceelbuur"}},
{"adresse":{"adressId":227,"strasse":"Badeau","nummer":"23","ortId":227},"ort":{"ortId":227,"zipCode":8378,"name":"Zagreb"}},
{"adresse":{"adressId":228,"strasse":"Marcy","nummer":"428","ortId":228},"ort":{"ortId":228,"zipCode":1545,"name":"Duboka"}},
{"adresse":{"adressId":229,"strasse":"Bartelt","nummer":"77745","ortId":229},"ort":{"ortId":229,"zipCode":2277,"name":"Bahorí"}},
{"adresse":{"adressId":230,"strasse":"Washington","nummer":"75997","ortId":230},"ort":{"ortId":230,"zipCode":6283,"name":"Sempol"}},
{"adresse":{"adressId":231,"strasse":"Michigan","nummer":"76018","ortId":231},"ort":{"ortId":231,"zipCode":6253,"name":"Vacoas"}},
{"adresse":{"adressId":232,"strasse":"Rieder","nummer":"1","ortId":232},"ort":{"ortId":232,"zipCode":1385,"name":"Sarae"}},
{"adresse":{"adressId":233,"strasse":"Victoria","nummer":"19","ortId":233},"ort":{"ortId":233,"zipCode":4512,"name":"Honjō"}},
{"adresse":{"adressId":234,"strasse":"Butternut","nummer":"92","ortId":234},"ort":{"ortId":234,"zipCode":7361,"name":"Blora"}},
{"adresse":{"adressId":235,"strasse":"Lien","nummer":"433","ortId":235},"ort":{"ortId":235,"zipCode":7238,"name":"Mandeni"}},
{"adresse":{"adressId":236,"strasse":"Rigney","nummer":"002","ortId":236},"ort":{"ortId":236,"zipCode":4467,"name":"Doruchów"}},
{"adresse":{"adressId":237,"strasse":"Marcy","nummer":"0","ortId":237},"ort":{"ortId":237,"zipCode":7262,"name":"Kacha"}},
{"adresse":{"adressId":238,"strasse":"Dorton","nummer":"6577","ortId":238},"ort":{"ortId":238,"zipCode":5088,"name":"Huta Stara B"}},
{"adresse":{"adressId":239,"strasse":"Orin","nummer":"05459","ortId":239},"ort":{"ortId":239,"zipCode":3656,"name":"Guadalupe"}},
{"adresse":{"adressId":240,"strasse":"Fallview","nummer":"8","ortId":240},"ort":{"ortId":240,"zipCode":5367,"name":"Santa Catalina"}},
{"adresse":{"adressId":241,"strasse":"Kennedy","nummer":"62","ortId":241},"ort":{"ortId":241,"zipCode":2503,"name":"Ḩājjīābād"}},
{"adresse":{"adressId":242,"strasse":"Pearson","nummer":"3798","ortId":242},"ort":{"ortId":242,"zipCode":8562,"name":"Huanan"}},
{"adresse":{"adressId":243,"strasse":"Bluejay","nummer":"2","ortId":243},"ort":{"ortId":243,"zipCode":3724,"name":"Baibu"}},
{"adresse":{"adressId":244,"strasse":"Elka","nummer":"43822","ortId":244},"ort":{"ortId":244,"zipCode":9021,"name":"Jiuquan"}},
{"adresse":{"adressId":245,"strasse":"Forest Run","nummer":"20","ortId":245},"ort":{"ortId":245,"zipCode":3215,"name":"Aylmer"}},
{"adresse":{"adressId":246,"strasse":"Ilene","nummer":"28","ortId":246},"ort":{"ortId":246,"zipCode":3030,"name":"Bantian"}},
{"adresse":{"adressId":247,"strasse":"Sauthoff","nummer":"6","ortId":247},"ort":{"ortId":247,"zipCode":9041,"name":"Nueva Imperial"}},
{"adresse":{"adressId":248,"strasse":"Weeping Birch","nummer":"4","ortId":248},"ort":{"ortId":248,"zipCode":1873,"name":"Tiandiba"}},
{"adresse":{"adressId":249,"strasse":"Ohio","nummer":"545","ortId":249},"ort":{"ortId":249,"zipCode":6526,"name":"La Unión"}},
{"adresse":{"adressId":250,"strasse":"Kingsford","nummer":"135","ortId":250},"ort":{"ortId":250,"zipCode":5731,"name":"城郊"}},
{"adresse":{"adressId":251,"strasse":"Debs","nummer":"6","ortId":251},"ort":{"ortId":251,"zipCode":8872,"name":"Las Lajas"}},
{"adresse":{"adressId":252,"strasse":"Northland","nummer":"39794","ortId":252},"ort":{"ortId":252,"zipCode":5065,"name":"Şūrān"}},
{"adresse":{"adressId":253,"strasse":"Service","nummer":"766","ortId":253},"ort":{"ortId":253,"zipCode":2942,"name":"Segong"}},
{"adresse":{"adressId":254,"strasse":"Ridgeway","nummer":"584","ortId":254},"ort":{"ortId":254,"zipCode":7250,"name":"Indianapolis"}},
{"adresse":{"adressId":255,"strasse":"High Crossing","nummer":"82","ortId":255},"ort":{"ortId":255,"zipCode":2286,"name":"Néa Kíos"}},
{"adresse":{"adressId":256,"strasse":"Merchant","nummer":"4556","ortId":256},"ort":{"ortId":256,"zipCode":5659,"name":"Cafe"}},
{"adresse":{"adressId":257,"strasse":"Melby","nummer":"9","ortId":257},"ort":{"ortId":257,"zipCode":6546,"name":"Zhongshu"}},
{"adresse":{"adressId":258,"strasse":"Milwaukee","nummer":"68","ortId":258},"ort":{"ortId":258,"zipCode":2888,"name":"Pingyin"}},
{"adresse":{"adressId":259,"strasse":"2nd","nummer":"780","ortId":259},"ort":{"ortId":259,"zipCode":5185,"name":"Suzdal’"}},
{"adresse":{"adressId":260,"strasse":"Walton","nummer":"4","ortId":260},"ort":{"ortId":260,"zipCode":1476,"name":"Pélla"}},
{"adresse":{"adressId":261,"strasse":"3rd","nummer":"01023","ortId":261},"ort":{"ortId":261,"zipCode":6362,"name":"Ouzini"}},
{"adresse":{"adressId":262,"strasse":"Lighthouse Bay","nummer":"124","ortId":262},"ort":{"ortId":262,"zipCode":1859,"name":"Kurnia"}},
{"adresse":{"adressId":263,"strasse":"Declaration","nummer":"40","ortId":263},"ort":{"ortId":263,"zipCode":1487,"name":"Néa Vrasná"}},
{"adresse":{"adressId":264,"strasse":"Burrows","nummer":"28022","ortId":264},"ort":{"ortId":264,"zipCode":1841,"name":"Sémbé"}},
{"adresse":{"adressId":265,"strasse":"Utah","nummer":"52048","ortId":265},"ort":{"ortId":265,"zipCode":4669,"name":"Miejsce Piastowe"}},
{"adresse":{"adressId":266,"strasse":"Brown","nummer":"42","ortId":266},"ort":{"ortId":266,"zipCode":2899,"name":"Kirovsk"}},
{"adresse":{"adressId":267,"strasse":"Golf Course","nummer":"84709","ortId":267},"ort":{"ortId":267,"zipCode":4710,"name":"Czarków"}},
{"adresse":{"adressId":268,"strasse":"Express","nummer":"8","ortId":268},"ort":{"ortId":268,"zipCode":7692,"name":"Orlando"}},
{"adresse":{"adressId":269,"strasse":"Graceland","nummer":"2329","ortId":269},"ort":{"ortId":269,"zipCode":7180,"name":"Mesa"}},
{"adresse":{"adressId":270,"strasse":"Schiller","nummer":"87524","ortId":270},"ort":{"ortId":270,"zipCode":2532,"name":"Chuguyevka"}},
{"adresse":{"adressId":271,"strasse":"Mandrake","nummer":"7","ortId":271},"ort":{"ortId":271,"zipCode":8875,"name":"Coalaque"}},
{"adresse":{"adressId":272,"strasse":"Vermont","nummer":"20605","ortId":272},"ort":{"ortId":272,"zipCode":1663,"name":"Bang Yai"}},
{"adresse":{"adressId":273,"strasse":"Emmet","nummer":"61725","ortId":273},"ort":{"ortId":273,"zipCode":6148,"name":"Pariti"}},
{"adresse":{"adressId":274,"strasse":"Hazelcrest","nummer":"30973","ortId":274},"ort":{"ortId":274,"zipCode":5329,"name":"Jianshe"}},
{"adresse":{"adressId":275,"strasse":"Buell","nummer":"79","ortId":275},"ort":{"ortId":275,"zipCode":6973,"name":"Zambujal"}},
{"adresse":{"adressId":276,"strasse":"Susan","nummer":"55223","ortId":276},"ort":{"ortId":276,"zipCode":3261,"name":"Leiden"}},
{"adresse":{"adressId":277,"strasse":"American Ash","nummer":"67","ortId":277},"ort":{"ortId":277,"zipCode":1049,"name":"Bailingnao"}},
{"adresse":{"adressId":278,"strasse":"Mesta","nummer":"589","ortId":278},"ort":{"ortId":278,"zipCode":8793,"name":"Bochum"}},
{"adresse":{"adressId":279,"strasse":"Forest Run","nummer":"338","ortId":279},"ort":{"ortId":279,"zipCode":8483,"name":"Changtang"}},
{"adresse":{"adressId":280,"strasse":"Shelley","nummer":"241","ortId":280},"ort":{"ortId":280,"zipCode":9525,"name":"Kálymnos"}},
{"adresse":{"adressId":281,"strasse":"Tennyson","nummer":"11926","ortId":281},"ort":{"ortId":281,"zipCode":3790,"name":"Pak Chom"}},
{"adresse":{"adressId":282,"strasse":"Sherman","nummer":"9551","ortId":282},"ort":{"ortId":282,"zipCode":6061,"name":"Jijiazhuang"}},
{"adresse":{"adressId":283,"strasse":"Stuart","nummer":"9013","ortId":283},"ort":{"ortId":283,"zipCode":2928,"name":"Länsi-Turunmaa"}},
{"adresse":{"adressId":284,"strasse":"Butterfield","nummer":"340","ortId":284},"ort":{"ortId":284,"zipCode":2916,"name":"Lokatadho"}},
{"adresse":{"adressId":285,"strasse":"Northfield","nummer":"996","ortId":285},"ort":{"ortId":285,"zipCode":3789,"name":"Munsan"}},
{"adresse":{"adressId":286,"strasse":"Victoria","nummer":"1","ortId":286},"ort":{"ortId":286,"zipCode":2375,"name":"Waso"}},
{"adresse":{"adressId":287,"strasse":"Burrows","nummer":"6","ortId":287},"ort":{"ortId":287,"zipCode":1397,"name":"Hekou"}},
{"adresse":{"adressId":288,"strasse":"High Crossing","nummer":"305","ortId":288},"ort":{"ortId":288,"zipCode":7167,"name":"Gio Linh"}},
{"adresse":{"adressId":289,"strasse":"Sugar","nummer":"90950","ortId":289},"ort":{"ortId":289,"zipCode":4393,"name":"Juexi"}},
{"adresse":{"adressId":290,"strasse":"Linden","nummer":"6","ortId":290},"ort":{"ortId":290,"zipCode":6957,"name":"Zelenogradsk"}},
{"adresse":{"adressId":291,"strasse":"Quincy","nummer":"661","ortId":291},"ort":{"ortId":291,"zipCode":1494,"name":"Karangbalong"}},
{"adresse":{"adressId":292,"strasse":"Warbler","nummer":"30","ortId":292},"ort":{"ortId":292,"zipCode":4348,"name":"Shimen"}},
{"adresse":{"adressId":293,"strasse":"Crownhardt","nummer":"4","ortId":293},"ort":{"ortId":293,"zipCode":2722,"name":"Cawayan"}},
{"adresse":{"adressId":294,"strasse":"Morningstar","nummer":"66","ortId":294},"ort":{"ortId":294,"zipCode":4988,"name":"Fengjia"}},
{"adresse":{"adressId":295,"strasse":"Northport","nummer":"96","ortId":295},"ort":{"ortId":295,"zipCode":2288,"name":"Chełmża"}},
{"adresse":{"adressId":296,"strasse":"Dawn","nummer":"2","ortId":296},"ort":{"ortId":296,"zipCode":3782,"name":"Jianli"}},
{"adresse":{"adressId":297,"strasse":"East","nummer":"68","ortId":297},"ort":{"ortId":297,"zipCode":8309,"name":"Batad"}},
{"adresse":{"adressId":298,"strasse":"Meadow Valley","nummer":"52800","ortId":298},"ort":{"ortId":298,"zipCode":5862,"name":"Bektemir"}},
{"adresse":{"adressId":299,"strasse":"Riverside","nummer":"81772","ortId":299},"ort":{"ortId":299,"zipCode":6801,"name":"Wuchagou"}},
{"adresse":{"adressId":300,"strasse":"Lien","nummer":"556","ortId":300},"ort":{"ortId":300,"zipCode":4837,"name":"Anchorage"}},
{"adresse":{"adressId":301,"strasse":"Toban","nummer":"0","ortId":301},"ort":{"ortId":301,"zipCode":1219,"name":"Zhili"}},
{"adresse":{"adressId":302,"strasse":"Monument","nummer":"05897","ortId":302},"ort":{"ortId":302,"zipCode":2692,"name":"Villa Ángela"}},
{"adresse":{"adressId":303,"strasse":"Rieder","nummer":"899","ortId":303},"ort":{"ortId":303,"zipCode":7964,"name":"Tha Ruea"}},
{"adresse":{"adressId":304,"strasse":"New Castle","nummer":"932","ortId":304},"ort":{"ortId":304,"zipCode":1093,"name":"Oton"}},
{"adresse":{"adressId":305,"strasse":"Pawling","nummer":"4","ortId":305},"ort":{"ortId":305,"zipCode":9886,"name":"Xinpu"}},
{"adresse":{"adressId":306,"strasse":"Crescent Oaks","nummer":"7","ortId":306},"ort":{"ortId":306,"zipCode":3811,"name":"Miao’ergou"}},
{"adresse":{"adressId":307,"strasse":"Northfield","nummer":"00683","ortId":307},"ort":{"ortId":307,"zipCode":4900,"name":"Fengshan"}},
{"adresse":{"adressId":308,"strasse":"Corry","nummer":"6900","ortId":308},"ort":{"ortId":308,"zipCode":4528,"name":"Sūq Şirwāḩ"}},
{"adresse":{"adressId":309,"strasse":"Larry","nummer":"14796","ortId":309},"ort":{"ortId":309,"zipCode":5008,"name":"Chelles"}},
{"adresse":{"adressId":310,"strasse":"Farragut","nummer":"640","ortId":310},"ort":{"ortId":310,"zipCode":5885,"name":"San José"}},
{"adresse":{"adressId":311,"strasse":"Linden","nummer":"1","ortId":311},"ort":{"ortId":311,"zipCode":7197,"name":"Dongguang"}},
{"adresse":{"adressId":312,"strasse":"Farwell","nummer":"398","ortId":312},"ort":{"ortId":312,"zipCode":2482,"name":"Kontagora"}},
{"adresse":{"adressId":313,"strasse":"Iowa","nummer":"0035","ortId":313},"ort":{"ortId":313,"zipCode":7763,"name":"Vimieiro"}},
{"adresse":{"adressId":314,"strasse":"Eagan","nummer":"42","ortId":314},"ort":{"ortId":314,"zipCode":8775,"name":"Weiyang"}},
{"adresse":{"adressId":315,"strasse":"Hoard","nummer":"07","ortId":315},"ort":{"ortId":315,"zipCode":2038,"name":"Pignon"}},
{"adresse":{"adressId":316,"strasse":"Ronald Regan","nummer":"405","ortId":316},"ort":{"ortId":316,"zipCode":2353,"name":"Chuhuyiv"}},
{"adresse":{"adressId":317,"strasse":"Arapahoe","nummer":"9","ortId":317},"ort":{"ortId":317,"zipCode":9669,"name":"San José de las Lajas"}},
{"adresse":{"adressId":318,"strasse":"Arrowood","nummer":"60812","ortId":318},"ort":{"ortId":318,"zipCode":5582,"name":"Mapou"}},
{"adresse":{"adressId":319,"strasse":"Hagan","nummer":"66083","ortId":319},"ort":{"ortId":319,"zipCode":5172,"name":"Middelburg"}},
{"adresse":{"adressId":320,"strasse":"Norway Maple","nummer":"7","ortId":320},"ort":{"ortId":320,"zipCode":3159,"name":"Bogorejo"}},
{"adresse":{"adressId":321,"strasse":"Oneill","nummer":"245","ortId":321},"ort":{"ortId":321,"zipCode":6408,"name":"Dingle"}},
{"adresse":{"adressId":322,"strasse":"Annamark","nummer":"092","ortId":322},"ort":{"ortId":322,"zipCode":3661,"name":"Timahankrajan"}},
{"adresse":{"adressId":323,"strasse":"Oxford","nummer":"19","ortId":323},"ort":{"ortId":323,"zipCode":7753,"name":"Mosty"}},
{"adresse":{"adressId":324,"strasse":"Summit","nummer":"03203","ortId":324},"ort":{"ortId":324,"zipCode":7570,"name":"Sajan"}},
{"adresse":{"adressId":325,"strasse":"Northridge","nummer":"3653","ortId":325},"ort":{"ortId":325,"zipCode":6178,"name":"Banī Mazār"}},
{"adresse":{"adressId":326,"strasse":"Oriole","nummer":"9","ortId":326},"ort":{"ortId":326,"zipCode":6901,"name":"Arles"}},
{"adresse":{"adressId":327,"strasse":"Pine View","nummer":"215","ortId":327},"ort":{"ortId":327,"zipCode":2907,"name":"Jiegan"}},
{"adresse":{"adressId":328,"strasse":"2nd","nummer":"116","ortId":328},"ort":{"ortId":328,"zipCode":4564,"name":"Leidschendam"}},
{"adresse":{"adressId":329,"strasse":"Quincy","nummer":"83575","ortId":329},"ort":{"ortId":329,"zipCode":5138,"name":"Strasbourg"}},
{"adresse":{"adressId":330,"strasse":"Westerfield","nummer":"778","ortId":330},"ort":{"ortId":330,"zipCode":7625,"name":"Las Terrenas"}},
{"adresse":{"adressId":331,"strasse":"Vernon","nummer":"1","ortId":331},"ort":{"ortId":331,"zipCode":5495,"name":"Santa Rosa de Lima"}},
{"adresse":{"adressId":332,"strasse":"Mayfield","nummer":"6211","ortId":332},"ort":{"ortId":332,"zipCode":1411,"name":"Wadung"}},
{"adresse":{"adressId":333,"strasse":"Logan","nummer":"15876","ortId":333},"ort":{"ortId":333,"zipCode":4750,"name":"Kruengraya"}},
{"adresse":{"adressId":334,"strasse":"Northview","nummer":"20","ortId":334},"ort":{"ortId":334,"zipCode":6669,"name":"Sulmierzyce"}},
{"adresse":{"adressId":335,"strasse":"Morning","nummer":"2852","ortId":335},"ort":{"ortId":335,"zipCode":6364,"name":"Tall Abyaḑ"}},
{"adresse":{"adressId":336,"strasse":"Claremont","nummer":"9278","ortId":336},"ort":{"ortId":336,"zipCode":6989,"name":"Jalalaqsi"}},
{"adresse":{"adressId":337,"strasse":"Warrior","nummer":"4","ortId":337},"ort":{"ortId":337,"zipCode":3447,"name":"Kolonnawa"}},
{"adresse":{"adressId":338,"strasse":"Anzinger","nummer":"98","ortId":338},"ort":{"ortId":338,"zipCode":7339,"name":"Binulasan"}},
{"adresse":{"adressId":339,"strasse":"Elgar","nummer":"3","ortId":339},"ort":{"ortId":339,"zipCode":1859,"name":"Jatirogo"}},
{"adresse":{"adressId":340,"strasse":"Lindbergh","nummer":"8","ortId":340},"ort":{"ortId":340,"zipCode":6738,"name":"Wenci"}},
{"adresse":{"adressId":341,"strasse":"Forest","nummer":"236","ortId":341},"ort":{"ortId":341,"zipCode":8608,"name":"Guangfu"}},
{"adresse":{"adressId":342,"strasse":"Moose","nummer":"85","ortId":342},"ort":{"ortId":342,"zipCode":1012,"name":"Nazaré"}},
{"adresse":{"adressId":343,"strasse":"Spaight","nummer":"819","ortId":343},"ort":{"ortId":343,"zipCode":5260,"name":"Cirateun"}},
{"adresse":{"adressId":344,"strasse":"Miller","nummer":"15170","ortId":344},"ort":{"ortId":344,"zipCode":9517,"name":"Yangi-Nishon Shahri"}},
{"adresse":{"adressId":345,"strasse":"Granby","nummer":"6885","ortId":345},"ort":{"ortId":345,"zipCode":7538,"name":"Andros Town"}},
{"adresse":{"adressId":346,"strasse":"South","nummer":"94212","ortId":346},"ort":{"ortId":346,"zipCode":8998,"name":"Maguyam"}},
{"adresse":{"adressId":347,"strasse":"Coleman","nummer":"43724","ortId":347},"ort":{"ortId":347,"zipCode":4651,"name":"Naili"}},
{"adresse":{"adressId":348,"strasse":"Columbus","nummer":"73792","ortId":348},"ort":{"ortId":348,"zipCode":9359,"name":"Chicago"}},
{"adresse":{"adressId":349,"strasse":"Scofield","nummer":"9432","ortId":349},"ort":{"ortId":349,"zipCode":3696,"name":"Shihui"}},
{"adresse":{"adressId":350,"strasse":"Superior","nummer":"625","ortId":350},"ort":{"ortId":350,"zipCode":2603,"name":"Sel’tso"}},
{"adresse":{"adressId":351,"strasse":"Packers","nummer":"00828","ortId":351},"ort":{"ortId":351,"zipCode":4296,"name":"Ljungby"}},
{"adresse":{"adressId":352,"strasse":"Canary","nummer":"2959","ortId":352},"ort":{"ortId":352,"zipCode":8248,"name":"Xinji"}},
{"adresse":{"adressId":353,"strasse":"Alpine","nummer":"4","ortId":353},"ort":{"ortId":353,"zipCode":6300,"name":"Banjar Pande"}},
{"adresse":{"adressId":354,"strasse":"Sachs","nummer":"326","ortId":354},"ort":{"ortId":354,"zipCode":9880,"name":"Benoy"}},
{"adresse":{"adressId":355,"strasse":"Meadow Ridge","nummer":"465","ortId":355},"ort":{"ortId":355,"zipCode":9813,"name":"Amaraji"}},
{"adresse":{"adressId":356,"strasse":"Blue Bill Park","nummer":"449","ortId":356},"ort":{"ortId":356,"zipCode":3565,"name":"Bethlehem"}},
{"adresse":{"adressId":357,"strasse":"Ludington","nummer":"2","ortId":357},"ort":{"ortId":357,"zipCode":1620,"name":"Nantes"}},
{"adresse":{"adressId":358,"strasse":"Bunting","nummer":"8","ortId":358},"ort":{"ortId":358,"zipCode":4199,"name":"Bavorov"}},
{"adresse":{"adressId":359,"strasse":"Truax","nummer":"7345","ortId":359},"ort":{"ortId":359,"zipCode":5793,"name":"Jasieniec"}},
{"adresse":{"adressId":360,"strasse":"Corben","nummer":"08","ortId":360},"ort":{"ortId":360,"zipCode":9823,"name":"Badaogu"}},
{"adresse":{"adressId":361,"strasse":"Ronald Regan","nummer":"74","ortId":361},"ort":{"ortId":361,"zipCode":9816,"name":"Florianópolis"}},
{"adresse":{"adressId":362,"strasse":"Atwood","nummer":"779","ortId":362},"ort":{"ortId":362,"zipCode":6697,"name":"Bulubrangsi"}},
{"adresse":{"adressId":363,"strasse":"Talmadge","nummer":"1","ortId":363},"ort":{"ortId":363,"zipCode":7149,"name":"Hebu"}},
{"adresse":{"adressId":364,"strasse":"Dexter","nummer":"820","ortId":364},"ort":{"ortId":364,"zipCode":3004,"name":"Gorang"}},
{"adresse":{"adressId":365,"strasse":"Dennis","nummer":"89","ortId":365},"ort":{"ortId":365,"zipCode":1130,"name":"Laholm"}},
{"adresse":{"adressId":366,"strasse":"Arapahoe","nummer":"39349","ortId":366},"ort":{"ortId":366,"zipCode":2507,"name":"Vershino-Shakhtaminskiy"}},
{"adresse":{"adressId":367,"strasse":"Birchwood","nummer":"79769","ortId":367},"ort":{"ortId":367,"zipCode":8476,"name":"Baler Baleagung"}},
{"adresse":{"adressId":368,"strasse":"Meadow Valley","nummer":"4","ortId":368},"ort":{"ortId":368,"zipCode":4081,"name":"Columbus"}},
{"adresse":{"adressId":369,"strasse":"Lighthouse Bay","nummer":"6","ortId":369},"ort":{"ortId":369,"zipCode":3939,"name":"Sanshui"}},
{"adresse":{"adressId":370,"strasse":"Mcguire","nummer":"257","ortId":370},"ort":{"ortId":370,"zipCode":3220,"name":"Shipka"}},
{"adresse":{"adressId":371,"strasse":"Hagan","nummer":"0607","ortId":371},"ort":{"ortId":371,"zipCode":1714,"name":"Luyang"}},
{"adresse":{"adressId":372,"strasse":"Sullivan","nummer":"5","ortId":372},"ort":{"ortId":372,"zipCode":3303,"name":"Gocoton"}},
{"adresse":{"adressId":373,"strasse":"Eggendart","nummer":"49","ortId":373},"ort":{"ortId":373,"zipCode":9174,"name":"Los Santos"}},
{"adresse":{"adressId":374,"strasse":"Debra","nummer":"2","ortId":374},"ort":{"ortId":374,"zipCode":9648,"name":"København"}},
{"adresse":{"adressId":375,"strasse":"Kennedy","nummer":"9","ortId":375},"ort":{"ortId":375,"zipCode":9724,"name":"La Paz"}},
{"adresse":{"adressId":376,"strasse":"Tomscot","nummer":"77192","ortId":376},"ort":{"ortId":376,"zipCode":6023,"name":"Vikbolandet"}},
{"adresse":{"adressId":377,"strasse":"Weeping Birch","nummer":"17","ortId":377},"ort":{"ortId":377,"zipCode":8002,"name":"Litein"}},
{"adresse":{"adressId":378,"strasse":"Del Sol","nummer":"16183","ortId":378},"ort":{"ortId":378,"zipCode":6748,"name":"Jingmao"}},
{"adresse":{"adressId":379,"strasse":"Waywood","nummer":"60","ortId":379},"ort":{"ortId":379,"zipCode":9582,"name":"Pellegrini"}},
{"adresse":{"adressId":380,"strasse":"Grasskamp","nummer":"540","ortId":380},"ort":{"ortId":380,"zipCode":8002,"name":"Ala"}},
{"adresse":{"adressId":381,"strasse":"Montana","nummer":"1","ortId":381},"ort":{"ortId":381,"zipCode":3115,"name":"Xianrendu"}},
{"adresse":{"adressId":382,"strasse":"Lindbergh","nummer":"826","ortId":382},"ort":{"ortId":382,"zipCode":6249,"name":"Shiraoka"}},
{"adresse":{"adressId":383,"strasse":"Pond","nummer":"48","ortId":383},"ort":{"ortId":383,"zipCode":2158,"name":"Tsalka"}},
{"adresse":{"adressId":384,"strasse":"Del Sol","nummer":"98885","ortId":384},"ort":{"ortId":384,"zipCode":4108,"name":"Sibubuhan"}},
{"adresse":{"adressId":385,"strasse":"Maple Wood","nummer":"43580","ortId":385},"ort":{"ortId":385,"zipCode":6080,"name":"Gunung Sugih"}},
{"adresse":{"adressId":386,"strasse":"Goodland","nummer":"99","ortId":386},"ort":{"ortId":386,"zipCode":3808,"name":"İsmayıllı"}},
{"adresse":{"adressId":387,"strasse":"Brentwood","nummer":"636","ortId":387},"ort":{"ortId":387,"zipCode":5544,"name":"Frankfurt am Main"}},
{"adresse":{"adressId":388,"strasse":"Algoma","nummer":"127","ortId":388},"ort":{"ortId":388,"zipCode":3303,"name":"Iława"}},
{"adresse":{"adressId":389,"strasse":"Bluestem","nummer":"9","ortId":389},"ort":{"ortId":389,"zipCode":9166,"name":"Vršac"}},
{"adresse":{"adressId":390,"strasse":"Larry","nummer":"5","ortId":390},"ort":{"ortId":390,"zipCode":4893,"name":"Jielong"}},
{"adresse":{"adressId":391,"strasse":"Calypso","nummer":"26784","ortId":391},"ort":{"ortId":391,"zipCode":6046,"name":"Yashiro"}},
{"adresse":{"adressId":392,"strasse":"Independence","nummer":"2912","ortId":392},"ort":{"ortId":392,"zipCode":5118,"name":"Iaçu"}},
{"adresse":{"adressId":393,"strasse":"Banding","nummer":"84059","ortId":393},"ort":{"ortId":393,"zipCode":2347,"name":"Podgórzyn"}},
{"adresse":{"adressId":394,"strasse":"Namekagon","nummer":"0003","ortId":394},"ort":{"ortId":394,"zipCode":8690,"name":"Bagumbayan"}},
{"adresse":{"adressId":395,"strasse":"Basil","nummer":"0","ortId":395},"ort":{"ortId":395,"zipCode":5401,"name":"Majalengka"}},
{"adresse":{"adressId":396,"strasse":"Spaight","nummer":"26","ortId":396},"ort":{"ortId":396,"zipCode":1609,"name":"Glória do Goitá"}},
{"adresse":{"adressId":397,"strasse":"Westend","nummer":"51","ortId":397},"ort":{"ortId":397,"zipCode":4800,"name":"Mbomba"}},
{"adresse":{"adressId":398,"strasse":"Eastwood","nummer":"4","ortId":398},"ort":{"ortId":398,"zipCode":2810,"name":"Kalenderovci Donji"}},
{"adresse":{"adressId":399,"strasse":"Buhler","nummer":"674","ortId":399},"ort":{"ortId":399,"zipCode":7545,"name":"Krasnaya Polyana"}},
{"adresse":{"adressId":400,"strasse":"Talisman","nummer":"2831","ortId":400},"ort":{"ortId":400,"zipCode":5496,"name":"Luoping"}},
{"adresse":{"adressId":401,"strasse":"Basil","nummer":"300","ortId":401},"ort":{"ortId":401,"zipCode":4915,"name":"Brloh"}},
{"adresse":{"adressId":402,"strasse":"Brentwood","nummer":"063","ortId":402},"ort":{"ortId":402,"zipCode":5649,"name":"Migori"}},
{"adresse":{"adressId":403,"strasse":"Manitowish","nummer":"59","ortId":403},"ort":{"ortId":403,"zipCode":7978,"name":"Taiping"}},
{"adresse":{"adressId":404,"strasse":"Mayfield","nummer":"7","ortId":404},"ort":{"ortId":404,"zipCode":5742,"name":"Chirongui"}},
{"adresse":{"adressId":405,"strasse":"Westridge","nummer":"4043","ortId":405},"ort":{"ortId":405,"zipCode":1694,"name":"Cigintung"}},
{"adresse":{"adressId":406,"strasse":"Kropf","nummer":"41387","ortId":406},"ort":{"ortId":406,"zipCode":8032,"name":"Golopau"}},
{"adresse":{"adressId":407,"strasse":"Rowland","nummer":"63298","ortId":407},"ort":{"ortId":407,"zipCode":6328,"name":"San Isidro"}},
{"adresse":{"adressId":408,"strasse":"Truax","nummer":"436","ortId":408},"ort":{"ortId":408,"zipCode":3747,"name":"Isojoki"}},
{"adresse":{"adressId":409,"strasse":"Elgar","nummer":"83","ortId":409},"ort":{"ortId":409,"zipCode":1216,"name":"Maki"}},
{"adresse":{"adressId":410,"strasse":"Utah","nummer":"0623","ortId":410},"ort":{"ortId":410,"zipCode":2820,"name":"Uitiuhtuan"}},
{"adresse":{"adressId":411,"strasse":"Scott","nummer":"2508","ortId":411},"ort":{"ortId":411,"zipCode":1007,"name":"Presidencia Roque Sáenz Peña"}},
{"adresse":{"adressId":412,"strasse":"High Crossing","nummer":"4765","ortId":412},"ort":{"ortId":412,"zipCode":7586,"name":"Nakasongola"}},
{"adresse":{"adressId":413,"strasse":"Truax","nummer":"3908","ortId":413},"ort":{"ortId":413,"zipCode":3522,"name":"Kalisangkrah Lor"}},
{"adresse":{"adressId":414,"strasse":"Stephen","nummer":"2463","ortId":414},"ort":{"ortId":414,"zipCode":6215,"name":"Manoc-Manoc"}},
{"adresse":{"adressId":415,"strasse":"West","nummer":"7","ortId":415},"ort":{"ortId":415,"zipCode":5512,"name":"Shiogama"}},
{"adresse":{"adressId":416,"strasse":"Utah","nummer":"23818","ortId":416},"ort":{"ortId":416,"zipCode":1500,"name":"Espargos"}},
{"adresse":{"adressId":417,"strasse":"Independence","nummer":"538","ortId":417},"ort":{"ortId":417,"zipCode":7807,"name":"Teplice"}},
{"adresse":{"adressId":418,"strasse":"Redwing","nummer":"941","ortId":418},"ort":{"ortId":418,"zipCode":2742,"name":"Corona"}},
{"adresse":{"adressId":419,"strasse":"Paget","nummer":"51","ortId":419},"ort":{"ortId":419,"zipCode":5754,"name":"Morelos"}},
{"adresse":{"adressId":420,"strasse":"Clemons","nummer":"5590","ortId":420},"ort":{"ortId":420,"zipCode":4732,"name":"Krynki"}},
{"adresse":{"adressId":421,"strasse":"Graceland","nummer":"0","ortId":421},"ort":{"ortId":421,"zipCode":9660,"name":"Na Wa"}},
{"adresse":{"adressId":422,"strasse":"Veith","nummer":"34214","ortId":422},"ort":{"ortId":422,"zipCode":3790,"name":"Dongting"}},
{"adresse":{"adressId":423,"strasse":"Ridgeway","nummer":"5","ortId":423},"ort":{"ortId":423,"zipCode":5516,"name":"Tungdor"}},
{"adresse":{"adressId":424,"strasse":"Waywood","nummer":"0608","ortId":424},"ort":{"ortId":424,"zipCode":3118,"name":"Parakou"}},
{"adresse":{"adressId":425,"strasse":"Sage","nummer":"983","ortId":425},"ort":{"ortId":425,"zipCode":9252,"name":"Bhola"}},
{"adresse":{"adressId":426,"strasse":"Little Fleur","nummer":"170","ortId":426},"ort":{"ortId":426,"zipCode":8390,"name":"Cầu Giấy"}},
{"adresse":{"adressId":427,"strasse":"Chive","nummer":"30628","ortId":427},"ort":{"ortId":427,"zipCode":6480,"name":"Quận Năm"}},
{"adresse":{"adressId":428,"strasse":"Rutledge","nummer":"549","ortId":428},"ort":{"ortId":428,"zipCode":2163,"name":"Campo Grande"}},
{"adresse":{"adressId":429,"strasse":"Corry","nummer":"9","ortId":429},"ort":{"ortId":429,"zipCode":8800,"name":"New Iloilo"}},
{"adresse":{"adressId":430,"strasse":"Union","nummer":"43","ortId":430},"ort":{"ortId":430,"zipCode":3564,"name":"Yazykovo"}},
{"adresse":{"adressId":431,"strasse":"Sundown","nummer":"77511","ortId":431},"ort":{"ortId":431,"zipCode":6626,"name":"Odolanów"}},
{"adresse":{"adressId":432,"strasse":"Bluejay","nummer":"2482","ortId":432},"ort":{"ortId":432,"zipCode":4701,"name":"Lucun"}},
{"adresse":{"adressId":433,"strasse":"Bellgrove","nummer":"4","ortId":433},"ort":{"ortId":433,"zipCode":4157,"name":"Guxi"}},
{"adresse":{"adressId":434,"strasse":"Welch","nummer":"8761","ortId":434},"ort":{"ortId":434,"zipCode":3525,"name":"Ambalavao"}},
{"adresse":{"adressId":435,"strasse":"Talisman","nummer":"41750","ortId":435},"ort":{"ortId":435,"zipCode":2178,"name":"Amiens"}},
{"adresse":{"adressId":436,"strasse":"Swallow","nummer":"5066","ortId":436},"ort":{"ortId":436,"zipCode":9860,"name":"Lenīnskīy"}},
{"adresse":{"adressId":437,"strasse":"Glendale","nummer":"092","ortId":437},"ort":{"ortId":437,"zipCode":7116,"name":"El Real"}},
{"adresse":{"adressId":438,"strasse":"Rockefeller","nummer":"2","ortId":438},"ort":{"ortId":438,"zipCode":5770,"name":"Hořice"}},
{"adresse":{"adressId":439,"strasse":"Judy","nummer":"73","ortId":439},"ort":{"ortId":439,"zipCode":1561,"name":"Oranzherei"}},
{"adresse":{"adressId":440,"strasse":"Cottonwood","nummer":"97042","ortId":440},"ort":{"ortId":440,"zipCode":4047,"name":"Rancanyenang"}},
{"adresse":{"adressId":441,"strasse":"Red Cloud","nummer":"612","ortId":441},"ort":{"ortId":441,"zipCode":1233,"name":"Győr"}},
{"adresse":{"adressId":442,"strasse":"Graceland","nummer":"04","ortId":442},"ort":{"ortId":442,"zipCode":1247,"name":"La Paz"}},
{"adresse":{"adressId":443,"strasse":"Randy","nummer":"91266","ortId":443},"ort":{"ortId":443,"zipCode":8844,"name":"Majie"}},
{"adresse":{"adressId":444,"strasse":"Briar Crest","nummer":"8","ortId":444},"ort":{"ortId":444,"zipCode":1842,"name":"Nantes"}},
{"adresse":{"adressId":445,"strasse":"Pepper Wood","nummer":"9253","ortId":445},"ort":{"ortId":445,"zipCode":7507,"name":"Vavoua"}},
{"adresse":{"adressId":446,"strasse":"Mesta","nummer":"31","ortId":446},"ort":{"ortId":446,"zipCode":1006,"name":"Rawa"}},
{"adresse":{"adressId":447,"strasse":"Hintze","nummer":"574","ortId":447},"ort":{"ortId":447,"zipCode":8944,"name":"Wuppertal"}},
{"adresse":{"adressId":448,"strasse":"Troy","nummer":"959","ortId":448},"ort":{"ortId":448,"zipCode":6617,"name":"San Sebastian"}},
{"adresse":{"adressId":449,"strasse":"Porter","nummer":"97642","ortId":449},"ort":{"ortId":449,"zipCode":1398,"name":"Eystur"}},
{"adresse":{"adressId":450,"strasse":"Pepper Wood","nummer":"99740","ortId":450},"ort":{"ortId":450,"zipCode":1818,"name":"San Fernando"}},
{"adresse":{"adressId":451,"strasse":"Holmberg","nummer":"2062","ortId":451},"ort":{"ortId":451,"zipCode":8150,"name":"Garoua"}},
{"adresse":{"adressId":452,"strasse":"Trailsway","nummer":"5","ortId":452},"ort":{"ortId":452,"zipCode":9054,"name":"Santo Domingo"}},
{"adresse":{"adressId":453,"strasse":"Bay","nummer":"590","ortId":453},"ort":{"ortId":453,"zipCode":9762,"name":"Cikiray"}},
{"adresse":{"adressId":454,"strasse":"Thierer","nummer":"249","ortId":454},"ort":{"ortId":454,"zipCode":8477,"name":"Ramon Magsaysay"}},
{"adresse":{"adressId":455,"strasse":"Towne","nummer":"22792","ortId":455},"ort":{"ortId":455,"zipCode":2270,"name":"Sokyryany"}},
{"adresse":{"adressId":456,"strasse":"Warbler","nummer":"847","ortId":456},"ort":{"ortId":456,"zipCode":9883,"name":"Choya"}},
{"adresse":{"adressId":457,"strasse":"New Castle","nummer":"6087","ortId":457},"ort":{"ortId":457,"zipCode":4342,"name":"Kamen"}},
{"adresse":{"adressId":458,"strasse":"Blackbird","nummer":"82172","ortId":458},"ort":{"ortId":458,"zipCode":4679,"name":"Suizhou"}},
{"adresse":{"adressId":459,"strasse":"Orin","nummer":"52","ortId":459},"ort":{"ortId":459,"zipCode":8640,"name":"Santa Rosa"}},
{"adresse":{"adressId":460,"strasse":"Pawling","nummer":"55","ortId":460},"ort":{"ortId":460,"zipCode":2369,"name":"Lis"}},
{"adresse":{"adressId":461,"strasse":"Sloan","nummer":"17","ortId":461},"ort":{"ortId":461,"zipCode":2542,"name":"Zouparria do Monte"}},
{"adresse":{"adressId":462,"strasse":"Katie","nummer":"64","ortId":462},"ort":{"ortId":462,"zipCode":6228,"name":"Casal do Conde"}},
{"adresse":{"adressId":463,"strasse":"Forest","nummer":"66483","ortId":463},"ort":{"ortId":463,"zipCode":9918,"name":"Dongba"}},
{"adresse":{"adressId":464,"strasse":"2nd","nummer":"643","ortId":464},"ort":{"ortId":464,"zipCode":2951,"name":"Bastan"}},
{"adresse":{"adressId":465,"strasse":"Erie","nummer":"8","ortId":465},"ort":{"ortId":465,"zipCode":7966,"name":"Vimmerby"}},
{"adresse":{"adressId":466,"strasse":"8th","nummer":"997","ortId":466},"ort":{"ortId":466,"zipCode":2195,"name":"Nal’chik"}},
{"adresse":{"adressId":467,"strasse":"Warner","nummer":"2","ortId":467},"ort":{"ortId":467,"zipCode":3597,"name":"Lonpao Dajah"}},
{"adresse":{"adressId":468,"strasse":"New Castle","nummer":"0","ortId":468},"ort":{"ortId":468,"zipCode":7148,"name":"Huazhai"}},
{"adresse":{"adressId":469,"strasse":"Grover","nummer":"3","ortId":469},"ort":{"ortId":469,"zipCode":9152,"name":"Strání"}},
{"adresse":{"adressId":470,"strasse":"Pierstorff","nummer":"88821","ortId":470},"ort":{"ortId":470,"zipCode":7824,"name":"Labuhankananga"}},
{"adresse":{"adressId":471,"strasse":"Upham","nummer":"739","ortId":471},"ort":{"ortId":471,"zipCode":6602,"name":"Pacapausa"}},
{"adresse":{"adressId":472,"strasse":"Dakota","nummer":"6595","ortId":472},"ort":{"ortId":472,"zipCode":1433,"name":"Kampong Chhnang"}},
{"adresse":{"adressId":473,"strasse":"Holmberg","nummer":"9213","ortId":473},"ort":{"ortId":473,"zipCode":1928,"name":"Kete Krachi"}},
{"adresse":{"adressId":474,"strasse":"Graceland","nummer":"6","ortId":474},"ort":{"ortId":474,"zipCode":1079,"name":"Mysove"}},
{"adresse":{"adressId":475,"strasse":"Upham","nummer":"3142","ortId":475},"ort":{"ortId":475,"zipCode":3220,"name":"Dourados"}},
{"adresse":{"adressId":476,"strasse":"Twin Pines","nummer":"4","ortId":476},"ort":{"ortId":476,"zipCode":7761,"name":"Nuštar"}},
{"adresse":{"adressId":477,"strasse":"Golf View","nummer":"9","ortId":477},"ort":{"ortId":477,"zipCode":5047,"name":"Taivalkoski"}},
{"adresse":{"adressId":478,"strasse":"Anniversary","nummer":"4","ortId":478},"ort":{"ortId":478,"zipCode":7955,"name":"Korostyshiv"}},
{"adresse":{"adressId":479,"strasse":"Westridge","nummer":"05","ortId":479},"ort":{"ortId":479,"zipCode":3510,"name":"Bologna"}},
{"adresse":{"adressId":480,"strasse":"Westerfield","nummer":"21","ortId":480},"ort":{"ortId":480,"zipCode":3709,"name":"Kedungbacin"}},
{"adresse":{"adressId":481,"strasse":"Fuller","nummer":"3","ortId":481},"ort":{"ortId":481,"zipCode":1878,"name":"Aqqan"}},
{"adresse":{"adressId":482,"strasse":"Northport","nummer":"7","ortId":482},"ort":{"ortId":482,"zipCode":9265,"name":"Quixadá"}},
{"adresse":{"adressId":483,"strasse":"Mendota","nummer":"41","ortId":483},"ort":{"ortId":483,"zipCode":8966,"name":"Nanyang"}},
{"adresse":{"adressId":484,"strasse":"Superior","nummer":"1","ortId":484},"ort":{"ortId":484,"zipCode":9941,"name":"Lacdayan"}},
{"adresse":{"adressId":485,"strasse":"Merry","nummer":"42","ortId":485},"ort":{"ortId":485,"zipCode":6912,"name":"Orlando"}},
{"adresse":{"adressId":486,"strasse":"Debra","nummer":"93","ortId":486},"ort":{"ortId":486,"zipCode":9524,"name":"Tagakpan"}},
{"adresse":{"adressId":487,"strasse":"Gale","nummer":"64002","ortId":487},"ort":{"ortId":487,"zipCode":4831,"name":"São Pedro"}},
{"adresse":{"adressId":488,"strasse":"Monument","nummer":"151","ortId":488},"ort":{"ortId":488,"zipCode":2976,"name":"Jaunpils"}},
{"adresse":{"adressId":489,"strasse":"Delladonna","nummer":"7","ortId":489},"ort":{"ortId":489,"zipCode":6396,"name":"Wotsogo"}},
{"adresse":{"adressId":490,"strasse":"Cottonwood","nummer":"79149","ortId":490},"ort":{"ortId":490,"zipCode":3555,"name":"Shtip"}},
{"adresse":{"adressId":491,"strasse":"Karstens","nummer":"35664","ortId":491},"ort":{"ortId":491,"zipCode":3530,"name":"Zásmuky"}},
{"adresse":{"adressId":492,"strasse":"Corscot","nummer":"1","ortId":492},"ort":{"ortId":492,"zipCode":7260,"name":"Shumyachi"}},
{"adresse":{"adressId":493,"strasse":"Messerschmidt","nummer":"7099","ortId":493},"ort":{"ortId":493,"zipCode":1863,"name":"Xiangride"}},
{"adresse":{"adressId":494,"strasse":"Artisan","nummer":"1","ortId":494},"ort":{"ortId":494,"zipCode":3980,"name":"Tubod"}},
{"adresse":{"adressId":495,"strasse":"Darwin","nummer":"587","ortId":495},"ort":{"ortId":495,"zipCode":2218,"name":"Aomori Shi"}},
{"adresse":{"adressId":496,"strasse":"Raven","nummer":"7","ortId":496},"ort":{"ortId":496,"zipCode":7856,"name":"San Carlos"}},
{"adresse":{"adressId":497,"strasse":"Graceland","nummer":"9551","ortId":497},"ort":{"ortId":497,"zipCode":5584,"name":"Wafang"}},
{"adresse":{"adressId":498,"strasse":"Utah","nummer":"22808","ortId":498},"ort":{"ortId":498,"zipCode":6434,"name":"Samokov"}},
{"adresse":{"adressId":499,"strasse":"Rigney","nummer":"82","ortId":499},"ort":{"ortId":499,"zipCode":3193,"name":"Ulichnoye"}},
{"adresse":{"adressId":500,"strasse":"Atwood","nummer":"9255","ortId":500},"ort":{"ortId":500,"zipCode":7264,"name":"Hovd"}},
{"adresse":{"adressId":501,"strasse":"Truax","nummer":"07","ortId":501},"ort":{"ortId":501,"zipCode":8718,"name":"Ilare"}},
{"adresse":{"adressId":502,"strasse":"Mariners Cove","nummer":"79076","ortId":502},"ort":{"ortId":502,"zipCode":2833,"name":"Shazhuang"}},
{"adresse":{"adressId":503,"strasse":"Stone Corner","nummer":"00","ortId":503},"ort":{"ortId":503,"zipCode":6916,"name":"Vila Franca de Xira"}},
{"adresse":{"adressId":504,"strasse":"Evergreen","nummer":"2124","ortId":504},"ort":{"ortId":504,"zipCode":8984,"name":"Sirnasari"}},
{"adresse":{"adressId":505,"strasse":"Anzinger","nummer":"3641","ortId":505},"ort":{"ortId":505,"zipCode":1613,"name":"Furong"}},
{"adresse":{"adressId":506,"strasse":"Union","nummer":"52620","ortId":506},"ort":{"ortId":506,"zipCode":9937,"name":"Juupajoki"}},
{"adresse":{"adressId":507,"strasse":"Knutson","nummer":"5","ortId":507},"ort":{"ortId":507,"zipCode":1629,"name":"München"}},
{"adresse":{"adressId":508,"strasse":"Schlimgen","nummer":"42453","ortId":508},"ort":{"ortId":508,"zipCode":1927,"name":"Kouvarás"}},
{"adresse":{"adressId":509,"strasse":"Longview","nummer":"4889","ortId":509},"ort":{"ortId":509,"zipCode":8577,"name":"Pavlovskaya"}},
{"adresse":{"adressId":510,"strasse":"Village Green","nummer":"005","ortId":510},"ort":{"ortId":510,"zipCode":8756,"name":"Ust’-Ilimsk"}},
{"adresse":{"adressId":511,"strasse":"Arapahoe","nummer":"307","ortId":511},"ort":{"ortId":511,"zipCode":8421,"name":"Qiewa"}},
{"adresse":{"adressId":512,"strasse":"Iowa","nummer":"123","ortId":512},"ort":{"ortId":512,"zipCode":1524,"name":"Saint-Denis"}},
{"adresse":{"adressId":513,"strasse":"Glacier Hill","nummer":"48","ortId":513},"ort":{"ortId":513,"zipCode":9171,"name":"Dos Quebradas"}},
{"adresse":{"adressId":514,"strasse":"Tennyson","nummer":"16","ortId":514},"ort":{"ortId":514,"zipCode":9687,"name":"Yanshang"}},
{"adresse":{"adressId":515,"strasse":"Everett","nummer":"2","ortId":515},"ort":{"ortId":515,"zipCode":8460,"name":"Tinalmud"}},
{"adresse":{"adressId":516,"strasse":"Schiller","nummer":"6989","ortId":516},"ort":{"ortId":516,"zipCode":7286,"name":"Bobigny"}},
{"adresse":{"adressId":517,"strasse":"Crescent Oaks","nummer":"8516","ortId":517},"ort":{"ortId":517,"zipCode":7017,"name":"‘Akko"}},
{"adresse":{"adressId":518,"strasse":"Delaware","nummer":"3860","ortId":518},"ort":{"ortId":518,"zipCode":4239,"name":"Youhao"}},
{"adresse":{"adressId":519,"strasse":"Anhalt","nummer":"44","ortId":519},"ort":{"ortId":519,"zipCode":1133,"name":"Mamer"}},
{"adresse":{"adressId":520,"strasse":"Graedel","nummer":"0810","ortId":520},"ort":{"ortId":520,"zipCode":3450,"name":"Kinango"}},
{"adresse":{"adressId":521,"strasse":"Green","nummer":"6051","ortId":521},"ort":{"ortId":521,"zipCode":7891,"name":"La Virginia"}},
{"adresse":{"adressId":522,"strasse":"Hoffman","nummer":"1","ortId":522},"ort":{"ortId":522,"zipCode":7978,"name":"Mnich"}},
{"adresse":{"adressId":523,"strasse":"Atwood","nummer":"56201","ortId":523},"ort":{"ortId":523,"zipCode":9131,"name":"Hoçisht"}},
{"adresse":{"adressId":524,"strasse":"Fremont","nummer":"9612","ortId":524},"ort":{"ortId":524,"zipCode":5970,"name":"Kalibaru"}},
{"adresse":{"adressId":525,"strasse":"Fremont","nummer":"2215","ortId":525},"ort":{"ortId":525,"zipCode":1741,"name":"Orimattila"}},
{"adresse":{"adressId":526,"strasse":"Jana","nummer":"656","ortId":526},"ort":{"ortId":526,"zipCode":3127,"name":"Warlubie"}},
{"adresse":{"adressId":527,"strasse":"Steensland","nummer":"8","ortId":527},"ort":{"ortId":527,"zipCode":8139,"name":"Bor"}},
{"adresse":{"adressId":528,"strasse":"Surrey","nummer":"957","ortId":528},"ort":{"ortId":528,"zipCode":5518,"name":"Nunleu"}},
{"adresse":{"adressId":529,"strasse":"Commercial","nummer":"320","ortId":529},"ort":{"ortId":529,"zipCode":4625,"name":"Le Mans"}},
{"adresse":{"adressId":530,"strasse":"Gina","nummer":"0163","ortId":530},"ort":{"ortId":530,"zipCode":8856,"name":"Palmas Bellas"}},
{"adresse":{"adressId":531,"strasse":"Hovde","nummer":"859","ortId":531},"ort":{"ortId":531,"zipCode":6696,"name":"Luqiao"}},
{"adresse":{"adressId":532,"strasse":"Kings","nummer":"8601","ortId":532},"ort":{"ortId":532,"zipCode":4308,"name":"Nangakeo"}},
{"adresse":{"adressId":533,"strasse":"Fieldstone","nummer":"35323","ortId":533},"ort":{"ortId":533,"zipCode":8159,"name":"Tuymazy"}},
{"adresse":{"adressId":534,"strasse":"Michigan","nummer":"938","ortId":534},"ort":{"ortId":534,"zipCode":2347,"name":"Övertorneå"}},
{"adresse":{"adressId":535,"strasse":"Veith","nummer":"7517","ortId":535},"ort":{"ortId":535,"zipCode":9723,"name":"Sarzedo"}},
{"adresse":{"adressId":536,"strasse":"Everett","nummer":"17260","ortId":536},"ort":{"ortId":536,"zipCode":7396,"name":"Bulihan"}},
{"adresse":{"adressId":537,"strasse":"Dahle","nummer":"6119","ortId":537},"ort":{"ortId":537,"zipCode":2248,"name":"Ribeirópolis"}},
{"adresse":{"adressId":538,"strasse":"Vidon","nummer":"35","ortId":538},"ort":{"ortId":538,"zipCode":5075,"name":"Zárate"}},
{"adresse":{"adressId":539,"strasse":"Hagan","nummer":"29","ortId":539},"ort":{"ortId":539,"zipCode":9502,"name":"Abū Zabad"}},
{"adresse":{"adressId":540,"strasse":"Becker","nummer":"83751","ortId":540},"ort":{"ortId":540,"zipCode":5090,"name":"Rennes"}},
{"adresse":{"adressId":541,"strasse":"Fremont","nummer":"106","ortId":541},"ort":{"ortId":541,"zipCode":5007,"name":"Sukaratu"}},
{"adresse":{"adressId":542,"strasse":"Stuart","nummer":"28605","ortId":542},"ort":{"ortId":542,"zipCode":2208,"name":"Kuching"}},
{"adresse":{"adressId":543,"strasse":"Dryden","nummer":"200","ortId":543},"ort":{"ortId":543,"zipCode":8940,"name":"Sibulan"}},
{"adresse":{"adressId":544,"strasse":"Briar Crest","nummer":"253","ortId":544},"ort":{"ortId":544,"zipCode":4636,"name":"Telsen"}},
{"adresse":{"adressId":545,"strasse":"Dottie","nummer":"41","ortId":545},"ort":{"ortId":545,"zipCode":5233,"name":"Ketawang"}},
{"adresse":{"adressId":546,"strasse":"Sommers","nummer":"38985","ortId":546},"ort":{"ortId":546,"zipCode":4572,"name":"Suvorov"}},
{"adresse":{"adressId":547,"strasse":"Granby","nummer":"8371","ortId":547},"ort":{"ortId":547,"zipCode":1324,"name":"Ryczywół"}},
{"adresse":{"adressId":548,"strasse":"Steensland","nummer":"93441","ortId":548},"ort":{"ortId":548,"zipCode":6807,"name":"Progreso"}},
{"adresse":{"adressId":549,"strasse":"Amoth","nummer":"4","ortId":549},"ort":{"ortId":549,"zipCode":3741,"name":"Katagum"}},
{"adresse":{"adressId":550,"strasse":"Summer Ridge","nummer":"54170","ortId":550},"ort":{"ortId":550,"zipCode":5783,"name":"Xinquansi"}},
{"adresse":{"adressId":551,"strasse":"Ridgeview","nummer":"1","ortId":551},"ort":{"ortId":551,"zipCode":6854,"name":"Zhangjiabao"}},
{"adresse":{"adressId":552,"strasse":"Hooker","nummer":"246","ortId":552},"ort":{"ortId":552,"zipCode":3765,"name":"Xiacang"}},
{"adresse":{"adressId":553,"strasse":"Gulseth","nummer":"26246","ortId":553},"ort":{"ortId":553,"zipCode":8330,"name":"San Benito Abad"}},
{"adresse":{"adressId":554,"strasse":"Carioca","nummer":"89","ortId":554},"ort":{"ortId":554,"zipCode":6397,"name":"Senadan"}},
{"adresse":{"adressId":555,"strasse":"Utah","nummer":"22098","ortId":555},"ort":{"ortId":555,"zipCode":6508,"name":"Muyinga"}},
{"adresse":{"adressId":556,"strasse":"Morrow","nummer":"175","ortId":556},"ort":{"ortId":556,"zipCode":1888,"name":"Cimadang"}},
{"adresse":{"adressId":557,"strasse":"Charing Cross","nummer":"077","ortId":557},"ort":{"ortId":557,"zipCode":9447,"name":"Pinggirsari"}},
{"adresse":{"adressId":558,"strasse":"Sutteridge","nummer":"2055","ortId":558},"ort":{"ortId":558,"zipCode":2748,"name":"Ras al-Khaimah"}},
{"adresse":{"adressId":559,"strasse":"Mariners Cove","nummer":"41366","ortId":559},"ort":{"ortId":559,"zipCode":5933,"name":"Vincennes"}},
{"adresse":{"adressId":560,"strasse":"Fairfield","nummer":"43","ortId":560},"ort":{"ortId":560,"zipCode":2159,"name":"Lorengau"}},
{"adresse":{"adressId":561,"strasse":"Waywood","nummer":"815","ortId":561},"ort":{"ortId":561,"zipCode":4439,"name":"Lousado"}},
{"adresse":{"adressId":562,"strasse":"Killdeer","nummer":"44757","ortId":562},"ort":{"ortId":562,"zipCode":5591,"name":"Yuanba"}},
{"adresse":{"adressId":563,"strasse":"Dryden","nummer":"765","ortId":563},"ort":{"ortId":563,"zipCode":9191,"name":"Kemisē"}},
{"adresse":{"adressId":564,"strasse":"Monterey","nummer":"3","ortId":564},"ort":{"ortId":564,"zipCode":3902,"name":"Houston"}},
{"adresse":{"adressId":565,"strasse":"Grayhawk","nummer":"0543","ortId":565},"ort":{"ortId":565,"zipCode":1263,"name":"Arias"}},
{"adresse":{"adressId":566,"strasse":"Manufacturers","nummer":"08480","ortId":566},"ort":{"ortId":566,"zipCode":5443,"name":"Batad"}},
{"adresse":{"adressId":567,"strasse":"Barby","nummer":"4","ortId":567},"ort":{"ortId":567,"zipCode":8207,"name":"Auxerre"}},
{"adresse":{"adressId":568,"strasse":"Crescent Oaks","nummer":"9835","ortId":568},"ort":{"ortId":568,"zipCode":8088,"name":"Azteca"}},
{"adresse":{"adressId":569,"strasse":"Nancy","nummer":"418","ortId":569},"ort":{"ortId":569,"zipCode":2357,"name":"Al Ḩawātah"}},
{"adresse":{"adressId":570,"strasse":"Fairfield","nummer":"294","ortId":570},"ort":{"ortId":570,"zipCode":6705,"name":"Cerro Corá"}},
{"adresse":{"adressId":571,"strasse":"Summerview","nummer":"3","ortId":571},"ort":{"ortId":571,"zipCode":4751,"name":"Morelos"}},
{"adresse":{"adressId":572,"strasse":"Muir","nummer":"93149","ortId":572},"ort":{"ortId":572,"zipCode":1043,"name":"Tomilino"}},
{"adresse":{"adressId":573,"strasse":"Grayhawk","nummer":"09404","ortId":573},"ort":{"ortId":573,"zipCode":4404,"name":"Ipu"}},
{"adresse":{"adressId":574,"strasse":"Bobwhite","nummer":"7","ortId":574},"ort":{"ortId":574,"zipCode":9483,"name":"Pontal"}},
{"adresse":{"adressId":575,"strasse":"Waywood","nummer":"389","ortId":575},"ort":{"ortId":575,"zipCode":4818,"name":"Xingzhen"}},
{"adresse":{"adressId":576,"strasse":"Florence","nummer":"7036","ortId":576},"ort":{"ortId":576,"zipCode":3758,"name":"Homa Bay"}},
{"adresse":{"adressId":577,"strasse":"High Crossing","nummer":"5","ortId":577},"ort":{"ortId":577,"zipCode":4471,"name":"Maojiagang"}},
{"adresse":{"adressId":578,"strasse":"Sunnyside","nummer":"3","ortId":578},"ort":{"ortId":578,"zipCode":8344,"name":"Libas"}},
{"adresse":{"adressId":579,"strasse":"Scoville","nummer":"4","ortId":579},"ort":{"ortId":579,"zipCode":3610,"name":"Cali"}},
{"adresse":{"adressId":580,"strasse":"Eliot","nummer":"14619","ortId":580},"ort":{"ortId":580,"zipCode":7159,"name":"Washington"}},
{"adresse":{"adressId":581,"strasse":"Dottie","nummer":"7077","ortId":581},"ort":{"ortId":581,"zipCode":4591,"name":"Thị Trấn Văn Quan"}},
{"adresse":{"adressId":582,"strasse":"Mcguire","nummer":"2","ortId":582},"ort":{"ortId":582,"zipCode":4746,"name":"Tam Kỳ"}},
{"adresse":{"adressId":583,"strasse":"Jackson","nummer":"93","ortId":583},"ort":{"ortId":583,"zipCode":4426,"name":"Orong"}},
{"adresse":{"adressId":584,"strasse":"Morrow","nummer":"6061","ortId":584},"ort":{"ortId":584,"zipCode":6650,"name":"Sapiranga"}},
{"adresse":{"adressId":585,"strasse":"Golden Leaf","nummer":"69","ortId":585},"ort":{"ortId":585,"zipCode":9888,"name":"Gaoming"}},
{"adresse":{"adressId":586,"strasse":"Schiller","nummer":"5344","ortId":586},"ort":{"ortId":586,"zipCode":8398,"name":"Akoupé"}},
{"adresse":{"adressId":587,"strasse":"Stoughton","nummer":"14670","ortId":587},"ort":{"ortId":587,"zipCode":6986,"name":"Semamung"}},
{"adresse":{"adressId":588,"strasse":"5th","nummer":"41949","ortId":588},"ort":{"ortId":588,"zipCode":9308,"name":"São Lourenço"}},
{"adresse":{"adressId":589,"strasse":"Scott","nummer":"69659","ortId":589},"ort":{"ortId":589,"zipCode":2115,"name":"Xingpinglu"}},
{"adresse":{"adressId":590,"strasse":"Monument","nummer":"65","ortId":590},"ort":{"ortId":590,"zipCode":7897,"name":"Deán Funes"}},
{"adresse":{"adressId":591,"strasse":"Dixon","nummer":"5364","ortId":591},"ort":{"ortId":591,"zipCode":6505,"name":"Biguaçu"}},
{"adresse":{"adressId":592,"strasse":"Monterey","nummer":"3","ortId":592},"ort":{"ortId":592,"zipCode":1781,"name":"Ipoh"}},
{"adresse":{"adressId":593,"strasse":"Vidon","nummer":"45","ortId":593},"ort":{"ortId":593,"zipCode":6001,"name":"Jinglou"}},
{"adresse":{"adressId":594,"strasse":"Old Gate","nummer":"5","ortId":594},"ort":{"ortId":594,"zipCode":1581,"name":"Cipicung"}},
{"adresse":{"adressId":595,"strasse":"Sunfield","nummer":"92","ortId":595},"ort":{"ortId":595,"zipCode":7816,"name":"Rongelap"}},
{"adresse":{"adressId":596,"strasse":"Ronald Regan","nummer":"81","ortId":596},"ort":{"ortId":596,"zipCode":6566,"name":"Huji"}},
{"adresse":{"adressId":597,"strasse":"Michigan","nummer":"22306","ortId":597},"ort":{"ortId":597,"zipCode":2900,"name":"Espinheira"}},
{"adresse":{"adressId":598,"strasse":"Continental","nummer":"706","ortId":598},"ort":{"ortId":598,"zipCode":3598,"name":"Krasnolesnyy"}},
{"adresse":{"adressId":599,"strasse":"Paget","nummer":"08","ortId":599},"ort":{"ortId":599,"zipCode":4380,"name":"Xiaochi"}},
{"adresse":{"adressId":600,"strasse":"Brown","nummer":"13","ortId":600},"ort":{"ortId":600,"zipCode":9392,"name":"Malanday"}},
{"adresse":{"adressId":601,"strasse":"Veith","nummer":"67","ortId":601},"ort":{"ortId":601,"zipCode":2473,"name":"Xijiao"}},
{"adresse":{"adressId":602,"strasse":"Utah","nummer":"05","ortId":602},"ort":{"ortId":602,"zipCode":9286,"name":"Alak"}},
{"adresse":{"adressId":603,"strasse":"Dottie","nummer":"10312","ortId":603},"ort":{"ortId":603,"zipCode":6852,"name":"Changping"}},
{"adresse":{"adressId":604,"strasse":"Corben","nummer":"12062","ortId":604},"ort":{"ortId":604,"zipCode":4099,"name":"Bojen Kulon"}},
{"adresse":{"adressId":605,"strasse":"Schiller","nummer":"5600","ortId":605},"ort":{"ortId":605,"zipCode":4915,"name":"Pecka"}},
{"adresse":{"adressId":606,"strasse":"Eagan","nummer":"463","ortId":606},"ort":{"ortId":606,"zipCode":5712,"name":"Mukařov"}},
{"adresse":{"adressId":607,"strasse":"Haas","nummer":"9093","ortId":607},"ort":{"ortId":607,"zipCode":1634,"name":"Presidente Venceslau"}},
{"adresse":{"adressId":608,"strasse":"Sullivan","nummer":"9","ortId":608},"ort":{"ortId":608,"zipCode":6727,"name":"Podporozh’ye"}},
{"adresse":{"adressId":609,"strasse":"Grayhawk","nummer":"64","ortId":609},"ort":{"ortId":609,"zipCode":2280,"name":"Blarney"}},
{"adresse":{"adressId":610,"strasse":"Darwin","nummer":"7394","ortId":610},"ort":{"ortId":610,"zipCode":6853,"name":"Umbultanjung"}},
{"adresse":{"adressId":611,"strasse":"6th","nummer":"9","ortId":611},"ort":{"ortId":611,"zipCode":7872,"name":"Mocímboa"}},
{"adresse":{"adressId":612,"strasse":"Alpine","nummer":"9049","ortId":612},"ort":{"ortId":612,"zipCode":6553,"name":"Bollène"}},
{"adresse":{"adressId":613,"strasse":"Grim","nummer":"86","ortId":613},"ort":{"ortId":613,"zipCode":1988,"name":"Bobrov"}},
{"adresse":{"adressId":614,"strasse":"Knutson","nummer":"7688","ortId":614},"ort":{"ortId":614,"zipCode":2069,"name":"Mo I Rana"}},
{"adresse":{"adressId":615,"strasse":"Delladonna","nummer":"6","ortId":615},"ort":{"ortId":615,"zipCode":1879,"name":"Babantar"}},
{"adresse":{"adressId":616,"strasse":"Glendale","nummer":"598","ortId":616},"ort":{"ortId":616,"zipCode":9275,"name":"Shuikou"}},
{"adresse":{"adressId":617,"strasse":"Shoshone","nummer":"62","ortId":617},"ort":{"ortId":617,"zipCode":9627,"name":"Duwakbuter"}},
{"adresse":{"adressId":618,"strasse":"Pankratz","nummer":"903","ortId":618},"ort":{"ortId":618,"zipCode":6619,"name":"Cikananga"}},
{"adresse":{"adressId":619,"strasse":"Twin Pines","nummer":"59963","ortId":619},"ort":{"ortId":619,"zipCode":4692,"name":"Antsirabe"}},
{"adresse":{"adressId":620,"strasse":"Sugar","nummer":"18","ortId":620},"ort":{"ortId":620,"zipCode":8403,"name":"Jalingo"}},
{"adresse":{"adressId":621,"strasse":"Dahle","nummer":"695","ortId":621},"ort":{"ortId":621,"zipCode":3770,"name":"Budayuan"}},
{"adresse":{"adressId":622,"strasse":"Darwin","nummer":"4767","ortId":622},"ort":{"ortId":622,"zipCode":4765,"name":"Thị Trấn Trùng Khánh"}},
{"adresse":{"adressId":623,"strasse":"Lakewood","nummer":"918","ortId":623},"ort":{"ortId":623,"zipCode":9613,"name":"Shumikhinskiy"}},
{"adresse":{"adressId":624,"strasse":"Texas","nummer":"357","ortId":624},"ort":{"ortId":624,"zipCode":3553,"name":"Dusit"}},
{"adresse":{"adressId":625,"strasse":"Haas","nummer":"8","ortId":625},"ort":{"ortId":625,"zipCode":9148,"name":"Xiaxindian"}},
{"adresse":{"adressId":626,"strasse":"Packers","nummer":"5","ortId":626},"ort":{"ortId":626,"zipCode":7152,"name":"Castelo"}},
{"adresse":{"adressId":627,"strasse":"Bayside","nummer":"9","ortId":627},"ort":{"ortId":627,"zipCode":8404,"name":"Vinica"}},
{"adresse":{"adressId":628,"strasse":"Hansons","nummer":"7973","ortId":628},"ort":{"ortId":628,"zipCode":3114,"name":"Dobra"}},
{"adresse":{"adressId":629,"strasse":"Division","nummer":"479","ortId":629},"ort":{"ortId":629,"zipCode":1852,"name":"Xikou"}},
{"adresse":{"adressId":630,"strasse":"Pierstorff","nummer":"4003","ortId":630},"ort":{"ortId":630,"zipCode":4437,"name":"Vanimo"}},
{"adresse":{"adressId":631,"strasse":"Farmco","nummer":"178","ortId":631},"ort":{"ortId":631,"zipCode":7480,"name":"Nagbalaye"}},
{"adresse":{"adressId":632,"strasse":"Katie","nummer":"7265","ortId":632},"ort":{"ortId":632,"zipCode":1971,"name":"Liwale"}},
{"adresse":{"adressId":633,"strasse":"Hollow Ridge","nummer":"744","ortId":633},"ort":{"ortId":633,"zipCode":2772,"name":"Amparo"}},
{"adresse":{"adressId":634,"strasse":"Carey","nummer":"303","ortId":634},"ort":{"ortId":634,"zipCode":5074,"name":"Manamrag"}},
{"adresse":{"adressId":635,"strasse":"Oak","nummer":"426","ortId":635},"ort":{"ortId":635,"zipCode":4131,"name":"Batibati"}},
{"adresse":{"adressId":636,"strasse":"Morningstar","nummer":"2016","ortId":636},"ort":{"ortId":636,"zipCode":3364,"name":"Bajo"}},
{"adresse":{"adressId":637,"strasse":"Killdeer","nummer":"8","ortId":637},"ort":{"ortId":637,"zipCode":3671,"name":"Vitoria-Gasteiz"}},
{"adresse":{"adressId":638,"strasse":"Evergreen","nummer":"4","ortId":638},"ort":{"ortId":638,"zipCode":3080,"name":"Elele"}},
{"adresse":{"adressId":639,"strasse":"Ilene","nummer":"18968","ortId":639},"ort":{"ortId":639,"zipCode":4650,"name":"At Tibnī"}},
{"adresse":{"adressId":640,"strasse":"Boyd","nummer":"56900","ortId":640},"ort":{"ortId":640,"zipCode":2455,"name":"Örebro"}},
{"adresse":{"adressId":641,"strasse":"Twin Pines","nummer":"019","ortId":641},"ort":{"ortId":641,"zipCode":8868,"name":"Medovene"}},
{"adresse":{"adressId":642,"strasse":"Huxley","nummer":"62","ortId":642},"ort":{"ortId":642,"zipCode":6724,"name":"Xinghuo"}},
{"adresse":{"adressId":643,"strasse":"Mcguire","nummer":"32","ortId":643},"ort":{"ortId":643,"zipCode":4771,"name":"Sājir"}},
{"adresse":{"adressId":644,"strasse":"North","nummer":"42380","ortId":644},"ort":{"ortId":644,"zipCode":4060,"name":"Kítsi"}},
{"adresse":{"adressId":645,"strasse":"Dunning","nummer":"4748","ortId":645},"ort":{"ortId":645,"zipCode":3870,"name":"Karantaba"}},
{"adresse":{"adressId":646,"strasse":"Old Shore","nummer":"87","ortId":646},"ort":{"ortId":646,"zipCode":1686,"name":"Rodionovo-Nesvetaiskoye"}},
{"adresse":{"adressId":647,"strasse":"Grover","nummer":"71819","ortId":647},"ort":{"ortId":647,"zipCode":6801,"name":"Lawonda"}},
{"adresse":{"adressId":648,"strasse":"Sullivan","nummer":"3","ortId":648},"ort":{"ortId":648,"zipCode":2689,"name":"Toyokawa"}},
{"adresse":{"adressId":649,"strasse":"Jackson","nummer":"90","ortId":649},"ort":{"ortId":649,"zipCode":8446,"name":"Al Manşūrah"}},
{"adresse":{"adressId":650,"strasse":"Gulseth","nummer":"869","ortId":650},"ort":{"ortId":650,"zipCode":3775,"name":"Aviles"}},
{"adresse":{"adressId":651,"strasse":"Rowland","nummer":"941","ortId":651},"ort":{"ortId":651,"zipCode":1437,"name":"Zhaxi"}},
{"adresse":{"adressId":652,"strasse":"Nancy","nummer":"0","ortId":652},"ort":{"ortId":652,"zipCode":3438,"name":"Hebei"}},
{"adresse":{"adressId":653,"strasse":"Moose","nummer":"12","ortId":653},"ort":{"ortId":653,"zipCode":5513,"name":"Jincheng"}},
{"adresse":{"adressId":654,"strasse":"Briar Crest","nummer":"73","ortId":654},"ort":{"ortId":654,"zipCode":9436,"name":"Magapit"}},
{"adresse":{"adressId":655,"strasse":"Elgar","nummer":"885","ortId":655},"ort":{"ortId":655,"zipCode":8319,"name":"Niaohe"}},
{"adresse":{"adressId":656,"strasse":"Prairie Rose","nummer":"075","ortId":656},"ort":{"ortId":656,"zipCode":8183,"name":"Stare Pole"}},
{"adresse":{"adressId":657,"strasse":"Thierer","nummer":"2","ortId":657},"ort":{"ortId":657,"zipCode":3759,"name":"Mashan"}},
{"adresse":{"adressId":658,"strasse":"Sunbrook","nummer":"7","ortId":658},"ort":{"ortId":658,"zipCode":9186,"name":"Balesari"}},
{"adresse":{"adressId":659,"strasse":"Canary","nummer":"845","ortId":659},"ort":{"ortId":659,"zipCode":7127,"name":"Tampa"}},
{"adresse":{"adressId":660,"strasse":"Sherman","nummer":"8","ortId":660},"ort":{"ortId":660,"zipCode":5423,"name":"Londiani"}},
{"adresse":{"adressId":661,"strasse":"Loomis","nummer":"4","ortId":661},"ort":{"ortId":661,"zipCode":3748,"name":"Fussa"}},
{"adresse":{"adressId":662,"strasse":"Trailsway","nummer":"87","ortId":662},"ort":{"ortId":662,"zipCode":7164,"name":"Batasan"}},
{"adresse":{"adressId":663,"strasse":"Summerview","nummer":"8","ortId":663},"ort":{"ortId":663,"zipCode":7503,"name":"Kolympári"}},
{"adresse":{"adressId":664,"strasse":"Vera","nummer":"4","ortId":664},"ort":{"ortId":664,"zipCode":5820,"name":"Chkalov"}},
{"adresse":{"adressId":665,"strasse":"Forest Run","nummer":"03840","ortId":665},"ort":{"ortId":665,"zipCode":9958,"name":"Tambaksari"}},
{"adresse":{"adressId":666,"strasse":"Southridge","nummer":"31","ortId":666},"ort":{"ortId":666,"zipCode":3337,"name":"Kitapak"}},
{"adresse":{"adressId":667,"strasse":"Florence","nummer":"7","ortId":667},"ort":{"ortId":667,"zipCode":1503,"name":"Bayan Tuohai"}},
{"adresse":{"adressId":668,"strasse":"Garrison","nummer":"2","ortId":668},"ort":{"ortId":668,"zipCode":7271,"name":"Bebedouro"}},
{"adresse":{"adressId":669,"strasse":"Clemons","nummer":"82521","ortId":669},"ort":{"ortId":669,"zipCode":9191,"name":"Jabłonica Polska"}},
{"adresse":{"adressId":670,"strasse":"Monica","nummer":"9","ortId":670},"ort":{"ortId":670,"zipCode":7315,"name":"Futian"}},
{"adresse":{"adressId":671,"strasse":"Beilfuss","nummer":"4","ortId":671},"ort":{"ortId":671,"zipCode":7624,"name":"Malasugui"}},
{"adresse":{"adressId":672,"strasse":"Mosinee","nummer":"82423","ortId":672},"ort":{"ortId":672,"zipCode":9611,"name":"Qiakeri"}},
{"adresse":{"adressId":673,"strasse":"Eagle Crest","nummer":"531","ortId":673},"ort":{"ortId":673,"zipCode":4695,"name":"Pilang"}},
{"adresse":{"adressId":674,"strasse":"Main","nummer":"8","ortId":674},"ort":{"ortId":674,"zipCode":3293,"name":"San Felipe"}},
{"adresse":{"adressId":675,"strasse":"Holy Cross","nummer":"61677","ortId":675},"ort":{"ortId":675,"zipCode":9573,"name":"Saskatoon"}},
{"adresse":{"adressId":676,"strasse":"5th","nummer":"649","ortId":676},"ort":{"ortId":676,"zipCode":1527,"name":"Villa Nueva"}},
{"adresse":{"adressId":677,"strasse":"Bowman","nummer":"4","ortId":677},"ort":{"ortId":677,"zipCode":7079,"name":"Mokronog"}},
{"adresse":{"adressId":678,"strasse":"Eliot","nummer":"59","ortId":678},"ort":{"ortId":678,"zipCode":5314,"name":"Budënnovsk"}},
{"adresse":{"adressId":679,"strasse":"Florence","nummer":"37435","ortId":679},"ort":{"ortId":679,"zipCode":8425,"name":"Balung"}},
{"adresse":{"adressId":680,"strasse":"Barnett","nummer":"7","ortId":680},"ort":{"ortId":680,"zipCode":8653,"name":"Gazli"}},
{"adresse":{"adressId":681,"strasse":"Morrow","nummer":"80","ortId":681},"ort":{"ortId":681,"zipCode":1615,"name":"Santa Maria"}},
{"adresse":{"adressId":682,"strasse":"Dexter","nummer":"688","ortId":682},"ort":{"ortId":682,"zipCode":9011,"name":"Huangjin"}},
{"adresse":{"adressId":683,"strasse":"Redwing","nummer":"264","ortId":683},"ort":{"ortId":683,"zipCode":6859,"name":"Yessentukskaya"}},
{"adresse":{"adressId":684,"strasse":"Pierstorff","nummer":"15","ortId":684},"ort":{"ortId":684,"zipCode":2068,"name":"Banjar Kelodan"}},
{"adresse":{"adressId":685,"strasse":"Butterfield","nummer":"3","ortId":685},"ort":{"ortId":685,"zipCode":1982,"name":"Banjaranyar"}},
{"adresse":{"adressId":686,"strasse":"Dorton","nummer":"9789","ortId":686},"ort":{"ortId":686,"zipCode":8438,"name":"Dois Portos"}},
{"adresse":{"adressId":687,"strasse":"Holy Cross","nummer":"388","ortId":687},"ort":{"ortId":687,"zipCode":4721,"name":"Bom Conselho"}},
{"adresse":{"adressId":688,"strasse":"Dayton","nummer":"71","ortId":688},"ort":{"ortId":688,"zipCode":7021,"name":"Sussex"}},
{"adresse":{"adressId":689,"strasse":"Bowman","nummer":"4","ortId":689},"ort":{"ortId":689,"zipCode":1144,"name":"Nuštar"}},
{"adresse":{"adressId":690,"strasse":"Hoepker","nummer":"42","ortId":690},"ort":{"ortId":690,"zipCode":7002,"name":"São José do Rio Pardo"}},
{"adresse":{"adressId":691,"strasse":"Claremont","nummer":"5","ortId":691},"ort":{"ortId":691,"zipCode":8570,"name":"Al Manāqil"}},
{"adresse":{"adressId":692,"strasse":"North","nummer":"458","ortId":692},"ort":{"ortId":692,"zipCode":3430,"name":"Obsza"}},
{"adresse":{"adressId":693,"strasse":"Texas","nummer":"8","ortId":693},"ort":{"ortId":693,"zipCode":8419,"name":"Hengshanqiao"}},
{"adresse":{"adressId":694,"strasse":"High Crossing","nummer":"3641","ortId":694},"ort":{"ortId":694,"zipCode":3032,"name":"Paracambi"}},
{"adresse":{"adressId":695,"strasse":"Hudson","nummer":"21691","ortId":695},"ort":{"ortId":695,"zipCode":4934,"name":"Medicine Hat"}},
{"adresse":{"adressId":696,"strasse":"Pine View","nummer":"1","ortId":696},"ort":{"ortId":696,"zipCode":6853,"name":"Nueva Manoa"}},
{"adresse":{"adressId":697,"strasse":"Norway Maple","nummer":"601","ortId":697},"ort":{"ortId":697,"zipCode":9078,"name":"Halong"}},
{"adresse":{"adressId":698,"strasse":"Farmco","nummer":"27","ortId":698},"ort":{"ortId":698,"zipCode":4168,"name":"Huatajata"}},
{"adresse":{"adressId":699,"strasse":"Judy","nummer":"46","ortId":699},"ort":{"ortId":699,"zipCode":2828,"name":"Vinhas"}},
{"adresse":{"adressId":700,"strasse":"Messerschmidt","nummer":"48914","ortId":700},"ort":{"ortId":700,"zipCode":1139,"name":"Novotitarovskaya"}},
{"adresse":{"adressId":701,"strasse":"Westerfield","nummer":"3133","ortId":701},"ort":{"ortId":701,"zipCode":7927,"name":"Águas Formosas"}},
{"adresse":{"adressId":702,"strasse":"Farmco","nummer":"9","ortId":702},"ort":{"ortId":702,"zipCode":3032,"name":"Lutou"}},
{"adresse":{"adressId":703,"strasse":"Pierstorff","nummer":"3792","ortId":703},"ort":{"ortId":703,"zipCode":2201,"name":"Moutnice"}},
{"adresse":{"adressId":704,"strasse":"Granby","nummer":"06785","ortId":704},"ort":{"ortId":704,"zipCode":4229,"name":"Palopo"}},
{"adresse":{"adressId":705,"strasse":"Eggendart","nummer":"110","ortId":705},"ort":{"ortId":705,"zipCode":6807,"name":"El Realejo"}},
{"adresse":{"adressId":706,"strasse":"Manufacturers","nummer":"10345","ortId":706},"ort":{"ortId":706,"zipCode":9916,"name":"Houjie"}},
{"adresse":{"adressId":707,"strasse":"Riverside","nummer":"6","ortId":707},"ort":{"ortId":707,"zipCode":1917,"name":"Tiouli"}},
{"adresse":{"adressId":708,"strasse":"Division","nummer":"45","ortId":708},"ort":{"ortId":708,"zipCode":1369,"name":"Osasco"}},
{"adresse":{"adressId":709,"strasse":"Maple Wood","nummer":"28657","ortId":709},"ort":{"ortId":709,"zipCode":9306,"name":"Bara Datu"}},
{"adresse":{"adressId":710,"strasse":"Longview","nummer":"5","ortId":710},"ort":{"ortId":710,"zipCode":8085,"name":"Buaran"}},
{"adresse":{"adressId":711,"strasse":"Oak","nummer":"5732","ortId":711},"ort":{"ortId":711,"zipCode":5072,"name":"Dunaújváros"}},
{"adresse":{"adressId":712,"strasse":"1st","nummer":"29","ortId":712},"ort":{"ortId":712,"zipCode":8581,"name":"Palmar de Varela"}},
{"adresse":{"adressId":713,"strasse":"Blaine","nummer":"6361","ortId":713},"ort":{"ortId":713,"zipCode":2789,"name":"Zhongdong"}},
{"adresse":{"adressId":714,"strasse":"Glacier Hill","nummer":"40","ortId":714},"ort":{"ortId":714,"zipCode":7938,"name":"At Tawāhī"}},
{"adresse":{"adressId":715,"strasse":"Butternut","nummer":"3490","ortId":715},"ort":{"ortId":715,"zipCode":5400,"name":"Morshansk"}},
{"adresse":{"adressId":716,"strasse":"Eliot","nummer":"54814","ortId":716},"ort":{"ortId":716,"zipCode":3384,"name":"Thongwa"}},
{"adresse":{"adressId":717,"strasse":"Sherman","nummer":"2205","ortId":717},"ort":{"ortId":717,"zipCode":9525,"name":"Nueva Esperanza"}},
{"adresse":{"adressId":718,"strasse":"Dapin","nummer":"7","ortId":718},"ort":{"ortId":718,"zipCode":5092,"name":"Kemlya"}},
{"adresse":{"adressId":719,"strasse":"Linden","nummer":"1","ortId":719},"ort":{"ortId":719,"zipCode":2584,"name":"Kahrīz"}},
{"adresse":{"adressId":720,"strasse":"Knutson","nummer":"5825","ortId":720},"ort":{"ortId":720,"zipCode":2811,"name":"Digne-les-Bains"}},
{"adresse":{"adressId":721,"strasse":"Arkansas","nummer":"9215","ortId":721},"ort":{"ortId":721,"zipCode":2218,"name":"Challhuahuacho"}},
{"adresse":{"adressId":722,"strasse":"Debra","nummer":"1359","ortId":722},"ort":{"ortId":722,"zipCode":2773,"name":"Shchastya"}},
{"adresse":{"adressId":723,"strasse":"Glacier Hill","nummer":"5998","ortId":723},"ort":{"ortId":723,"zipCode":4895,"name":"Loikaw"}},
{"adresse":{"adressId":724,"strasse":"Carey","nummer":"101","ortId":724},"ort":{"ortId":724,"zipCode":5063,"name":"Xianqiao"}},
{"adresse":{"adressId":725,"strasse":"Marquette","nummer":"263","ortId":725},"ort":{"ortId":725,"zipCode":1234,"name":"Palamadu"}},
{"adresse":{"adressId":726,"strasse":"Hauk","nummer":"617","ortId":726},"ort":{"ortId":726,"zipCode":6663,"name":"Jiangtou"}},
{"adresse":{"adressId":727,"strasse":"Superior","nummer":"8583","ortId":727},"ort":{"ortId":727,"zipCode":5679,"name":"Kokubu-matsuki"}},
{"adresse":{"adressId":728,"strasse":"Manitowish","nummer":"4273","ortId":728},"ort":{"ortId":728,"zipCode":3536,"name":"Shangganshan"}},
{"adresse":{"adressId":729,"strasse":"Fuller","nummer":"45","ortId":729},"ort":{"ortId":729,"zipCode":9296,"name":"Karonga"}},
{"adresse":{"adressId":730,"strasse":"Lerdahl","nummer":"51076","ortId":730},"ort":{"ortId":730,"zipCode":9310,"name":"Soavinandriana"}},
{"adresse":{"adressId":731,"strasse":"Victoria","nummer":"20","ortId":731},"ort":{"ortId":731,"zipCode":4093,"name":"North Shore"}},
{"adresse":{"adressId":732,"strasse":"Lakewood Gardens","nummer":"06716","ortId":732},"ort":{"ortId":732,"zipCode":9664,"name":"Shajing"}},
{"adresse":{"adressId":733,"strasse":"Dayton","nummer":"677","ortId":733},"ort":{"ortId":733,"zipCode":1828,"name":"La Troncal"}},
{"adresse":{"adressId":734,"strasse":"Morning","nummer":"3966","ortId":734},"ort":{"ortId":734,"zipCode":5766,"name":"Větřní"}},
{"adresse":{"adressId":735,"strasse":"Talmadge","nummer":"9167","ortId":735},"ort":{"ortId":735,"zipCode":1764,"name":"Zhutian"}},
{"adresse":{"adressId":736,"strasse":"Del Mar","nummer":"292","ortId":736},"ort":{"ortId":736,"zipCode":7469,"name":"Amparafaravola"}},
{"adresse":{"adressId":737,"strasse":"Morrow","nummer":"122","ortId":737},"ort":{"ortId":737,"zipCode":7255,"name":"Mourelos"}},
{"adresse":{"adressId":738,"strasse":"Lerdahl","nummer":"0660","ortId":738},"ort":{"ortId":738,"zipCode":7795,"name":"Granada"}},
{"adresse":{"adressId":739,"strasse":"Transport","nummer":"0","ortId":739},"ort":{"ortId":739,"zipCode":4796,"name":"Ratenggoji"}},
{"adresse":{"adressId":740,"strasse":"Pleasure","nummer":"0","ortId":740},"ort":{"ortId":740,"zipCode":8544,"name":"Las Heras"}},
{"adresse":{"adressId":741,"strasse":"Florence","nummer":"7294","ortId":741},"ort":{"ortId":741,"zipCode":9857,"name":"Kikinda"}},
{"adresse":{"adressId":742,"strasse":"Kim","nummer":"95","ortId":742},"ort":{"ortId":742,"zipCode":9595,"name":"Brunflo"}},
{"adresse":{"adressId":743,"strasse":"Ruskin","nummer":"225","ortId":743},"ort":{"ortId":743,"zipCode":7395,"name":"Challhuahuacho"}},
{"adresse":{"adressId":744,"strasse":"Hanson","nummer":"6","ortId":744},"ort":{"ortId":744,"zipCode":1984,"name":"Xinzhuang"}},
{"adresse":{"adressId":745,"strasse":"Crowley","nummer":"93","ortId":745},"ort":{"ortId":745,"zipCode":2874,"name":"Kaabong"}},
{"adresse":{"adressId":746,"strasse":"Wayridge","nummer":"202","ortId":746},"ort":{"ortId":746,"zipCode":1063,"name":"Sulangan"}},
{"adresse":{"adressId":747,"strasse":"Annamark","nummer":"48","ortId":747},"ort":{"ortId":747,"zipCode":3059,"name":"Kuzovatovo"}},
{"adresse":{"adressId":748,"strasse":"Graedel","nummer":"78","ortId":748},"ort":{"ortId":748,"zipCode":4781,"name":"Tipo-Tipo"}},
{"adresse":{"adressId":749,"strasse":"Carberry","nummer":"94165","ortId":749},"ort":{"ortId":749,"zipCode":4501,"name":"Zhoupi"}},
{"adresse":{"adressId":750,"strasse":"Spaight","nummer":"323","ortId":750},"ort":{"ortId":750,"zipCode":6496,"name":"Bunda"}},
{"adresse":{"adressId":751,"strasse":"Meadow Vale","nummer":"974","ortId":751},"ort":{"ortId":751,"zipCode":9210,"name":"Marseille"}},
{"adresse":{"adressId":752,"strasse":"Bobwhite","nummer":"58201","ortId":752},"ort":{"ortId":752,"zipCode":7594,"name":"Kraków"}},
{"adresse":{"adressId":753,"strasse":"American","nummer":"579","ortId":753},"ort":{"ortId":753,"zipCode":6788,"name":"Isheyevka"}},
{"adresse":{"adressId":754,"strasse":"Waubesa","nummer":"10720","ortId":754},"ort":{"ortId":754,"zipCode":3533,"name":"Malata"}},
{"adresse":{"adressId":755,"strasse":"Luster","nummer":"47332","ortId":755},"ort":{"ortId":755,"zipCode":9906,"name":"Espinal"}},
{"adresse":{"adressId":756,"strasse":"Eggendart","nummer":"47219","ortId":756},"ort":{"ortId":756,"zipCode":1840,"name":"Kato Pyrgos"}},
{"adresse":{"adressId":757,"strasse":"Pawling","nummer":"1011","ortId":757},"ort":{"ortId":757,"zipCode":8250,"name":"Vista Hermosa"}},
{"adresse":{"adressId":758,"strasse":"Mayfield","nummer":"0","ortId":758},"ort":{"ortId":758,"zipCode":3144,"name":"Dulangan"}},
{"adresse":{"adressId":759,"strasse":"Delaware","nummer":"1","ortId":759},"ort":{"ortId":759,"zipCode":4913,"name":"Marsaxlokk"}},
{"adresse":{"adressId":760,"strasse":"Ruskin","nummer":"1","ortId":760},"ort":{"ortId":760,"zipCode":7245,"name":"Tsuruoka"}},
{"adresse":{"adressId":761,"strasse":"Ryan","nummer":"7319","ortId":761},"ort":{"ortId":761,"zipCode":3897,"name":"Manukaka"}},
{"adresse":{"adressId":762,"strasse":"Merry","nummer":"79","ortId":762},"ort":{"ortId":762,"zipCode":8390,"name":"New York City"}},
{"adresse":{"adressId":763,"strasse":"Starling","nummer":"3513","ortId":763},"ort":{"ortId":763,"zipCode":3691,"name":"Guáimaro"}},
{"adresse":{"adressId":764,"strasse":"Petterle","nummer":"0","ortId":764},"ort":{"ortId":764,"zipCode":7669,"name":"Santiago"}},
{"adresse":{"adressId":765,"strasse":"Hudson","nummer":"46","ortId":765},"ort":{"ortId":765,"zipCode":8608,"name":"Anuradhapura"}},
{"adresse":{"adressId":766,"strasse":"Rowland","nummer":"3478","ortId":766},"ort":{"ortId":766,"zipCode":2347,"name":"Manning"}},
{"adresse":{"adressId":767,"strasse":"Sunbrook","nummer":"1771","ortId":767},"ort":{"ortId":767,"zipCode":6791,"name":"Paobokol"}},
{"adresse":{"adressId":768,"strasse":"Chive","nummer":"58388","ortId":768},"ort":{"ortId":768,"zipCode":5947,"name":"Loúros"}},
{"adresse":{"adressId":769,"strasse":"Hintze","nummer":"1827","ortId":769},"ort":{"ortId":769,"zipCode":7540,"name":"Saarbrücken"}},
{"adresse":{"adressId":770,"strasse":"Maple Wood","nummer":"75","ortId":770},"ort":{"ortId":770,"zipCode":8755,"name":"Dongshan"}},
{"adresse":{"adressId":771,"strasse":"Hallows","nummer":"904","ortId":771},"ort":{"ortId":771,"zipCode":1625,"name":"Central"}},
{"adresse":{"adressId":772,"strasse":"Crowley","nummer":"6","ortId":772},"ort":{"ortId":772,"zipCode":7405,"name":"Trångsund"}},
{"adresse":{"adressId":773,"strasse":"Sheridan","nummer":"640","ortId":773},"ort":{"ortId":773,"zipCode":2934,"name":"Qiaoxi"}},
{"adresse":{"adressId":774,"strasse":"Valley Edge","nummer":"2","ortId":774},"ort":{"ortId":774,"zipCode":6800,"name":"Golomunta"}},
{"adresse":{"adressId":775,"strasse":"Main","nummer":"83001","ortId":775},"ort":{"ortId":775,"zipCode":3304,"name":"Clondalkin"}},
{"adresse":{"adressId":776,"strasse":"Pennsylvania","nummer":"8460","ortId":776},"ort":{"ortId":776,"zipCode":7158,"name":"Tabora"}},
{"adresse":{"adressId":777,"strasse":"Lakewood Gardens","nummer":"4072","ortId":777},"ort":{"ortId":777,"zipCode":8356,"name":"Cabra Figa"}},
{"adresse":{"adressId":778,"strasse":"Farmco","nummer":"946","ortId":778},"ort":{"ortId":778,"zipCode":4394,"name":"Igaraçu do Tietê"}},
{"adresse":{"adressId":779,"strasse":"Utah","nummer":"24","ortId":779},"ort":{"ortId":779,"zipCode":9967,"name":"Butubut Norte"}},
{"adresse":{"adressId":780,"strasse":"Sachtjen","nummer":"13","ortId":780},"ort":{"ortId":780,"zipCode":3232,"name":"Ijūin"}},
{"adresse":{"adressId":781,"strasse":"Ridgeview","nummer":"5988","ortId":781},"ort":{"ortId":781,"zipCode":6112,"name":"Junín"}},
{"adresse":{"adressId":782,"strasse":"Tennyson","nummer":"98","ortId":782},"ort":{"ortId":782,"zipCode":1733,"name":"Laoag"}},
{"adresse":{"adressId":783,"strasse":"Pepper Wood","nummer":"670","ortId":783},"ort":{"ortId":783,"zipCode":2247,"name":"Gaotieling"}},
{"adresse":{"adressId":784,"strasse":"Badeau","nummer":"5673","ortId":784},"ort":{"ortId":784,"zipCode":3233,"name":"Huitong"}},
{"adresse":{"adressId":785,"strasse":"Hauk","nummer":"48","ortId":785},"ort":{"ortId":785,"zipCode":2863,"name":"Karamat"}},
{"adresse":{"adressId":786,"strasse":"2nd","nummer":"8","ortId":786},"ort":{"ortId":786,"zipCode":1804,"name":"Bueng Khong Long"}},
{"adresse":{"adressId":787,"strasse":"Truax","nummer":"3","ortId":787},"ort":{"ortId":787,"zipCode":5484,"name":"Yanxi"}},
{"adresse":{"adressId":788,"strasse":"Barby","nummer":"13","ortId":788},"ort":{"ortId":788,"zipCode":4267,"name":"Porsgrunn"}},
{"adresse":{"adressId":789,"strasse":"Hanson","nummer":"62","ortId":789},"ort":{"ortId":789,"zipCode":9287,"name":"Dawung"}},
{"adresse":{"adressId":790,"strasse":"Merrick","nummer":"0967","ortId":790},"ort":{"ortId":790,"zipCode":2812,"name":"Carolina"}},
{"adresse":{"adressId":791,"strasse":"Maywood","nummer":"2246","ortId":791},"ort":{"ortId":791,"zipCode":5368,"name":"Malausma Kidul"}},
{"adresse":{"adressId":792,"strasse":"Golf View","nummer":"38413","ortId":792},"ort":{"ortId":792,"zipCode":9872,"name":"Chalamarca"}},
{"adresse":{"adressId":793,"strasse":"Iowa","nummer":"55","ortId":793},"ort":{"ortId":793,"zipCode":6269,"name":"Makīnsk"}},
{"adresse":{"adressId":794,"strasse":"Pennsylvania","nummer":"1","ortId":794},"ort":{"ortId":794,"zipCode":3612,"name":"Loacan"}},
{"adresse":{"adressId":795,"strasse":"New Castle","nummer":"4","ortId":795},"ort":{"ortId":795,"zipCode":1216,"name":"Kyaikkami"}},
{"adresse":{"adressId":796,"strasse":"Jenifer","nummer":"94","ortId":796},"ort":{"ortId":796,"zipCode":3787,"name":"Dschang"}},
{"adresse":{"adressId":797,"strasse":"Oriole","nummer":"42","ortId":797},"ort":{"ortId":797,"zipCode":6098,"name":"Gyumri"}},
{"adresse":{"adressId":798,"strasse":"Bellgrove","nummer":"758","ortId":798},"ort":{"ortId":798,"zipCode":4362,"name":"Vaughan"}},
{"adresse":{"adressId":799,"strasse":"Hovde","nummer":"41","ortId":799},"ort":{"ortId":799,"zipCode":4533,"name":"Hat Yai"}},
{"adresse":{"adressId":800,"strasse":"Commercial","nummer":"02313","ortId":800},"ort":{"ortId":800,"zipCode":9902,"name":"Matozinhos"}},
{"adresse":{"adressId":801,"strasse":"Lake View","nummer":"84","ortId":801},"ort":{"ortId":801,"zipCode":6821,"name":"Neftçala"}},
{"adresse":{"adressId":802,"strasse":"Cambridge","nummer":"4","ortId":802},"ort":{"ortId":802,"zipCode":7368,"name":"Augsburg"}},
{"adresse":{"adressId":803,"strasse":"Thackeray","nummer":"2","ortId":803},"ort":{"ortId":803,"zipCode":3360,"name":"Darenzhuang"}},
{"adresse":{"adressId":804,"strasse":"Golf Course","nummer":"14427","ortId":804},"ort":{"ortId":804,"zipCode":7682,"name":"Kärdla"}},
{"adresse":{"adressId":805,"strasse":"Thompson","nummer":"2112","ortId":805},"ort":{"ortId":805,"zipCode":3721,"name":"Rancho Viejo"}},
{"adresse":{"adressId":806,"strasse":"Barby","nummer":"976","ortId":806},"ort":{"ortId":806,"zipCode":2377,"name":"Tangpu"}},
{"adresse":{"adressId":807,"strasse":"Moose","nummer":"8","ortId":807},"ort":{"ortId":807,"zipCode":9025,"name":"Shuangjiang"}},
{"adresse":{"adressId":808,"strasse":"Leroy","nummer":"75","ortId":808},"ort":{"ortId":808,"zipCode":7460,"name":"Situ"}},
{"adresse":{"adressId":809,"strasse":"Bashford","nummer":"075","ortId":809},"ort":{"ortId":809,"zipCode":3697,"name":"Los Angeles"}},
{"adresse":{"adressId":810,"strasse":"Merchant","nummer":"06334","ortId":810},"ort":{"ortId":810,"zipCode":7482,"name":"Thị Trấn Tam Điệp"}},
{"adresse":{"adressId":811,"strasse":"Nova","nummer":"53","ortId":811},"ort":{"ortId":811,"zipCode":7370,"name":"Somita"}},
{"adresse":{"adressId":812,"strasse":"Little Fleur","nummer":"49","ortId":812},"ort":{"ortId":812,"zipCode":8976,"name":"Issy-les-Moulineaux"}},
{"adresse":{"adressId":813,"strasse":"Butternut","nummer":"37435","ortId":813},"ort":{"ortId":813,"zipCode":5934,"name":"Sfax"}},
{"adresse":{"adressId":814,"strasse":"Burning Wood","nummer":"12815","ortId":814},"ort":{"ortId":814,"zipCode":3214,"name":"Binagadi"}},
{"adresse":{"adressId":815,"strasse":"Gale","nummer":"9566","ortId":815},"ort":{"ortId":815,"zipCode":5120,"name":"Dahuangwei"}},
{"adresse":{"adressId":816,"strasse":"Crescent Oaks","nummer":"6574","ortId":816},"ort":{"ortId":816,"zipCode":2528,"name":"Caen"}},
{"adresse":{"adressId":817,"strasse":"Hagan","nummer":"752","ortId":817},"ort":{"ortId":817,"zipCode":2583,"name":"Kamo"}},
{"adresse":{"adressId":818,"strasse":"Welch","nummer":"51670","ortId":818},"ort":{"ortId":818,"zipCode":9581,"name":"Lazaro Cardenas"}},
{"adresse":{"adressId":819,"strasse":"Monterey","nummer":"7","ortId":819},"ort":{"ortId":819,"zipCode":6967,"name":"Aemura"}},
{"adresse":{"adressId":820,"strasse":"Graedel","nummer":"945","ortId":820},"ort":{"ortId":820,"zipCode":5422,"name":"Mateur"}},
{"adresse":{"adressId":821,"strasse":"Sachtjen","nummer":"63","ortId":821},"ort":{"ortId":821,"zipCode":2661,"name":"Ōi"}},
{"adresse":{"adressId":822,"strasse":"Raven","nummer":"99","ortId":822},"ort":{"ortId":822,"zipCode":2503,"name":"Lianhua"}},
{"adresse":{"adressId":823,"strasse":"Memorial","nummer":"8867","ortId":823},"ort":{"ortId":823,"zipCode":5284,"name":"Tokuyama"}},
{"adresse":{"adressId":824,"strasse":"Meadow Valley","nummer":"4","ortId":824},"ort":{"ortId":824,"zipCode":1938,"name":"Pangushan"}},
{"adresse":{"adressId":825,"strasse":"Hauk","nummer":"6321","ortId":825},"ort":{"ortId":825,"zipCode":3169,"name":"Matou"}},
{"adresse":{"adressId":826,"strasse":"2nd","nummer":"1160","ortId":826},"ort":{"ortId":826,"zipCode":2422,"name":"Cela"}},
{"adresse":{"adressId":827,"strasse":"South","nummer":"8","ortId":827},"ort":{"ortId":827,"zipCode":1772,"name":"Altıağac"}},
{"adresse":{"adressId":828,"strasse":"Thackeray","nummer":"844","ortId":828},"ort":{"ortId":828,"zipCode":3675,"name":"Ljupina"}},
{"adresse":{"adressId":829,"strasse":"Melrose","nummer":"6849","ortId":829},"ort":{"ortId":829,"zipCode":2284,"name":"Aston"}},
{"adresse":{"adressId":830,"strasse":"Derek","nummer":"3","ortId":830},"ort":{"ortId":830,"zipCode":8374,"name":"Las Junturas"}},
{"adresse":{"adressId":831,"strasse":"Morning","nummer":"5200","ortId":831},"ort":{"ortId":831,"zipCode":5529,"name":"Taipei"}},
{"adresse":{"adressId":832,"strasse":"Bobwhite","nummer":"1750","ortId":832},"ort":{"ortId":832,"zipCode":5630,"name":"Zalanga"}},
{"adresse":{"adressId":833,"strasse":"Homewood","nummer":"0593","ortId":833},"ort":{"ortId":833,"zipCode":5243,"name":"Awayan"}},
{"adresse":{"adressId":834,"strasse":"Bartelt","nummer":"7","ortId":834},"ort":{"ortId":834,"zipCode":2300,"name":"Nampera"}},
{"adresse":{"adressId":835,"strasse":"Garrison","nummer":"8","ortId":835},"ort":{"ortId":835,"zipCode":3965,"name":"Jagna"}},
{"adresse":{"adressId":836,"strasse":"Shasta","nummer":"977","ortId":836},"ort":{"ortId":836,"zipCode":1228,"name":"Bar"}},
{"adresse":{"adressId":837,"strasse":"Delaware","nummer":"94","ortId":837},"ort":{"ortId":837,"zipCode":9307,"name":"Santa Monica"}},
{"adresse":{"adressId":838,"strasse":"Warbler","nummer":"2","ortId":838},"ort":{"ortId":838,"zipCode":6469,"name":"Tumxuk"}},
{"adresse":{"adressId":839,"strasse":"Mariners Cove","nummer":"192","ortId":839},"ort":{"ortId":839,"zipCode":4037,"name":"Manta"}},
{"adresse":{"adressId":840,"strasse":"Transport","nummer":"19434","ortId":840},"ort":{"ortId":840,"zipCode":1241,"name":"Pereiros"}},
{"adresse":{"adressId":841,"strasse":"Cottonwood","nummer":"802","ortId":841},"ort":{"ortId":841,"zipCode":2526,"name":"København"}},
{"adresse":{"adressId":842,"strasse":"Blackbird","nummer":"502","ortId":842},"ort":{"ortId":842,"zipCode":2607,"name":"Bogorodsk"}},
{"adresse":{"adressId":843,"strasse":"Forest Dale","nummer":"63","ortId":843},"ort":{"ortId":843,"zipCode":9194,"name":"Reston"}},
{"adresse":{"adressId":844,"strasse":"Sheridan","nummer":"8309","ortId":844},"ort":{"ortId":844,"zipCode":1026,"name":"Tanghu"}},
{"adresse":{"adressId":845,"strasse":"Straubel","nummer":"95","ortId":845},"ort":{"ortId":845,"zipCode":1433,"name":"Sagang"}},
{"adresse":{"adressId":846,"strasse":"Marcy","nummer":"33","ortId":846},"ort":{"ortId":846,"zipCode":7740,"name":"Lepoglava"}},
{"adresse":{"adressId":847,"strasse":"Crowley","nummer":"86","ortId":847},"ort":{"ortId":847,"zipCode":2237,"name":"Horní Suchá"}},
{"adresse":{"adressId":848,"strasse":"Knutson","nummer":"067","ortId":848},"ort":{"ortId":848,"zipCode":9373,"name":"Hengxizhen"}},
{"adresse":{"adressId":849,"strasse":"Chinook","nummer":"2090","ortId":849},"ort":{"ortId":849,"zipCode":1017,"name":"Nagornyy"}},
{"adresse":{"adressId":850,"strasse":"Brentwood","nummer":"36","ortId":850},"ort":{"ortId":850,"zipCode":7914,"name":"Horad Pinsk"}},
{"adresse":{"adressId":851,"strasse":"Ramsey","nummer":"3","ortId":851},"ort":{"ortId":851,"zipCode":3771,"name":"Viking"}},
{"adresse":{"adressId":852,"strasse":"Di Loreto","nummer":"12","ortId":852},"ort":{"ortId":852,"zipCode":3793,"name":"Bol’shoye Skuratovo"}},
{"adresse":{"adressId":853,"strasse":"Westridge","nummer":"0293","ortId":853},"ort":{"ortId":853,"zipCode":2740,"name":"Sumusţā as Sulţānī"}},
{"adresse":{"adressId":854,"strasse":"Sachs","nummer":"7","ortId":854},"ort":{"ortId":854,"zipCode":4095,"name":"Mudian"}},
{"adresse":{"adressId":855,"strasse":"Mandrake","nummer":"74079","ortId":855},"ort":{"ortId":855,"zipCode":6774,"name":"Yugang"}},
{"adresse":{"adressId":856,"strasse":"Duke","nummer":"95528","ortId":856},"ort":{"ortId":856,"zipCode":8000,"name":"Tonjongsari"}},
{"adresse":{"adressId":857,"strasse":"Melvin","nummer":"6904","ortId":857},"ort":{"ortId":857,"zipCode":2168,"name":"Winseler"}},
{"adresse":{"adressId":858,"strasse":"Lunder","nummer":"30","ortId":858},"ort":{"ortId":858,"zipCode":1052,"name":"Kristiansund N"}},
{"adresse":{"adressId":859,"strasse":"Shopko","nummer":"44882","ortId":859},"ort":{"ortId":859,"zipCode":4725,"name":"Ōyama"}},
{"adresse":{"adressId":860,"strasse":"Burrows","nummer":"0398","ortId":860},"ort":{"ortId":860,"zipCode":3807,"name":"Banjar Susut Kaja"}},
{"adresse":{"adressId":861,"strasse":"Scott","nummer":"18","ortId":861},"ort":{"ortId":861,"zipCode":4239,"name":"Bacheng"}},
{"adresse":{"adressId":862,"strasse":"Texas","nummer":"8371","ortId":862},"ort":{"ortId":862,"zipCode":2816,"name":"Huaiyuan Chengguanzhen"}},
{"adresse":{"adressId":863,"strasse":"Vernon","nummer":"43","ortId":863},"ort":{"ortId":863,"zipCode":2877,"name":"Málaga"}},
{"adresse":{"adressId":864,"strasse":"Shopko","nummer":"53780","ortId":864},"ort":{"ortId":864,"zipCode":2409,"name":"Roanoke"}},
{"adresse":{"adressId":865,"strasse":"Donald","nummer":"638","ortId":865},"ort":{"ortId":865,"zipCode":8594,"name":"Schellenberg"}},
{"adresse":{"adressId":866,"strasse":"Pearson","nummer":"7","ortId":866},"ort":{"ortId":866,"zipCode":6438,"name":"Charleville-Mézières"}},
{"adresse":{"adressId":867,"strasse":"6th","nummer":"9","ortId":867},"ort":{"ortId":867,"zipCode":8805,"name":"Ostrožac"}},
{"adresse":{"adressId":868,"strasse":"Tennessee","nummer":"59","ortId":868},"ort":{"ortId":868,"zipCode":1293,"name":"Lingbei"}},
{"adresse":{"adressId":869,"strasse":"8th","nummer":"95445","ortId":869},"ort":{"ortId":869,"zipCode":9766,"name":"Cahors"}},
{"adresse":{"adressId":870,"strasse":"Crowley","nummer":"0318","ortId":870},"ort":{"ortId":870,"zipCode":6814,"name":"Gatesville"}},
{"adresse":{"adressId":871,"strasse":"Oxford","nummer":"281","ortId":871},"ort":{"ortId":871,"zipCode":7245,"name":"Johanneshov"}},
{"adresse":{"adressId":872,"strasse":"Welch","nummer":"7","ortId":872},"ort":{"ortId":872,"zipCode":5591,"name":"Gongbuxue"}},
{"adresse":{"adressId":873,"strasse":"Hintze","nummer":"250","ortId":873},"ort":{"ortId":873,"zipCode":5377,"name":"Maying"}},
{"adresse":{"adressId":874,"strasse":"Lakeland","nummer":"2","ortId":874},"ort":{"ortId":874,"zipCode":9478,"name":"São Miguel do Guamá"}},
{"adresse":{"adressId":875,"strasse":"Kenwood","nummer":"2","ortId":875},"ort":{"ortId":875,"zipCode":4994,"name":"Hutou"}},
{"adresse":{"adressId":876,"strasse":"Judy","nummer":"87348","ortId":876},"ort":{"ortId":876,"zipCode":9692,"name":"Ushuaia"}},
{"adresse":{"adressId":877,"strasse":"Meadow Vale","nummer":"354","ortId":877},"ort":{"ortId":877,"zipCode":9307,"name":"Corupá"}},
{"adresse":{"adressId":878,"strasse":"Garrison","nummer":"0","ortId":878},"ort":{"ortId":878,"zipCode":5831,"name":"Guaraciaba do Norte"}},
{"adresse":{"adressId":879,"strasse":"Marcy","nummer":"00871","ortId":879},"ort":{"ortId":879,"zipCode":3005,"name":"Rio Negrinho"}},
{"adresse":{"adressId":880,"strasse":"Warrior","nummer":"1074","ortId":880},"ort":{"ortId":880,"zipCode":8480,"name":"Midland"}},
{"adresse":{"adressId":881,"strasse":"Autumn Leaf","nummer":"933","ortId":881},"ort":{"ortId":881,"zipCode":9412,"name":"Smyga"}},
{"adresse":{"adressId":882,"strasse":"Melby","nummer":"310","ortId":882},"ort":{"ortId":882,"zipCode":6117,"name":"Anyuan"}},
{"adresse":{"adressId":883,"strasse":"Calypso","nummer":"480","ortId":883},"ort":{"ortId":883,"zipCode":8200,"name":"Ratchaburi"}},
{"adresse":{"adressId":884,"strasse":"Dovetail","nummer":"584","ortId":884},"ort":{"ortId":884,"zipCode":9305,"name":"Bayasgalant"}},
{"adresse":{"adressId":885,"strasse":"Sachtjen","nummer":"33","ortId":885},"ort":{"ortId":885,"zipCode":6507,"name":"Spas’ke"}},
{"adresse":{"adressId":886,"strasse":"Del Mar","nummer":"49","ortId":886},"ort":{"ortId":886,"zipCode":4019,"name":"Zambujeira"}},
{"adresse":{"adressId":887,"strasse":"Magdeline","nummer":"159","ortId":887},"ort":{"ortId":887,"zipCode":4031,"name":"Airuk"}},
{"adresse":{"adressId":888,"strasse":"Heath","nummer":"4645","ortId":888},"ort":{"ortId":888,"zipCode":3558,"name":"Santa Cruz das Palmeiras"}},
{"adresse":{"adressId":889,"strasse":"American Ash","nummer":"69207","ortId":889},"ort":{"ortId":889,"zipCode":1707,"name":"Kashihara-shi"}},
{"adresse":{"adressId":890,"strasse":"Ilene","nummer":"465","ortId":890},"ort":{"ortId":890,"zipCode":5380,"name":"Candi Prambanan"}},
{"adresse":{"adressId":891,"strasse":"Victoria","nummer":"87","ortId":891},"ort":{"ortId":891,"zipCode":4050,"name":"Ōsaka-shi"}},
{"adresse":{"adressId":892,"strasse":"Sunnyside","nummer":"11","ortId":892},"ort":{"ortId":892,"zipCode":9271,"name":"Shah Alam"}},
{"adresse":{"adressId":893,"strasse":"Forest Dale","nummer":"20","ortId":893},"ort":{"ortId":893,"zipCode":2898,"name":"Mstów"}},
{"adresse":{"adressId":894,"strasse":"Ridgeway","nummer":"729","ortId":894},"ort":{"ortId":894,"zipCode":1283,"name":"Konggar"}},
{"adresse":{"adressId":895,"strasse":"Garrison","nummer":"47003","ortId":895},"ort":{"ortId":895,"zipCode":9466,"name":"Maroantsetra"}},
{"adresse":{"adressId":896,"strasse":"Huxley","nummer":"3947","ortId":896},"ort":{"ortId":896,"zipCode":6788,"name":"Chabařovice"}},
{"adresse":{"adressId":897,"strasse":"Golf","nummer":"0","ortId":897},"ort":{"ortId":897,"zipCode":9333,"name":"Taramana"}},
{"adresse":{"adressId":898,"strasse":"Sauthoff","nummer":"856","ortId":898},"ort":{"ortId":898,"zipCode":6845,"name":"Červená Voda"}},
{"adresse":{"adressId":899,"strasse":"Dorton","nummer":"7","ortId":899},"ort":{"ortId":899,"zipCode":8235,"name":"Oshawa"}},
{"adresse":{"adressId":900,"strasse":"Prairieview","nummer":"9767","ortId":900},"ort":{"ortId":900,"zipCode":1300,"name":"Darfield"}},
{"adresse":{"adressId":901,"strasse":"Swallow","nummer":"2705","ortId":901},"ort":{"ortId":901,"zipCode":2992,"name":"Tongda"}},
{"adresse":{"adressId":902,"strasse":"Grayhawk","nummer":"35794","ortId":902},"ort":{"ortId":902,"zipCode":1684,"name":"Planeta Rica"}},
{"adresse":{"adressId":903,"strasse":"Stoughton","nummer":"69","ortId":903},"ort":{"ortId":903,"zipCode":7233,"name":"Even Yehuda"}},
{"adresse":{"adressId":904,"strasse":"Mockingbird","nummer":"66","ortId":904},"ort":{"ortId":904,"zipCode":5575,"name":"Novoanninskiy"}},
{"adresse":{"adressId":905,"strasse":"Waywood","nummer":"313","ortId":905},"ort":{"ortId":905,"zipCode":8674,"name":"Várzea Grande"}},
{"adresse":{"adressId":906,"strasse":"Schmedeman","nummer":"1","ortId":906},"ort":{"ortId":906,"zipCode":1286,"name":"Furukawa"}},
{"adresse":{"adressId":907,"strasse":"Spaight","nummer":"21","ortId":907},"ort":{"ortId":907,"zipCode":1200,"name":"Marabahan"}},
{"adresse":{"adressId":908,"strasse":"Bultman","nummer":"9068","ortId":908},"ort":{"ortId":908,"zipCode":9796,"name":"Merke"}},
{"adresse":{"adressId":909,"strasse":"Menomonie","nummer":"6","ortId":909},"ort":{"ortId":909,"zipCode":8288,"name":"Sacramento"}},
{"adresse":{"adressId":910,"strasse":"Trailsway","nummer":"110","ortId":910},"ort":{"ortId":910,"zipCode":4291,"name":"Bilhó"}},
{"adresse":{"adressId":911,"strasse":"Nancy","nummer":"3250","ortId":911},"ort":{"ortId":911,"zipCode":1685,"name":"Chucatamani"}},
{"adresse":{"adressId":912,"strasse":"Pepper Wood","nummer":"7","ortId":912},"ort":{"ortId":912,"zipCode":5829,"name":"Sempu"}},
{"adresse":{"adressId":913,"strasse":"Ridge Oak","nummer":"499","ortId":913},"ort":{"ortId":913,"zipCode":9310,"name":"Faleula"}},
{"adresse":{"adressId":914,"strasse":"Prentice","nummer":"6","ortId":914},"ort":{"ortId":914,"zipCode":2592,"name":"Lastoursville"}},
{"adresse":{"adressId":915,"strasse":"Dixon","nummer":"5808","ortId":915},"ort":{"ortId":915,"zipCode":8289,"name":"Carigara"}},
{"adresse":{"adressId":916,"strasse":"Oxford","nummer":"3","ortId":916},"ort":{"ortId":916,"zipCode":4433,"name":"Santiago"}},
{"adresse":{"adressId":917,"strasse":"Dexter","nummer":"8","ortId":917},"ort":{"ortId":917,"zipCode":6789,"name":"Omu Aran"}},
{"adresse":{"adressId":918,"strasse":"Sunfield","nummer":"5","ortId":918},"ort":{"ortId":918,"zipCode":7770,"name":"Randuagung"}},
{"adresse":{"adressId":919,"strasse":"8th","nummer":"787","ortId":919},"ort":{"ortId":919,"zipCode":3594,"name":"Södertälje"}},
{"adresse":{"adressId":920,"strasse":"Meadow Vale","nummer":"95970","ortId":920},"ort":{"ortId":920,"zipCode":9403,"name":"Bužim"}},
{"adresse":{"adressId":921,"strasse":"High Crossing","nummer":"245","ortId":921},"ort":{"ortId":921,"zipCode":3817,"name":"Uppsala"}},
{"adresse":{"adressId":922,"strasse":"Lyons","nummer":"51","ortId":922},"ort":{"ortId":922,"zipCode":6248,"name":"Koszęcin"}},
{"adresse":{"adressId":923,"strasse":"Lotheville","nummer":"54371","ortId":923},"ort":{"ortId":923,"zipCode":7290,"name":"Krasnoye"}},
{"adresse":{"adressId":924,"strasse":"Grover","nummer":"566","ortId":924},"ort":{"ortId":924,"zipCode":9137,"name":"Karlshamn"}},
{"adresse":{"adressId":925,"strasse":"Hazelcrest","nummer":"5622","ortId":925},"ort":{"ortId":925,"zipCode":5746,"name":"Jinghong"}},
{"adresse":{"adressId":926,"strasse":"Oak Valley","nummer":"396","ortId":926},"ort":{"ortId":926,"zipCode":9648,"name":"Fornos"}},
{"adresse":{"adressId":927,"strasse":"Little Fleur","nummer":"380","ortId":927},"ort":{"ortId":927,"zipCode":4279,"name":"Changshu City"}},
{"adresse":{"adressId":928,"strasse":"Northfield","nummer":"39","ortId":928},"ort":{"ortId":928,"zipCode":3552,"name":"Jiakexi"}},
{"adresse":{"adressId":929,"strasse":"Grover","nummer":"0","ortId":929},"ort":{"ortId":929,"zipCode":2470,"name":"Trelleborg"}},
{"adresse":{"adressId":930,"strasse":"Veith","nummer":"1","ortId":930},"ort":{"ortId":930,"zipCode":5160,"name":"Cabinteely"}},
{"adresse":{"adressId":931,"strasse":"Charing Cross","nummer":"24490","ortId":931},"ort":{"ortId":931,"zipCode":1144,"name":"Wonosobo"}},
{"adresse":{"adressId":932,"strasse":"Independence","nummer":"27","ortId":932},"ort":{"ortId":932,"zipCode":7574,"name":"Gualeguay"}},
{"adresse":{"adressId":933,"strasse":"Cody","nummer":"241","ortId":933},"ort":{"ortId":933,"zipCode":2047,"name":"Guli"}},
{"adresse":{"adressId":934,"strasse":"Packers","nummer":"0298","ortId":934},"ort":{"ortId":934,"zipCode":9530,"name":"Xinquan"}},
{"adresse":{"adressId":935,"strasse":"Scofield","nummer":"51","ortId":935},"ort":{"ortId":935,"zipCode":3127,"name":"Arras"}},
{"adresse":{"adressId":936,"strasse":"Ridgeway","nummer":"25","ortId":936},"ort":{"ortId":936,"zipCode":7938,"name":"Muting"}},
{"adresse":{"adressId":937,"strasse":"Claremont","nummer":"5893","ortId":937},"ort":{"ortId":937,"zipCode":2389,"name":"Wuqu"}},
{"adresse":{"adressId":938,"strasse":"Buhler","nummer":"86686","ortId":938},"ort":{"ortId":938,"zipCode":4869,"name":"Zhongcheng"}},
{"adresse":{"adressId":939,"strasse":"Acker","nummer":"92856","ortId":939},"ort":{"ortId":939,"zipCode":1774,"name":"Ndélé"}},
{"adresse":{"adressId":940,"strasse":"Pierstorff","nummer":"36243","ortId":940},"ort":{"ortId":940,"zipCode":6704,"name":"Ganping"}},
{"adresse":{"adressId":941,"strasse":"Westerfield","nummer":"1","ortId":941},"ort":{"ortId":941,"zipCode":5662,"name":"Wentang"}},
{"adresse":{"adressId":942,"strasse":"Kensington","nummer":"2","ortId":942},"ort":{"ortId":942,"zipCode":1476,"name":"Las Animas"}},
{"adresse":{"adressId":943,"strasse":"Lindbergh","nummer":"7829","ortId":943},"ort":{"ortId":943,"zipCode":5059,"name":"Recarei"}},
{"adresse":{"adressId":944,"strasse":"Northport","nummer":"552","ortId":944},"ort":{"ortId":944,"zipCode":8013,"name":"Sokyryany"}},
{"adresse":{"adressId":945,"strasse":"Scoville","nummer":"8846","ortId":945},"ort":{"ortId":945,"zipCode":2615,"name":"Goroka"}},
{"adresse":{"adressId":946,"strasse":"Miller","nummer":"80868","ortId":946},"ort":{"ortId":946,"zipCode":2824,"name":"Kerep Wetan"}},
{"adresse":{"adressId":947,"strasse":"Russell","nummer":"2791","ortId":947},"ort":{"ortId":947,"zipCode":5283,"name":"Magaria"}},
{"adresse":{"adressId":948,"strasse":"Rowland","nummer":"7548","ortId":948},"ort":{"ortId":948,"zipCode":8782,"name":"Hod HaSharon"}},
{"adresse":{"adressId":949,"strasse":"Fulton","nummer":"246","ortId":949},"ort":{"ortId":949,"zipCode":7519,"name":"Peseng"}},
{"adresse":{"adressId":950,"strasse":"Becker","nummer":"99420","ortId":950},"ort":{"ortId":950,"zipCode":1551,"name":"Pechersk"}},
{"adresse":{"adressId":951,"strasse":"Drewry","nummer":"8114","ortId":951},"ort":{"ortId":951,"zipCode":7790,"name":"Ijūin"}},
{"adresse":{"adressId":952,"strasse":"Heath","nummer":"625","ortId":952},"ort":{"ortId":952,"zipCode":3865,"name":"Coelho Neto"}},
{"adresse":{"adressId":953,"strasse":"Mallard","nummer":"74926","ortId":953},"ort":{"ortId":953,"zipCode":9019,"name":"Jeziora Wielkie"}},
{"adresse":{"adressId":954,"strasse":"Sycamore","nummer":"008","ortId":954},"ort":{"ortId":954,"zipCode":9260,"name":"Gonābād"}},
{"adresse":{"adressId":955,"strasse":"Charing Cross","nummer":"0295","ortId":955},"ort":{"ortId":955,"zipCode":3441,"name":"Jeding"}},
{"adresse":{"adressId":956,"strasse":"Brentwood","nummer":"8513","ortId":956},"ort":{"ortId":956,"zipCode":2302,"name":"Kleszczewo"}},
{"adresse":{"adressId":957,"strasse":"Kinsman","nummer":"6","ortId":957},"ort":{"ortId":957,"zipCode":9099,"name":"São Julião do Tojal"}},
{"adresse":{"adressId":958,"strasse":"Lyons","nummer":"414","ortId":958},"ort":{"ortId":958,"zipCode":9446,"name":"Thamaga"}},
{"adresse":{"adressId":959,"strasse":"Novick","nummer":"23080","ortId":959},"ort":{"ortId":959,"zipCode":3499,"name":"Mossoró"}},
{"adresse":{"adressId":960,"strasse":"Grasskamp","nummer":"9","ortId":960},"ort":{"ortId":960,"zipCode":8794,"name":"Ushumun"}},
{"adresse":{"adressId":961,"strasse":"Arkansas","nummer":"91","ortId":961},"ort":{"ortId":961,"zipCode":5966,"name":"Humble"}},
{"adresse":{"adressId":962,"strasse":"Sherman","nummer":"4","ortId":962},"ort":{"ortId":962,"zipCode":6998,"name":"Nanwai"}},
{"adresse":{"adressId":963,"strasse":"Melody","nummer":"81146","ortId":963},"ort":{"ortId":963,"zipCode":2894,"name":"Replot"}},
{"adresse":{"adressId":964,"strasse":"Sherman","nummer":"7508","ortId":964},"ort":{"ortId":964,"zipCode":7833,"name":"San Jose"}},
{"adresse":{"adressId":965,"strasse":"Bellgrove","nummer":"59925","ortId":965},"ort":{"ortId":965,"zipCode":6207,"name":"Oeleon"}},
{"adresse":{"adressId":966,"strasse":"Bluejay","nummer":"2","ortId":966},"ort":{"ortId":966,"zipCode":8902,"name":"Zaječí"}},
{"adresse":{"adressId":967,"strasse":"Twin Pines","nummer":"494","ortId":967},"ort":{"ortId":967,"zipCode":2749,"name":"Xiamao"}},
{"adresse":{"adressId":968,"strasse":"Delaware","nummer":"7098","ortId":968},"ort":{"ortId":968,"zipCode":1153,"name":"Chyšky"}},
{"adresse":{"adressId":969,"strasse":"Dixon","nummer":"6200","ortId":969},"ort":{"ortId":969,"zipCode":6946,"name":"Kurortnyy"}},
{"adresse":{"adressId":970,"strasse":"Manitowish","nummer":"8049","ortId":970},"ort":{"ortId":970,"zipCode":8746,"name":"Svalöv"}},
{"adresse":{"adressId":971,"strasse":"Oakridge","nummer":"9226","ortId":971},"ort":{"ortId":971,"zipCode":6026,"name":"Duantan"}},
{"adresse":{"adressId":972,"strasse":"Florence","nummer":"28814","ortId":972},"ort":{"ortId":972,"zipCode":4330,"name":"Pasadena"}},
{"adresse":{"adressId":973,"strasse":"Harper","nummer":"046","ortId":973},"ort":{"ortId":973,"zipCode":1740,"name":"Dalupaon"}},
{"adresse":{"adressId":974,"strasse":"Golf","nummer":"81761","ortId":974},"ort":{"ortId":974,"zipCode":1310,"name":"Kelasuri"}},
{"adresse":{"adressId":975,"strasse":"Buell","nummer":"15","ortId":975},"ort":{"ortId":975,"zipCode":2878,"name":"Penanggapan"}},
{"adresse":{"adressId":976,"strasse":"Ridgeview","nummer":"5994","ortId":976},"ort":{"ortId":976,"zipCode":8555,"name":"Rathdrum"}},
{"adresse":{"adressId":977,"strasse":"Gateway","nummer":"26","ortId":977},"ort":{"ortId":977,"zipCode":6543,"name":"Pa Tio"}},
{"adresse":{"adressId":978,"strasse":"Talisman","nummer":"3569","ortId":978},"ort":{"ortId":978,"zipCode":8864,"name":"Caidian"}},
{"adresse":{"adressId":979,"strasse":"Meadow Valley","nummer":"7","ortId":979},"ort":{"ortId":979,"zipCode":6474,"name":"Jingdang"}},
{"adresse":{"adressId":980,"strasse":"Nancy","nummer":"33319","ortId":980},"ort":{"ortId":980,"zipCode":7007,"name":"Longwantun"}},
{"adresse":{"adressId":981,"strasse":"Troy","nummer":"42571","ortId":981},"ort":{"ortId":981,"zipCode":1430,"name":"Huangyang"}},
{"adresse":{"adressId":982,"strasse":"Melby","nummer":"9207","ortId":982},"ort":{"ortId":982,"zipCode":8546,"name":"Nackawic"}},
{"adresse":{"adressId":983,"strasse":"Oak","nummer":"7","ortId":983},"ort":{"ortId":983,"zipCode":6855,"name":"Pajannangger"}},
{"adresse":{"adressId":984,"strasse":"Northfield","nummer":"4","ortId":984},"ort":{"ortId":984,"zipCode":6530,"name":"Izra‘"}},
{"adresse":{"adressId":985,"strasse":"Brickson Park","nummer":"9","ortId":985},"ort":{"ortId":985,"zipCode":5423,"name":"Altıağac"}},
{"adresse":{"adressId":986,"strasse":"Talmadge","nummer":"65","ortId":986},"ort":{"ortId":986,"zipCode":8330,"name":"Goúrnes"}},
{"adresse":{"adressId":987,"strasse":"Fairview","nummer":"8","ortId":987},"ort":{"ortId":987,"zipCode":2041,"name":"Salcedo"}},
{"adresse":{"adressId":988,"strasse":"Merchant","nummer":"5455","ortId":988},"ort":{"ortId":988,"zipCode":5833,"name":"Sölvesborg"}},
{"adresse":{"adressId":989,"strasse":"Express","nummer":"74856","ortId":989},"ort":{"ortId":989,"zipCode":4087,"name":"Colonia Mauricio José Troche"}},
{"adresse":{"adressId":990,"strasse":"Fremont","nummer":"1","ortId":990},"ort":{"ortId":990,"zipCode":7321,"name":"Orvault"}},
{"adresse":{"adressId":991,"strasse":"Rieder","nummer":"96774","ortId":991},"ort":{"ortId":991,"zipCode":5316,"name":"Fortuna"}},
{"adresse":{"adressId":992,"strasse":"Cardinal","nummer":"00","ortId":992},"ort":{"ortId":992,"zipCode":6866,"name":"Bogorodsk"}},
{"adresse":{"adressId":993,"strasse":"Eastlawn","nummer":"54560","ortId":993},"ort":{"ortId":993,"zipCode":3375,"name":"Mauren"}},
{"adresse":{"adressId":994,"strasse":"Lotheville","nummer":"4239","ortId":994},"ort":{"ortId":994,"zipCode":2050,"name":"San Ramón"}},
{"adresse":{"adressId":995,"strasse":"Columbus","nummer":"866","ortId":995},"ort":{"ortId":995,"zipCode":2586,"name":"Stung Treng"}},
{"adresse":{"adressId":996,"strasse":"Cottonwood","nummer":"5750","ortId":996},"ort":{"ortId":996,"zipCode":7650,"name":"Tarragona"}},
{"adresse":{"adressId":997,"strasse":"Elgar","nummer":"74","ortId":997},"ort":{"ortId":997,"zipCode":2470,"name":"Puncakmanis"}},
{"adresse":{"adressId":998,"strasse":"Eastlawn","nummer":"282","ortId":998},"ort":{"ortId":998,"zipCode":9350,"name":"Rathwire"}},
{"adresse":{"adressId":999,"strasse":"Kings","nummer":"7","ortId":999},"ort":{"ortId":999,"zipCode":8852,"name":"James Craik"}},
{"adresse":{"adressId":1000,"strasse":"Del Sol","nummer":"51072","ortId":1000},"ort":{"ortId":1000,"zipCode":3177,"name":"Nueve de Julio"}}]